[
  {
	"code": "4501",
	"name": "南宁市",
	"provinceCode": "45",
	"list": [
	  {
		"cityCode": "4501",
		"code": "450102",
		"name": "兴宁区",
		"provinceCode": "45",
		"list": [
		  {
			"areaCode": "450102",
			"cityCode": "4501",
			"code": "450102001",
			"name": "民生街道办事处",
			"provinceCode": "45"
		  },
		  {
			"areaCode": "450102",
			"cityCode": "4501",
			"code": "450102002",
			"name": "朝阳街道办事处",
			"provinceCode": "45"
		  },
		  {
			"areaCode": "450102",
			"cityCode": "4501",
			"code": "450102003",
			"name": "兴东街道办事处",
			"provinceCode": "45"
		  },
		  {
			"areaCode": "450102",
			"cityCode": "4501",
			"code": "450102101",
			"name": "三塘镇",
			"provinceCode": "45"
		  },
		  {
			"areaCode": "450102",
			"cityCode": "4501",
			"code": "450102102",
			"name": "五塘镇",
			"provinceCode": "45"
		  },
		  {
			"areaCode": "450102",
			"cityCode": "4501",
			"code": "450102104",
			"name": "昆仑镇",
			"provinceCode": "45"
		  },
		  {
			"areaCode": "450102",
			"cityCode": "4501",
			"code": "450102450",
			"name": "九曲湾农场",
			"provinceCode": "45"
		  }
		]
	  },
	  {
		"cityCode": "4501",
		"code": "450103",
		"name": "青秀区",
		"provinceCode": "45",
		"list": [
		  {
			"areaCode": "450103",
			"cityCode": "4501",
			"code": "450103001",
			"name": "新竹街道办事处",
			"provinceCode": "45"
		  },
		  {
			"areaCode": "450103",
			"cityCode": "4501",
			"code": "450103002",
			"name": "中山街道办事处",
			"provinceCode": "45"
		  },
		  {
			"areaCode": "450103",
			"cityCode": "4501",
			"code": "450103003",
			"name": "建政街道办事处",
			"provinceCode": "45"
		  },
		  {
			"areaCode": "450103",
			"cityCode": "4501",
			"code": "450103004",
			"name": "南湖街道办事处",
			"provinceCode": "45"
		  },
		  {
			"areaCode": "450103",
			"cityCode": "4501",
			"code": "450103005",
			"name": "津头街道办事处",
			"provinceCode": "45"
		  },
		  {
			"areaCode": "450103",
			"cityCode": "4501",
			"code": "450103006",
			"name": "仙葫经济开发区管理委员会",
			"provinceCode": "45"
		  },
		  {
			"areaCode": "450103",
			"cityCode": "4501",
			"code": "450103100",
			"name": "刘圩镇",
			"provinceCode": "45"
		  },
		  {
			"areaCode": "450103",
			"cityCode": "4501",
			"code": "450103101",
			"name": "南阳镇",
			"provinceCode": "45"
		  },
		  {
			"areaCode": "450103",
			"cityCode": "4501",
			"code": "450103102",
			"name": "伶俐镇",
			"provinceCode": "45"
		  },
		  {
			"areaCode": "450103",
			"cityCode": "4501",
			"code": "450103103",
			"name": "长塘镇",
			"provinceCode": "45"
		  },
		  {
			"areaCode": "450103",
			"cityCode": "4501",
			"code": "450103451",
			"name": "青秀山管理委员会",
			"provinceCode": "45"
		  }
		]
	  },
	  {
		"cityCode": "4501",
		"code": "450105",
		"name": "江南区",
		"provinceCode": "45",
		"list": [
		  {
			"areaCode": "450105",
			"cityCode": "4501",
			"code": "450105001",
			"name": "福建园街道办事处",
			"provinceCode": "45"
		  },
		  {
			"areaCode": "450105",
			"cityCode": "4501",
			"code": "450105002",
			"name": "江南街道办事处",
			"provinceCode": "45"
		  },
		  {
			"areaCode": "450105",
			"cityCode": "4501",
			"code": "450105003",
			"name": "沙井街道办事处",
			"provinceCode": "45"
		  },
		  {
			"areaCode": "450105",
			"cityCode": "4501",
			"code": "450105004",
			"name": "那洪街道办事处",
			"provinceCode": "45"
		  },
		  {
			"areaCode": "450105",
			"cityCode": "4501",
			"code": "450105005",
			"name": "金凯街道办事处",
			"provinceCode": "45"
		  },
		  {
			"areaCode": "450105",
			"cityCode": "4501",
			"code": "450105102",
			"name": "吴圩镇",
			"provinceCode": "45"
		  },
		  {
			"areaCode": "450105",
			"cityCode": "4501",
			"code": "450105103",
			"name": "苏圩镇",
			"provinceCode": "45"
		  },
		  {
			"areaCode": "450105",
			"cityCode": "4501",
			"code": "450105104",
			"name": "延安镇",
			"provinceCode": "45"
		  },
		  {
			"areaCode": "450105",
			"cityCode": "4501",
			"code": "450105105",
			"name": "江西镇",
			"provinceCode": "45"
		  },
		  {
			"areaCode": "450105",
			"cityCode": "4501",
			"code": "450105450",
			"name": "经济技术开发区",
			"provinceCode": "45"
		  },
		  {
			"areaCode": "450105",
			"cityCode": "4501",
			"code": "450105451",
			"name": "明阳工业园区管委会",
			"provinceCode": "45"
		  }
		]
	  },
	  {
		"cityCode": "4501",
		"code": "450107",
		"name": "西乡塘区",
		"provinceCode": "45",
		"list": [
		  {
			"areaCode": "450107",
			"cityCode": "4501",
			"code": "450107001",
			"name": "衡阳街道办事处",
			"provinceCode": "45"
		  },
		  {
			"areaCode": "450107",
			"cityCode": "4501",
			"code": "450107002",
			"name": "北湖街道办事处",
			"provinceCode": "45"
		  },
		  {
			"areaCode": "450107",
			"cityCode": "4501",
			"code": "450107003",
			"name": "西乡塘街道办事处",
			"provinceCode": "45"
		  },
		  {
			"areaCode": "450107",
			"cityCode": "4501",
			"code": "450107004",
			"name": "安吉街道办事处",
			"provinceCode": "45"
		  },
		  {
			"areaCode": "450107",
			"cityCode": "4501",
			"code": "450107005",
			"name": "华强街道办事处",
			"provinceCode": "45"
		  },
		  {
			"areaCode": "450107",
			"cityCode": "4501",
			"code": "450107006",
			"name": "新阳街道办事处",
			"provinceCode": "45"
		  },
		  {
			"areaCode": "450107",
			"cityCode": "4501",
			"code": "450107007",
			"name": "上尧街道办事处",
			"provinceCode": "45"
		  },
		  {
			"areaCode": "450107",
			"cityCode": "4501",
			"code": "450107008",
			"name": "安宁街道办事处",
			"provinceCode": "45"
		  },
		  {
			"areaCode": "450107",
			"cityCode": "4501",
			"code": "450107009",
			"name": "石埠街道办事处",
			"provinceCode": "45"
		  },
		  {
			"areaCode": "450107",
			"cityCode": "4501",
			"code": "450107010",
			"name": "心圩街道办事处",
			"provinceCode": "45"
		  },
		  {
			"areaCode": "450107",
			"cityCode": "4501",
			"code": "450107100",
			"name": "金陵镇",
			"provinceCode": "45"
		  },
		  {
			"areaCode": "450107",
			"cityCode": "4501",
			"code": "450107101",
			"name": "双定镇",
			"provinceCode": "45"
		  },
		  {
			"areaCode": "450107",
			"cityCode": "4501",
			"code": "450107105",
			"name": "坛洛镇",
			"provinceCode": "45"
		  },
		  {
			"areaCode": "450107",
			"cityCode": "4501",
			"code": "450107450",
			"name": "那龙矿务局",
			"provinceCode": "45"
		  },
		  {
			"areaCode": "450107",
			"cityCode": "4501",
			"code": "450107454",
			"name": "高新技术开发区管委会",
			"provinceCode": "45"
		  }
		]
	  },
	  {
		"cityCode": "4501",
		"code": "450108",
		"name": "良庆区",
		"provinceCode": "45",
		"list": [
		  {
			"areaCode": "450108",
			"cityCode": "4501",
			"code": "450108001",
			"name": "大沙田街道办事处",
			"provinceCode": "45"
		  },
		  {
			"areaCode": "450108",
			"cityCode": "4501",
			"code": "450108002",
			"name": "玉洞街道办事处",
			"provinceCode": "45"
		  },
		  {
			"areaCode": "450108",
			"cityCode": "4501",
			"code": "450108100",
			"name": "良庆镇",
			"provinceCode": "45"
		  },
		  {
			"areaCode": "450108",
			"cityCode": "4501",
			"code": "450108101",
			"name": "那马镇",
			"provinceCode": "45"
		  },
		  {
			"areaCode": "450108",
			"cityCode": "4501",
			"code": "450108102",
			"name": "那陈镇",
			"provinceCode": "45"
		  },
		  {
			"areaCode": "450108",
			"cityCode": "4501",
			"code": "450108103",
			"name": "大塘镇",
			"provinceCode": "45"
		  },
		  {
			"areaCode": "450108",
			"cityCode": "4501",
			"code": "450108104",
			"name": "南晓镇",
			"provinceCode": "45"
		  },
		  {
			"areaCode": "450108",
			"cityCode": "4501",
			"code": "450108452",
			"name": "良庆经济开发区管委会",
			"provinceCode": "45"
		  }
		]
	  },
	  {
		"cityCode": "4501",
		"code": "450109",
		"name": "邕宁区",
		"provinceCode": "45",
		"list": [
		  {
			"areaCode": "450109",
			"cityCode": "4501",
			"code": "450109100",
			"name": "蒲庙镇",
			"provinceCode": "45"
		  },
		  {
			"areaCode": "450109",
			"cityCode": "4501",
			"code": "450109101",
			"name": "那楼镇",
			"provinceCode": "45"
		  },
		  {
			"areaCode": "450109",
			"cityCode": "4501",
			"code": "450109102",
			"name": "新江镇",
			"provinceCode": "45"
		  },
		  {
			"areaCode": "450109",
			"cityCode": "4501",
			"code": "450109103",
			"name": "百济镇",
			"provinceCode": "45"
		  },
		  {
			"areaCode": "450109",
			"cityCode": "4501",
			"code": "450109202",
			"name": "中和乡",
			"provinceCode": "45"
		  }
		]
	  },
	  {
		"cityCode": "4501",
		"code": "450110",
		"name": "武鸣区",
		"provinceCode": "45",
		"list": [
		  {
			"areaCode": "450110",
			"cityCode": "4501",
			"code": "450110100",
			"name": "城厢镇",
			"provinceCode": "45"
		  },
		  {
			"areaCode": "450110",
			"cityCode": "4501",
			"code": "450110102",
			"name": "太平镇",
			"provinceCode": "45"
		  },
		  {
			"areaCode": "450110",
			"cityCode": "4501",
			"code": "450110103",
			"name": "双桥镇",
			"provinceCode": "45"
		  },
		  {
			"areaCode": "450110",
			"cityCode": "4501",
			"code": "450110104",
			"name": "宁武镇",
			"provinceCode": "45"
		  },
		  {
			"areaCode": "450110",
			"cityCode": "4501",
			"code": "450110105",
			"name": "锣圩镇",
			"provinceCode": "45"
		  },
		  {
			"areaCode": "450110",
			"cityCode": "4501",
			"code": "450110106",
			"name": "仙湖镇",
			"provinceCode": "45"
		  },
		  {
			"areaCode": "450110",
			"cityCode": "4501",
			"code": "450110107",
			"name": "府城镇",
			"provinceCode": "45"
		  },
		  {
			"areaCode": "450110",
			"cityCode": "4501",
			"code": "450110108",
			"name": "陆斡镇",
			"provinceCode": "45"
		  },
		  {
			"areaCode": "450110",
			"cityCode": "4501",
			"code": "450110109",
			"name": "两江镇",
			"provinceCode": "45"
		  },
		  {
			"areaCode": "450110",
			"cityCode": "4501",
			"code": "450110110",
			"name": "罗波镇",
			"provinceCode": "45"
		  },
		  {
			"areaCode": "450110",
			"cityCode": "4501",
			"code": "450110111",
			"name": "灵马镇",
			"provinceCode": "45"
		  },
		  {
			"areaCode": "450110",
			"cityCode": "4501",
			"code": "450110112",
			"name": "甘圩镇",
			"provinceCode": "45"
		  },
		  {
			"areaCode": "450110",
			"cityCode": "4501",
			"code": "450110113",
			"name": "马头镇",
			"provinceCode": "45"
		  },
		  {
			"areaCode": "450110",
			"cityCode": "4501",
			"code": "450110451",
			"name": "南宁华侨投资区",
			"provinceCode": "45"
		  }
		]
	  },
	  {
		"cityCode": "4501",
		"code": "450123",
		"name": "隆安县",
		"provinceCode": "45",
		"list": [
		  {
			"areaCode": "450123",
			"cityCode": "4501",
			"code": "450123100",
			"name": "城厢镇",
			"provinceCode": "45"
		  },
		  {
			"areaCode": "450123",
			"cityCode": "4501",
			"code": "450123101",
			"name": "南圩镇",
			"provinceCode": "45"
		  },
		  {
			"areaCode": "450123",
			"cityCode": "4501",
			"code": "450123102",
			"name": "雁江镇",
			"provinceCode": "45"
		  },
		  {
			"areaCode": "450123",
			"cityCode": "4501",
			"code": "450123103",
			"name": "那桐镇",
			"provinceCode": "45"
		  },
		  {
			"areaCode": "450123",
			"cityCode": "4501",
			"code": "450123104",
			"name": "乔建镇",
			"provinceCode": "45"
		  },
		  {
			"areaCode": "450123",
			"cityCode": "4501",
			"code": "450123105",
			"name": "丁当镇",
			"provinceCode": "45"
		  },
		  {
			"areaCode": "450123",
			"cityCode": "4501",
			"code": "450123201",
			"name": "古潭乡",
			"provinceCode": "45"
		  },
		  {
			"areaCode": "450123",
			"cityCode": "4501",
			"code": "450123203",
			"name": "都结乡",
			"provinceCode": "45"
		  },
		  {
			"areaCode": "450123",
			"cityCode": "4501",
			"code": "450123204",
			"name": "布泉乡",
			"provinceCode": "45"
		  },
		  {
			"areaCode": "450123",
			"cityCode": "4501",
			"code": "450123205",
			"name": "屏山乡",
			"provinceCode": "45"
		  },
		  {
			"areaCode": "450123",
			"cityCode": "4501",
			"code": "450123450",
			"name": "隆安华侨管理区管理委员会",
			"provinceCode": "45"
		  }
		]
	  },
	  {
		"cityCode": "4501",
		"code": "450124",
		"name": "马山县",
		"provinceCode": "45",
		"list": [
		  {
			"areaCode": "450124",
			"cityCode": "4501",
			"code": "450124100",
			"name": "白山镇",
			"provinceCode": "45"
		  },
		  {
			"areaCode": "450124",
			"cityCode": "4501",
			"code": "450124101",
			"name": "百龙滩镇",
			"provinceCode": "45"
		  },
		  {
			"areaCode": "450124",
			"cityCode": "4501",
			"code": "450124102",
			"name": "林圩镇",
			"provinceCode": "45"
		  },
		  {
			"areaCode": "450124",
			"cityCode": "4501",
			"code": "450124103",
			"name": "古零镇",
			"provinceCode": "45"
		  },
		  {
			"areaCode": "450124",
			"cityCode": "4501",
			"code": "450124104",
			"name": "金钗镇",
			"provinceCode": "45"
		  },
		  {
			"areaCode": "450124",
			"cityCode": "4501",
			"code": "450124105",
			"name": "周鹿镇",
			"provinceCode": "45"
		  },
		  {
			"areaCode": "450124",
			"cityCode": "4501",
			"code": "450124106",
			"name": "永州镇",
			"provinceCode": "45"
		  },
		  {
			"areaCode": "450124",
			"cityCode": "4501",
			"code": "450124200",
			"name": "乔利乡",
			"provinceCode": "45"
		  },
		  {
			"areaCode": "450124",
			"cityCode": "4501",
			"code": "450124201",
			"name": "加方乡",
			"provinceCode": "45"
		  },
		  {
			"areaCode": "450124",
			"cityCode": "4501",
			"code": "450124202",
			"name": "古寨瑶族乡",
			"provinceCode": "45"
		  },
		  {
			"areaCode": "450124",
			"cityCode": "4501",
			"code": "450124203",
			"name": "里当瑶族乡",
			"provinceCode": "45"
		  },
		  {
			"areaCode": "450124",
			"cityCode": "4501",
			"code": "450124450",
			"name": "光明山林场",
			"provinceCode": "45"
		  }
		]
	  },
	  {
		"cityCode": "4501",
		"code": "450125",
		"name": "上林县",
		"provinceCode": "45",
		"list": [
		  {
			"areaCode": "450125",
			"cityCode": "4501",
			"code": "450125100",
			"name": "大丰镇",
			"provinceCode": "45"
		  },
		  {
			"areaCode": "450125",
			"cityCode": "4501",
			"code": "450125101",
			"name": "明亮镇",
			"provinceCode": "45"
		  },
		  {
			"areaCode": "450125",
			"cityCode": "4501",
			"code": "450125102",
			"name": "巷贤镇",
			"provinceCode": "45"
		  },
		  {
			"areaCode": "450125",
			"cityCode": "4501",
			"code": "450125103",
			"name": "白圩镇",
			"provinceCode": "45"
		  },
		  {
			"areaCode": "450125",
			"cityCode": "4501",
			"code": "450125104",
			"name": "三里镇",
			"provinceCode": "45"
		  },
		  {
			"areaCode": "450125",
			"cityCode": "4501",
			"code": "450125105",
			"name": "乔贤镇",
			"provinceCode": "45"
		  },
		  {
			"areaCode": "450125",
			"cityCode": "4501",
			"code": "450125106",
			"name": "西燕镇",
			"provinceCode": "45"
		  },
		  {
			"areaCode": "450125",
			"cityCode": "4501",
			"code": "450125200",
			"name": "澄泰乡",
			"provinceCode": "45"
		  },
		  {
			"areaCode": "450125",
			"cityCode": "4501",
			"code": "450125202",
			"name": "木山乡",
			"provinceCode": "45"
		  },
		  {
			"areaCode": "450125",
			"cityCode": "4501",
			"code": "450125203",
			"name": "塘红乡",
			"provinceCode": "45"
		  },
		  {
			"areaCode": "450125",
			"cityCode": "4501",
			"code": "450125205",
			"name": "镇圩瑶族乡",
			"provinceCode": "45"
		  }
		]
	  },
	  {
		"cityCode": "4501",
		"code": "450126",
		"name": "宾阳县",
		"provinceCode": "45",
		"list": [
		  {
			"areaCode": "450126",
			"cityCode": "4501",
			"code": "450126100",
			"name": "宾州镇",
			"provinceCode": "45"
		  },
		  {
			"areaCode": "450126",
			"cityCode": "4501",
			"code": "450126101",
			"name": "黎塘镇",
			"provinceCode": "45"
		  },
		  {
			"areaCode": "450126",
			"cityCode": "4501",
			"code": "450126102",
			"name": "甘棠镇",
			"provinceCode": "45"
		  },
		  {
			"areaCode": "450126",
			"cityCode": "4501",
			"code": "450126103",
			"name": "思陇镇",
			"provinceCode": "45"
		  },
		  {
			"areaCode": "450126",
			"cityCode": "4501",
			"code": "450126104",
			"name": "新桥镇",
			"provinceCode": "45"
		  },
		  {
			"areaCode": "450126",
			"cityCode": "4501",
			"code": "450126105",
			"name": "新圩镇",
			"provinceCode": "45"
		  },
		  {
			"areaCode": "450126",
			"cityCode": "4501",
			"code": "450126106",
			"name": "邹圩镇",
			"provinceCode": "45"
		  },
		  {
			"areaCode": "450126",
			"cityCode": "4501",
			"code": "450126107",
			"name": "大桥镇",
			"provinceCode": "45"
		  },
		  {
			"areaCode": "450126",
			"cityCode": "4501",
			"code": "450126108",
			"name": "武陵镇",
			"provinceCode": "45"
		  },
		  {
			"areaCode": "450126",
			"cityCode": "4501",
			"code": "450126109",
			"name": "中华镇",
			"provinceCode": "45"
		  },
		  {
			"areaCode": "450126",
			"cityCode": "4501",
			"code": "450126110",
			"name": "古辣镇",
			"provinceCode": "45"
		  },
		  {
			"areaCode": "450126",
			"cityCode": "4501",
			"code": "450126111",
			"name": "露圩镇",
			"provinceCode": "45"
		  },
		  {
			"areaCode": "450126",
			"cityCode": "4501",
			"code": "450126112",
			"name": "王灵镇",
			"provinceCode": "45"
		  },
		  {
			"areaCode": "450126",
			"cityCode": "4501",
			"code": "450126113",
			"name": "和吉镇",
			"provinceCode": "45"
		  },
		  {
			"areaCode": "450126",
			"cityCode": "4501",
			"code": "450126114",
			"name": "洋桥镇",
			"provinceCode": "45"
		  },
		  {
			"areaCode": "450126",
			"cityCode": "4501",
			"code": "450126115",
			"name": "陈平镇",
			"provinceCode": "45"
		  },
		  {
			"areaCode": "450126",
			"cityCode": "4501",
			"code": "450126451",
			"name": "廖平农场",
			"provinceCode": "45"
		  }
		]
	  },
	  {
		"cityCode": "4501",
		"code": "450127",
		"name": "横县",
		"provinceCode": "45",
		"list": [
		  {
			"areaCode": "450127",
			"cityCode": "4501",
			"code": "450127100",
			"name": "横州镇",
			"provinceCode": "45"
		  },
		  {
			"areaCode": "450127",
			"cityCode": "4501",
			"code": "450127101",
			"name": "百合镇",
			"provinceCode": "45"
		  },
		  {
			"areaCode": "450127",
			"cityCode": "4501",
			"code": "450127102",
			"name": "那阳镇",
			"provinceCode": "45"
		  },
		  {
			"areaCode": "450127",
			"cityCode": "4501",
			"code": "450127103",
			"name": "南乡镇",
			"provinceCode": "45"
		  },
		  {
			"areaCode": "450127",
			"cityCode": "4501",
			"code": "450127104",
			"name": "新福镇",
			"provinceCode": "45"
		  },
		  {
			"areaCode": "450127",
			"cityCode": "4501",
			"code": "450127105",
			"name": "莲塘镇",
			"provinceCode": "45"
		  },
		  {
			"areaCode": "450127",
			"cityCode": "4501",
			"code": "450127106",
			"name": "平马镇",
			"provinceCode": "45"
		  },
		  {
			"areaCode": "450127",
			"cityCode": "4501",
			"code": "450127107",
			"name": "峦城镇",
			"provinceCode": "45"
		  },
		  {
			"areaCode": "450127",
			"cityCode": "4501",
			"code": "450127108",
			"name": "六景镇",
			"provinceCode": "45"
		  },
		  {
			"areaCode": "450127",
			"cityCode": "4501",
			"code": "450127110",
			"name": "石塘镇",
			"provinceCode": "45"
		  },
		  {
			"areaCode": "450127",
			"cityCode": "4501",
			"code": "450127112",
			"name": "陶圩镇",
			"provinceCode": "45"
		  },
		  {
			"areaCode": "450127",
			"cityCode": "4501",
			"code": "450127113",
			"name": "校椅镇",
			"provinceCode": "45"
		  },
		  {
			"areaCode": "450127",
			"cityCode": "4501",
			"code": "450127114",
			"name": "云表镇",
			"provinceCode": "45"
		  },
		  {
			"areaCode": "450127",
			"cityCode": "4501",
			"code": "450127115",
			"name": "马岭镇",
			"provinceCode": "45"
		  },
		  {
			"areaCode": "450127",
			"cityCode": "4501",
			"code": "450127200",
			"name": "马山乡",
			"provinceCode": "45"
		  },
		  {
			"areaCode": "450127",
			"cityCode": "4501",
			"code": "450127203",
			"name": "平朗乡",
			"provinceCode": "45"
		  },
		  {
			"areaCode": "450127",
			"cityCode": "4501",
			"code": "450127204",
			"name": "镇龙乡",
			"provinceCode": "45"
		  },
		  {
			"areaCode": "450127",
			"cityCode": "4501",
			"code": "450127400",
			"name": "南宁六景工业园区管委会",
			"provinceCode": "45"
		  }
		]
	  }
	]
  },
  {
	"code": "4502",
	"name": "柳州市",
	"provinceCode": "45",
	"list": [
	  {
		"cityCode": "4502",
		"code": "450202",
		"name": "城中区",
		"provinceCode": "45",
		"list": [
		  {
			"areaCode": "450202",
			"cityCode": "4502",
			"code": "450202001",
			"name": "城中街道办事处",
			"provinceCode": "45"
		  },
		  {
			"areaCode": "450202",
			"cityCode": "4502",
			"code": "450202002",
			"name": "公园街道办事处",
			"provinceCode": "45"
		  },
		  {
			"areaCode": "450202",
			"cityCode": "4502",
			"code": "450202003",
			"name": "中南街道办事处",
			"provinceCode": "45"
		  },
		  {
			"areaCode": "450202",
			"cityCode": "4502",
			"code": "450202004",
			"name": "水上街道办事处",
			"provinceCode": "45"
		  },
		  {
			"areaCode": "450202",
			"cityCode": "4502",
			"code": "450202005",
			"name": "潭中街道办事处",
			"provinceCode": "45"
		  },
		  {
			"areaCode": "450202",
			"cityCode": "4502",
			"code": "450202006",
			"name": "河东街道办事处",
			"provinceCode": "45"
		  },
		  {
			"areaCode": "450202",
			"cityCode": "4502",
			"code": "450202007",
			"name": "静兰街道办事处",
			"provinceCode": "45"
		  }
		]
	  },
	  {
		"cityCode": "4502",
		"code": "450203",
		"name": "鱼峰区",
		"provinceCode": "45",
		"list": [
		  {
			"areaCode": "450203",
			"cityCode": "4502",
			"code": "450203001",
			"name": "天马街道办事处",
			"provinceCode": "45"
		  },
		  {
			"areaCode": "450203",
			"cityCode": "4502",
			"code": "450203002",
			"name": "驾鹤街道办事处",
			"provinceCode": "45"
		  },
		  {
			"areaCode": "450203",
			"cityCode": "4502",
			"code": "450203003",
			"name": "箭盘山街道办事处",
			"provinceCode": "45"
		  },
		  {
			"areaCode": "450203",
			"cityCode": "4502",
			"code": "450203004",
			"name": "五里亭街道办事处",
			"provinceCode": "45"
		  },
		  {
			"areaCode": "450203",
			"cityCode": "4502",
			"code": "450203005",
			"name": "荣军街道办事处",
			"provinceCode": "45"
		  },
		  {
			"areaCode": "450203",
			"cityCode": "4502",
			"code": "450203006",
			"name": "白莲街道办事处",
			"provinceCode": "45"
		  },
		  {
			"areaCode": "450203",
			"cityCode": "4502",
			"code": "450203007",
			"name": "麒麟街道办事处",
			"provinceCode": "45"
		  },
		  {
			"areaCode": "450203",
			"cityCode": "4502",
			"code": "450203008",
			"name": "阳和街道办事处",
			"provinceCode": "45"
		  },
		  {
			"areaCode": "450203",
			"cityCode": "4502",
			"code": "450203100",
			"name": "雒容镇",
			"provinceCode": "45"
		  },
		  {
			"areaCode": "450203",
			"cityCode": "4502",
			"code": "450203101",
			"name": "洛埠镇",
			"provinceCode": "45"
		  },
		  {
			"areaCode": "450203",
			"cityCode": "4502",
			"code": "450203102",
			"name": "白沙镇",
			"provinceCode": "45"
		  },
		  {
			"areaCode": "450203",
			"cityCode": "4502",
			"code": "450203103",
			"name": "里雍镇",
			"provinceCode": "45"
		  }
		]
	  },
	  {
		"cityCode": "4502",
		"code": "450204",
		"name": "柳南区",
		"provinceCode": "45",
		"list": [
		  {
			"areaCode": "450204",
			"cityCode": "4502",
			"code": "450204001",
			"name": "河西街道办事处",
			"provinceCode": "45"
		  },
		  {
			"areaCode": "450204",
			"cityCode": "4502",
			"code": "450204002",
			"name": "南站街道办事处",
			"provinceCode": "45"
		  },
		  {
			"areaCode": "450204",
			"cityCode": "4502",
			"code": "450204003",
			"name": "鹅山街道办事处",
			"provinceCode": "45"
		  },
		  {
			"areaCode": "450204",
			"cityCode": "4502",
			"code": "450204004",
			"name": "柳南街道办事处",
			"provinceCode": "45"
		  },
		  {
			"areaCode": "450204",
			"cityCode": "4502",
			"code": "450204005",
			"name": "柳石街道办事处",
			"provinceCode": "45"
		  },
		  {
			"areaCode": "450204",
			"cityCode": "4502",
			"code": "450204006",
			"name": "银山街道办事处",
			"provinceCode": "45"
		  },
		  {
			"areaCode": "450204",
			"cityCode": "4502",
			"code": "450204007",
			"name": "潭西街道办事处",
			"provinceCode": "45"
		  },
		  {
			"areaCode": "450204",
			"cityCode": "4502",
			"code": "450204008",
			"name": "南环街道办事处",
			"provinceCode": "45"
		  },
		  {
			"areaCode": "450204",
			"cityCode": "4502",
			"code": "450204100",
			"name": "太阳村镇",
			"provinceCode": "45"
		  }
		]
	  },
	  {
		"cityCode": "4502",
		"code": "450205",
		"name": "柳北区",
		"provinceCode": "45",
		"list": [
		  {
			"areaCode": "450205",
			"cityCode": "4502",
			"code": "450205001",
			"name": "解放街道办事处",
			"provinceCode": "45"
		  },
		  {
			"areaCode": "450205",
			"cityCode": "4502",
			"code": "450205002",
			"name": "雅儒街道办事处",
			"provinceCode": "45"
		  },
		  {
			"areaCode": "450205",
			"cityCode": "4502",
			"code": "450205003",
			"name": "胜利街道办事处",
			"provinceCode": "45"
		  },
		  {
			"areaCode": "450205",
			"cityCode": "4502",
			"code": "450205004",
			"name": "雀儿山街道办事处",
			"provinceCode": "45"
		  },
		  {
			"areaCode": "450205",
			"cityCode": "4502",
			"code": "450205005",
			"name": "钢城街道办事处",
			"provinceCode": "45"
		  },
		  {
			"areaCode": "450205",
			"cityCode": "4502",
			"code": "450205006",
			"name": "锦绣街道办事处",
			"provinceCode": "45"
		  },
		  {
			"areaCode": "450205",
			"cityCode": "4502",
			"code": "450205007",
			"name": "白露街道办事处",
			"provinceCode": "45"
		  },
		  {
			"areaCode": "450205",
			"cityCode": "4502",
			"code": "450205008",
			"name": "跃进街道办事处",
			"provinceCode": "45"
		  },
		  {
			"areaCode": "450205",
			"cityCode": "4502",
			"code": "450205009",
			"name": "柳长街道办事处",
			"provinceCode": "45"
		  },
		  {
			"areaCode": "450205",
			"cityCode": "4502",
			"code": "450205100",
			"name": "石碑坪镇",
			"provinceCode": "45"
		  },
		  {
			"areaCode": "450205",
			"cityCode": "4502",
			"code": "450205101",
			"name": "沙塘镇",
			"provinceCode": "45"
		  },
		  {
			"areaCode": "450205",
			"cityCode": "4502",
			"code": "450205102",
			"name": "长塘镇",
			"provinceCode": "45"
		  }
		]
	  },
	  {
		"cityCode": "4502",
		"code": "450206",
		"name": "柳江区",
		"provinceCode": "45",
		"list": [
		  {
			"areaCode": "450206",
			"cityCode": "4502",
			"code": "450206100",
			"name": "拉堡镇",
			"provinceCode": "45"
		  },
		  {
			"areaCode": "450206",
			"cityCode": "4502",
			"code": "450206102",
			"name": "百朋镇",
			"provinceCode": "45"
		  },
		  {
			"areaCode": "450206",
			"cityCode": "4502",
			"code": "450206103",
			"name": "成团镇",
			"provinceCode": "45"
		  },
		  {
			"areaCode": "450206",
			"cityCode": "4502",
			"code": "450206104",
			"name": "洛满镇",
			"provinceCode": "45"
		  },
		  {
			"areaCode": "450206",
			"cityCode": "4502",
			"code": "450206105",
			"name": "流山镇",
			"provinceCode": "45"
		  },
		  {
			"areaCode": "450206",
			"cityCode": "4502",
			"code": "450206106",
			"name": "三都镇",
			"provinceCode": "45"
		  },
		  {
			"areaCode": "450206",
			"cityCode": "4502",
			"code": "450206107",
			"name": "里高镇",
			"provinceCode": "45"
		  },
		  {
			"areaCode": "450206",
			"cityCode": "4502",
			"code": "450206108",
			"name": "进德镇",
			"provinceCode": "45"
		  },
		  {
			"areaCode": "450206",
			"cityCode": "4502",
			"code": "450206109",
			"name": "穿山镇",
			"provinceCode": "45"
		  },
		  {
			"areaCode": "450206",
			"cityCode": "4502",
			"code": "450206110",
			"name": "土博镇",
			"provinceCode": "45"
		  },
		  {
			"areaCode": "450206",
			"cityCode": "4502",
			"code": "450206400",
			"name": "新兴工业园",
			"provinceCode": "45"
		  },
		  {
			"areaCode": "450206",
			"cityCode": "4502",
			"code": "450206401",
			"name": "新兴农场",
			"provinceCode": "45"
		  }
		]
	  },
	  {
		"cityCode": "4502",
		"code": "450222",
		"name": "柳城县",
		"provinceCode": "45",
		"list": [
		  {
			"areaCode": "450222",
			"cityCode": "4502",
			"code": "450222100",
			"name": "大埔镇",
			"provinceCode": "45"
		  },
		  {
			"areaCode": "450222",
			"cityCode": "4502",
			"code": "450222101",
			"name": "龙头镇",
			"provinceCode": "45"
		  },
		  {
			"areaCode": "450222",
			"cityCode": "4502",
			"code": "450222102",
			"name": "太平镇",
			"provinceCode": "45"
		  },
		  {
			"areaCode": "450222",
			"cityCode": "4502",
			"code": "450222103",
			"name": "沙埔镇",
			"provinceCode": "45"
		  },
		  {
			"areaCode": "450222",
			"cityCode": "4502",
			"code": "450222104",
			"name": "东泉镇",
			"provinceCode": "45"
		  },
		  {
			"areaCode": "450222",
			"cityCode": "4502",
			"code": "450222105",
			"name": "凤山镇",
			"provinceCode": "45"
		  },
		  {
			"areaCode": "450222",
			"cityCode": "4502",
			"code": "450222106",
			"name": "六塘镇",
			"provinceCode": "45"
		  },
		  {
			"areaCode": "450222",
			"cityCode": "4502",
			"code": "450222107",
			"name": "冲脉镇",
			"provinceCode": "45"
		  },
		  {
			"areaCode": "450222",
			"cityCode": "4502",
			"code": "450222108",
			"name": "寨隆镇",
			"provinceCode": "45"
		  },
		  {
			"areaCode": "450222",
			"cityCode": "4502",
			"code": "450222109",
			"name": "马山镇",
			"provinceCode": "45"
		  },
		  {
			"areaCode": "450222",
			"cityCode": "4502",
			"code": "450222200",
			"name": "古砦仫佬族乡",
			"provinceCode": "45"
		  },
		  {
			"areaCode": "450222",
			"cityCode": "4502",
			"code": "450222202",
			"name": "社冲乡",
			"provinceCode": "45"
		  }
		]
	  },
	  {
		"cityCode": "4502",
		"code": "450223",
		"name": "鹿寨县",
		"provinceCode": "45",
		"list": [
		  {
			"areaCode": "450223",
			"cityCode": "4502",
			"code": "450223100",
			"name": "鹿寨镇",
			"provinceCode": "45"
		  },
		  {
			"areaCode": "450223",
			"cityCode": "4502",
			"code": "450223102",
			"name": "中渡镇",
			"provinceCode": "45"
		  },
		  {
			"areaCode": "450223",
			"cityCode": "4502",
			"code": "450223103",
			"name": "寨沙镇",
			"provinceCode": "45"
		  },
		  {
			"areaCode": "450223",
			"cityCode": "4502",
			"code": "450223104",
			"name": "平山镇",
			"provinceCode": "45"
		  },
		  {
			"areaCode": "450223",
			"cityCode": "4502",
			"code": "450223105",
			"name": "黄冕镇",
			"provinceCode": "45"
		  },
		  {
			"areaCode": "450223",
			"cityCode": "4502",
			"code": "450223106",
			"name": "四排镇",
			"provinceCode": "45"
		  },
		  {
			"areaCode": "450223",
			"cityCode": "4502",
			"code": "450223201",
			"name": "江口乡",
			"provinceCode": "45"
		  },
		  {
			"areaCode": "450223",
			"cityCode": "4502",
			"code": "450223202",
			"name": "导江乡",
			"provinceCode": "45"
		  },
		  {
			"areaCode": "450223",
			"cityCode": "4502",
			"code": "450223203",
			"name": "拉沟乡",
			"provinceCode": "45"
		  }
		]
	  },
	  {
		"cityCode": "4502",
		"code": "450224",
		"name": "融安县",
		"provinceCode": "45",
		"list": [
		  {
			"areaCode": "450224",
			"cityCode": "4502",
			"code": "450224100",
			"name": "长安镇",
			"provinceCode": "45"
		  },
		  {
			"areaCode": "450224",
			"cityCode": "4502",
			"code": "450224101",
			"name": "浮石镇",
			"provinceCode": "45"
		  },
		  {
			"areaCode": "450224",
			"cityCode": "4502",
			"code": "450224102",
			"name": "泗顶镇",
			"provinceCode": "45"
		  },
		  {
			"areaCode": "450224",
			"cityCode": "4502",
			"code": "450224103",
			"name": "板榄镇",
			"provinceCode": "45"
		  },
		  {
			"areaCode": "450224",
			"cityCode": "4502",
			"code": "450224104",
			"name": "大将镇",
			"provinceCode": "45"
		  },
		  {
			"areaCode": "450224",
			"cityCode": "4502",
			"code": "450224105",
			"name": "大良镇",
			"provinceCode": "45"
		  },
		  {
			"areaCode": "450224",
			"cityCode": "4502",
			"code": "450224200",
			"name": "雅瑶乡",
			"provinceCode": "45"
		  },
		  {
			"areaCode": "450224",
			"cityCode": "4502",
			"code": "450224201",
			"name": "大坡乡",
			"provinceCode": "45"
		  },
		  {
			"areaCode": "450224",
			"cityCode": "4502",
			"code": "450224202",
			"name": "东起乡",
			"provinceCode": "45"
		  },
		  {
			"areaCode": "450224",
			"cityCode": "4502",
			"code": "450224203",
			"name": "沙子乡",
			"provinceCode": "45"
		  },
		  {
			"areaCode": "450224",
			"cityCode": "4502",
			"code": "450224204",
			"name": "桥板乡",
			"provinceCode": "45"
		  },
		  {
			"areaCode": "450224",
			"cityCode": "4502",
			"code": "450224205",
			"name": "潭头乡",
			"provinceCode": "45"
		  }
		]
	  },
	  {
		"cityCode": "4502",
		"code": "450225",
		"name": "融水苗族自治县",
		"provinceCode": "45",
		"list": [
		  {
			"areaCode": "450225",
			"cityCode": "4502",
			"code": "450225100",
			"name": "融水镇",
			"provinceCode": "45"
		  },
		  {
			"areaCode": "450225",
			"cityCode": "4502",
			"code": "450225101",
			"name": "和睦镇",
			"provinceCode": "45"
		  },
		  {
			"areaCode": "450225",
			"cityCode": "4502",
			"code": "450225102",
			"name": "三防镇",
			"provinceCode": "45"
		  },
		  {
			"areaCode": "450225",
			"cityCode": "4502",
			"code": "450225103",
			"name": "怀宝镇",
			"provinceCode": "45"
		  },
		  {
			"areaCode": "450225",
			"cityCode": "4502",
			"code": "450225104",
			"name": "洞头镇",
			"provinceCode": "45"
		  },
		  {
			"areaCode": "450225",
			"cityCode": "4502",
			"code": "450225105",
			"name": "大浪镇",
			"provinceCode": "45"
		  },
		  {
			"areaCode": "450225",
			"cityCode": "4502",
			"code": "450225106",
			"name": "永乐镇",
			"provinceCode": "45"
		  },
		  {
			"areaCode": "450225",
			"cityCode": "4502",
			"code": "450225201",
			"name": "四荣乡",
			"provinceCode": "45"
		  },
		  {
			"areaCode": "450225",
			"cityCode": "4502",
			"code": "450225202",
			"name": "香粉乡",
			"provinceCode": "45"
		  },
		  {
			"areaCode": "450225",
			"cityCode": "4502",
			"code": "450225203",
			"name": "安太乡",
			"provinceCode": "45"
		  },
		  {
			"areaCode": "450225",
			"cityCode": "4502",
			"code": "450225205",
			"name": "汪洞乡",
			"provinceCode": "45"
		  },
		  {
			"areaCode": "450225",
			"cityCode": "4502",
			"code": "450225206",
			"name": "同练瑶族乡",
			"provinceCode": "45"
		  },
		  {
			"areaCode": "450225",
			"cityCode": "4502",
			"code": "450225207",
			"name": "滚贝侗族乡",
			"provinceCode": "45"
		  },
		  {
			"areaCode": "450225",
			"cityCode": "4502",
			"code": "450225208",
			"name": "杆洞乡",
			"provinceCode": "45"
		  },
		  {
			"areaCode": "450225",
			"cityCode": "4502",
			"code": "450225209",
			"name": "安陲乡",
			"provinceCode": "45"
		  },
		  {
			"areaCode": "450225",
			"cityCode": "4502",
			"code": "450225211",
			"name": "白云乡",
			"provinceCode": "45"
		  },
		  {
			"areaCode": "450225",
			"cityCode": "4502",
			"code": "450225212",
			"name": "红水乡",
			"provinceCode": "45"
		  },
		  {
			"areaCode": "450225",
			"cityCode": "4502",
			"code": "450225213",
			"name": "拱洞乡",
			"provinceCode": "45"
		  },
		  {
			"areaCode": "450225",
			"cityCode": "4502",
			"code": "450225214",
			"name": "良寨乡",
			"provinceCode": "45"
		  },
		  {
			"areaCode": "450225",
			"cityCode": "4502",
			"code": "450225215",
			"name": "大年乡",
			"provinceCode": "45"
		  }
		]
	  },
	  {
		"cityCode": "4502",
		"code": "450226",
		"name": "三江侗族自治县",
		"provinceCode": "45",
		"list": [
		  {
			"areaCode": "450226",
			"cityCode": "4502",
			"code": "450226100",
			"name": "古宜镇",
			"provinceCode": "45"
		  },
		  {
			"areaCode": "450226",
			"cityCode": "4502",
			"code": "450226101",
			"name": "斗江镇",
			"provinceCode": "45"
		  },
		  {
			"areaCode": "450226",
			"cityCode": "4502",
			"code": "450226102",
			"name": "丹洲镇",
			"provinceCode": "45"
		  },
		  {
			"areaCode": "450226",
			"cityCode": "4502",
			"code": "450226103",
			"name": "八江镇",
			"provinceCode": "45"
		  },
		  {
			"areaCode": "450226",
			"cityCode": "4502",
			"code": "450226104",
			"name": "林溪镇",
			"provinceCode": "45"
		  },
		  {
			"areaCode": "450226",
			"cityCode": "4502",
			"code": "450226105",
			"name": "独峒镇",
			"provinceCode": "45"
		  },
		  {
			"areaCode": "450226",
			"cityCode": "4502",
			"code": "450226203",
			"name": "同乐苗族乡",
			"provinceCode": "45"
		  },
		  {
			"areaCode": "450226",
			"cityCode": "4502",
			"code": "450226204",
			"name": "梅林乡",
			"provinceCode": "45"
		  },
		  {
			"areaCode": "450226",
			"cityCode": "4502",
			"code": "450226205",
			"name": "富禄苗族乡",
			"provinceCode": "45"
		  },
		  {
			"areaCode": "450226",
			"cityCode": "4502",
			"code": "450226206",
			"name": "洋溪乡",
			"provinceCode": "45"
		  },
		  {
			"areaCode": "450226",
			"cityCode": "4502",
			"code": "450226207",
			"name": "良口乡",
			"provinceCode": "45"
		  },
		  {
			"areaCode": "450226",
			"cityCode": "4502",
			"code": "450226208",
			"name": "老堡乡",
			"provinceCode": "45"
		  },
		  {
			"areaCode": "450226",
			"cityCode": "4502",
			"code": "450226209",
			"name": "高基瑶族乡",
			"provinceCode": "45"
		  },
		  {
			"areaCode": "450226",
			"cityCode": "4502",
			"code": "450226210",
			"name": "和平乡",
			"provinceCode": "45"
		  },
		  {
			"areaCode": "450226",
			"cityCode": "4502",
			"code": "450226211",
			"name": "程村乡",
			"provinceCode": "45"
		  }
		]
	  }
	]
  },
  {
	"code": "4503",
	"name": "桂林市",
	"provinceCode": "45",
	"list": [
	  {
		"cityCode": "4503",
		"code": "450302",
		"name": "秀峰区",
		"provinceCode": "45",
		"list": [
		  {
			"areaCode": "450302",
			"cityCode": "4503",
			"code": "450302001",
			"name": "秀峰街道办事处",
			"provinceCode": "45"
		  },
		  {
			"areaCode": "450302",
			"cityCode": "4503",
			"code": "450302002",
			"name": "丽君街道办事处",
			"provinceCode": "45"
		  },
		  {
			"areaCode": "450302",
			"cityCode": "4503",
			"code": "450302003",
			"name": "甲山街道办事处",
			"provinceCode": "45"
		  }
		]
	  },
	  {
		"cityCode": "4503",
		"code": "450303",
		"name": "叠彩区",
		"provinceCode": "45",
		"list": [
		  {
			"areaCode": "450303",
			"cityCode": "4503",
			"code": "450303001",
			"name": "叠彩街道办事处",
			"provinceCode": "45"
		  },
		  {
			"areaCode": "450303",
			"cityCode": "4503",
			"code": "450303002",
			"name": "北门街道办事处",
			"provinceCode": "45"
		  },
		  {
			"areaCode": "450303",
			"cityCode": "4503",
			"code": "450303200",
			"name": "大河乡",
			"provinceCode": "45"
		  }
		]
	  },
	  {
		"cityCode": "4503",
		"code": "450304",
		"name": "象山区",
		"provinceCode": "45",
		"list": [
		  {
			"areaCode": "450304",
			"cityCode": "4503",
			"code": "450304001",
			"name": "南门街道办事处",
			"provinceCode": "45"
		  },
		  {
			"areaCode": "450304",
			"cityCode": "4503",
			"code": "450304002",
			"name": "象山街道办事处",
			"provinceCode": "45"
		  },
		  {
			"areaCode": "450304",
			"cityCode": "4503",
			"code": "450304003",
			"name": "平山街道办事处",
			"provinceCode": "45"
		  },
		  {
			"areaCode": "450304",
			"cityCode": "4503",
			"code": "450304200",
			"name": "二塘乡",
			"provinceCode": "45"
		  }
		]
	  },
	  {
		"cityCode": "4503",
		"code": "450305",
		"name": "七星区",
		"provinceCode": "45",
		"list": [
		  {
			"areaCode": "450305",
			"cityCode": "4503",
			"code": "450305001",
			"name": "七星区街道办事处",
			"provinceCode": "45"
		  },
		  {
			"areaCode": "450305",
			"cityCode": "4503",
			"code": "450305002",
			"name": "东江街道办事处",
			"provinceCode": "45"
		  },
		  {
			"areaCode": "450305",
			"cityCode": "4503",
			"code": "450305003",
			"name": "穿山街道办事处",
			"provinceCode": "45"
		  },
		  {
			"areaCode": "450305",
			"cityCode": "4503",
			"code": "450305004",
			"name": "漓东街道办事处",
			"provinceCode": "45"
		  },
		  {
			"areaCode": "450305",
			"cityCode": "4503",
			"code": "450305200",
			"name": "朝阳乡",
			"provinceCode": "45"
		  },
		  {
			"areaCode": "450305",
			"cityCode": "4503",
			"code": "450305400",
			"name": "桂林华侨旅游经济区管理委员会",
			"provinceCode": "45"
		  }
		]
	  },
	  {
		"cityCode": "4503",
		"code": "450311",
		"name": "雁山区",
		"provinceCode": "45",
		"list": [
		  {
			"areaCode": "450311",
			"cityCode": "4503",
			"code": "450311001",
			"name": "良丰街道办事处",
			"provinceCode": "45"
		  },
		  {
			"areaCode": "450311",
			"cityCode": "4503",
			"code": "450311100",
			"name": "雁山镇",
			"provinceCode": "45"
		  },
		  {
			"areaCode": "450311",
			"cityCode": "4503",
			"code": "450311101",
			"name": "柘木镇",
			"provinceCode": "45"
		  },
		  {
			"areaCode": "450311",
			"cityCode": "4503",
			"code": "450311200",
			"name": "大埠乡",
			"provinceCode": "45"
		  },
		  {
			"areaCode": "450311",
			"cityCode": "4503",
			"code": "450311201",
			"name": "草坪回族乡",
			"provinceCode": "45"
		  }
		]
	  },
	  {
		"cityCode": "4503",
		"code": "450312",
		"name": "临桂区",
		"provinceCode": "45",
		"list": [
		  {
			"areaCode": "450312",
			"cityCode": "4503",
			"code": "450312100",
			"name": "临桂镇",
			"provinceCode": "45"
		  },
		  {
			"areaCode": "450312",
			"cityCode": "4503",
			"code": "450312101",
			"name": "六塘镇",
			"provinceCode": "45"
		  },
		  {
			"areaCode": "450312",
			"cityCode": "4503",
			"code": "450312102",
			"name": "会仙镇",
			"provinceCode": "45"
		  },
		  {
			"areaCode": "450312",
			"cityCode": "4503",
			"code": "450312103",
			"name": "两江镇",
			"provinceCode": "45"
		  },
		  {
			"areaCode": "450312",
			"cityCode": "4503",
			"code": "450312104",
			"name": "五通镇",
			"provinceCode": "45"
		  },
		  {
			"areaCode": "450312",
			"cityCode": "4503",
			"code": "450312105",
			"name": "四塘镇",
			"provinceCode": "45"
		  },
		  {
			"areaCode": "450312",
			"cityCode": "4503",
			"code": "450312106",
			"name": "南边山镇",
			"provinceCode": "45"
		  },
		  {
			"areaCode": "450312",
			"cityCode": "4503",
			"code": "450312107",
			"name": "中庸镇",
			"provinceCode": "45"
		  },
		  {
			"areaCode": "450312",
			"cityCode": "4503",
			"code": "450312108",
			"name": "茶洞镇",
			"provinceCode": "45"
		  },
		  {
			"areaCode": "450312",
			"cityCode": "4503",
			"code": "450312204",
			"name": "宛田瑶族乡",
			"provinceCode": "45"
		  },
		  {
			"areaCode": "450312",
			"cityCode": "4503",
			"code": "450312205",
			"name": "黄沙瑶族乡",
			"provinceCode": "45"
		  }
		]
	  },
	  {
		"cityCode": "4503",
		"code": "450321",
		"name": "阳朔县",
		"provinceCode": "45",
		"list": [
		  {
			"areaCode": "450321",
			"cityCode": "4503",
			"code": "450321100",
			"name": "阳朔镇",
			"provinceCode": "45"
		  },
		  {
			"areaCode": "450321",
			"cityCode": "4503",
			"code": "450321101",
			"name": "白沙镇",
			"provinceCode": "45"
		  },
		  {
			"areaCode": "450321",
			"cityCode": "4503",
			"code": "450321102",
			"name": "福利镇",
			"provinceCode": "45"
		  },
		  {
			"areaCode": "450321",
			"cityCode": "4503",
			"code": "450321103",
			"name": "兴坪镇",
			"provinceCode": "45"
		  },
		  {
			"areaCode": "450321",
			"cityCode": "4503",
			"code": "450321104",
			"name": "葡萄镇",
			"provinceCode": "45"
		  },
		  {
			"areaCode": "450321",
			"cityCode": "4503",
			"code": "450321105",
			"name": "高田镇",
			"provinceCode": "45"
		  },
		  {
			"areaCode": "450321",
			"cityCode": "4503",
			"code": "450321200",
			"name": "金宝乡",
			"provinceCode": "45"
		  },
		  {
			"areaCode": "450321",
			"cityCode": "4503",
			"code": "450321201",
			"name": "普益乡",
			"provinceCode": "45"
		  },
		  {
			"areaCode": "450321",
			"cityCode": "4503",
			"code": "450321202",
			"name": "杨堤乡",
			"provinceCode": "45"
		  }
		]
	  },
	  {
		"cityCode": "4503",
		"code": "450323",
		"name": "灵川县",
		"provinceCode": "45",
		"list": [
		  {
			"areaCode": "450323",
			"cityCode": "4503",
			"code": "450323100",
			"name": "灵川镇",
			"provinceCode": "45"
		  },
		  {
			"areaCode": "450323",
			"cityCode": "4503",
			"code": "450323101",
			"name": "大圩镇",
			"provinceCode": "45"
		  },
		  {
			"areaCode": "450323",
			"cityCode": "4503",
			"code": "450323102",
			"name": "定江镇",
			"provinceCode": "45"
		  },
		  {
			"areaCode": "450323",
			"cityCode": "4503",
			"code": "450323103",
			"name": "三街镇",
			"provinceCode": "45"
		  },
		  {
			"areaCode": "450323",
			"cityCode": "4503",
			"code": "450323104",
			"name": "潭下镇",
			"provinceCode": "45"
		  },
		  {
			"areaCode": "450323",
			"cityCode": "4503",
			"code": "450323106",
			"name": "九屋镇",
			"provinceCode": "45"
		  },
		  {
			"areaCode": "450323",
			"cityCode": "4503",
			"code": "450323107",
			"name": "灵田镇",
			"provinceCode": "45"
		  },
		  {
			"areaCode": "450323",
			"cityCode": "4503",
			"code": "450323200",
			"name": "潮田乡",
			"provinceCode": "45"
		  },
		  {
			"areaCode": "450323",
			"cityCode": "4503",
			"code": "450323201",
			"name": "大境瑶族乡",
			"provinceCode": "45"
		  },
		  {
			"areaCode": "450323",
			"cityCode": "4503",
			"code": "450323202",
			"name": "海洋乡",
			"provinceCode": "45"
		  },
		  {
			"areaCode": "450323",
			"cityCode": "4503",
			"code": "450323206",
			"name": "兰田瑶族乡",
			"provinceCode": "45"
		  },
		  {
			"areaCode": "450323",
			"cityCode": "4503",
			"code": "450323207",
			"name": "公平乡",
			"provinceCode": "45"
		  }
		]
	  },
	  {
		"cityCode": "4503",
		"code": "450324",
		"name": "全州县",
		"provinceCode": "45",
		"list": [
		  {
			"areaCode": "450324",
			"cityCode": "4503",
			"code": "450324100",
			"name": "全州镇",
			"provinceCode": "45"
		  },
		  {
			"areaCode": "450324",
			"cityCode": "4503",
			"code": "450324101",
			"name": "黄沙河镇",
			"provinceCode": "45"
		  },
		  {
			"areaCode": "450324",
			"cityCode": "4503",
			"code": "450324102",
			"name": "庙头镇",
			"provinceCode": "45"
		  },
		  {
			"areaCode": "450324",
			"cityCode": "4503",
			"code": "450324103",
			"name": "文桥镇",
			"provinceCode": "45"
		  },
		  {
			"areaCode": "450324",
			"cityCode": "4503",
			"code": "450324104",
			"name": "大西江镇",
			"provinceCode": "45"
		  },
		  {
			"areaCode": "450324",
			"cityCode": "4503",
			"code": "450324105",
			"name": "龙水镇",
			"provinceCode": "45"
		  },
		  {
			"areaCode": "450324",
			"cityCode": "4503",
			"code": "450324106",
			"name": "才湾镇",
			"provinceCode": "45"
		  },
		  {
			"areaCode": "450324",
			"cityCode": "4503",
			"code": "450324107",
			"name": "绍水镇",
			"provinceCode": "45"
		  },
		  {
			"areaCode": "450324",
			"cityCode": "4503",
			"code": "450324108",
			"name": "石塘镇",
			"provinceCode": "45"
		  },
		  {
			"areaCode": "450324",
			"cityCode": "4503",
			"code": "450324109",
			"name": "咸水镇",
			"provinceCode": "45"
		  },
		  {
			"areaCode": "450324",
			"cityCode": "4503",
			"code": "450324110",
			"name": "凤凰镇",
			"provinceCode": "45"
		  },
		  {
			"areaCode": "450324",
			"cityCode": "4503",
			"code": "450324111",
			"name": "安和镇",
			"provinceCode": "45"
		  },
		  {
			"areaCode": "450324",
			"cityCode": "4503",
			"code": "450324112",
			"name": "两河镇",
			"provinceCode": "45"
		  },
		  {
			"areaCode": "450324",
			"cityCode": "4503",
			"code": "450324113",
			"name": "枧塘镇",
			"provinceCode": "45"
		  },
		  {
			"areaCode": "450324",
			"cityCode": "4503",
			"code": "450324114",
			"name": "永岁镇",
			"provinceCode": "45"
		  },
		  {
			"areaCode": "450324",
			"cityCode": "4503",
			"code": "450324204",
			"name": "蕉江瑶族乡",
			"provinceCode": "45"
		  },
		  {
			"areaCode": "450324",
			"cityCode": "4503",
			"code": "450324207",
			"name": "白宝乡",
			"provinceCode": "45"
		  },
		  {
			"areaCode": "450324",
			"cityCode": "4503",
			"code": "450324208",
			"name": "东山瑶族乡",
			"provinceCode": "45"
		  }
		]
	  },
	  {
		"cityCode": "4503",
		"code": "450325",
		"name": "兴安县",
		"provinceCode": "45",
		"list": [
		  {
			"areaCode": "450325",
			"cityCode": "4503",
			"code": "450325100",
			"name": "兴安镇",
			"provinceCode": "45"
		  },
		  {
			"areaCode": "450325",
			"cityCode": "4503",
			"code": "450325101",
			"name": "湘漓镇",
			"provinceCode": "45"
		  },
		  {
			"areaCode": "450325",
			"cityCode": "4503",
			"code": "450325102",
			"name": "界首镇",
			"provinceCode": "45"
		  },
		  {
			"areaCode": "450325",
			"cityCode": "4503",
			"code": "450325103",
			"name": "高尚镇",
			"provinceCode": "45"
		  },
		  {
			"areaCode": "450325",
			"cityCode": "4503",
			"code": "450325104",
			"name": "严关镇",
			"provinceCode": "45"
		  },
		  {
			"areaCode": "450325",
			"cityCode": "4503",
			"code": "450325105",
			"name": "溶江镇",
			"provinceCode": "45"
		  },
		  {
			"areaCode": "450325",
			"cityCode": "4503",
			"code": "450325200",
			"name": "漠川乡",
			"provinceCode": "45"
		  },
		  {
			"areaCode": "450325",
			"cityCode": "4503",
			"code": "450325201",
			"name": "白石乡",
			"provinceCode": "45"
		  },
		  {
			"areaCode": "450325",
			"cityCode": "4503",
			"code": "450325202",
			"name": "崔家乡",
			"provinceCode": "45"
		  },
		  {
			"areaCode": "450325",
			"cityCode": "4503",
			"code": "450325203",
			"name": "华江瑶族乡",
			"provinceCode": "45"
		  }
		]
	  },
	  {
		"cityCode": "4503",
		"code": "450326",
		"name": "永福县",
		"provinceCode": "45",
		"list": [
		  {
			"areaCode": "450326",
			"cityCode": "4503",
			"code": "450326100",
			"name": "永福镇",
			"provinceCode": "45"
		  },
		  {
			"areaCode": "450326",
			"cityCode": "4503",
			"code": "450326101",
			"name": "罗锦镇",
			"provinceCode": "45"
		  },
		  {
			"areaCode": "450326",
			"cityCode": "4503",
			"code": "450326102",
			"name": "百寿镇",
			"provinceCode": "45"
		  },
		  {
			"areaCode": "450326",
			"cityCode": "4503",
			"code": "450326103",
			"name": "苏桥镇",
			"provinceCode": "45"
		  },
		  {
			"areaCode": "450326",
			"cityCode": "4503",
			"code": "450326104",
			"name": "三皇镇",
			"provinceCode": "45"
		  },
		  {
			"areaCode": "450326",
			"cityCode": "4503",
			"code": "450326105",
			"name": "堡里镇",
			"provinceCode": "45"
		  },
		  {
			"areaCode": "450326",
			"cityCode": "4503",
			"code": "450326202",
			"name": "广福乡",
			"provinceCode": "45"
		  },
		  {
			"areaCode": "450326",
			"cityCode": "4503",
			"code": "450326204",
			"name": "永安乡",
			"provinceCode": "45"
		  },
		  {
			"areaCode": "450326",
			"cityCode": "4503",
			"code": "450326205",
			"name": "龙江乡",
			"provinceCode": "45"
		  }
		]
	  },
	  {
		"cityCode": "4503",
		"code": "450327",
		"name": "灌阳县",
		"provinceCode": "45",
		"list": [
		  {
			"areaCode": "450327",
			"cityCode": "4503",
			"code": "450327100",
			"name": "灌阳镇",
			"provinceCode": "45"
		  },
		  {
			"areaCode": "450327",
			"cityCode": "4503",
			"code": "450327101",
			"name": "黄关镇",
			"provinceCode": "45"
		  },
		  {
			"areaCode": "450327",
			"cityCode": "4503",
			"code": "450327102",
			"name": "文市镇",
			"provinceCode": "45"
		  },
		  {
			"areaCode": "450327",
			"cityCode": "4503",
			"code": "450327103",
			"name": "新街镇",
			"provinceCode": "45"
		  },
		  {
			"areaCode": "450327",
			"cityCode": "4503",
			"code": "450327104",
			"name": "新圩镇",
			"provinceCode": "45"
		  },
		  {
			"areaCode": "450327",
			"cityCode": "4503",
			"code": "450327105",
			"name": "水车镇",
			"provinceCode": "45"
		  },
		  {
			"areaCode": "450327",
			"cityCode": "4503",
			"code": "450327200",
			"name": "洞井瑶族乡",
			"provinceCode": "45"
		  },
		  {
			"areaCode": "450327",
			"cityCode": "4503",
			"code": "450327201",
			"name": "观音阁乡",
			"provinceCode": "45"
		  },
		  {
			"areaCode": "450327",
			"cityCode": "4503",
			"code": "450327202",
			"name": "西山瑶族乡",
			"provinceCode": "45"
		  }
		]
	  },
	  {
		"cityCode": "4503",
		"code": "450328",
		"name": "龙胜各族自治县",
		"provinceCode": "45",
		"list": [
		  {
			"areaCode": "450328",
			"cityCode": "4503",
			"code": "450328100",
			"name": "龙胜镇",
			"provinceCode": "45"
		  },
		  {
			"areaCode": "450328",
			"cityCode": "4503",
			"code": "450328101",
			"name": "瓢里镇",
			"provinceCode": "45"
		  },
		  {
			"areaCode": "450328",
			"cityCode": "4503",
			"code": "450328102",
			"name": "三门镇",
			"provinceCode": "45"
		  },
		  {
			"areaCode": "450328",
			"cityCode": "4503",
			"code": "450328103",
			"name": "龙脊镇",
			"provinceCode": "45"
		  },
		  {
			"areaCode": "450328",
			"cityCode": "4503",
			"code": "450328104",
			"name": "平等镇",
			"provinceCode": "45"
		  },
		  {
			"areaCode": "450328",
			"cityCode": "4503",
			"code": "450328201",
			"name": "泗水乡",
			"provinceCode": "45"
		  },
		  {
			"areaCode": "450328",
			"cityCode": "4503",
			"code": "450328202",
			"name": "江底乡",
			"provinceCode": "45"
		  },
		  {
			"areaCode": "450328",
			"cityCode": "4503",
			"code": "450328203",
			"name": "马堤乡",
			"provinceCode": "45"
		  },
		  {
			"areaCode": "450328",
			"cityCode": "4503",
			"code": "450328204",
			"name": "伟江乡",
			"provinceCode": "45"
		  },
		  {
			"areaCode": "450328",
			"cityCode": "4503",
			"code": "450328206",
			"name": "乐江乡",
			"provinceCode": "45"
		  }
		]
	  },
	  {
		"cityCode": "4503",
		"code": "450329",
		"name": "资源县",
		"provinceCode": "45",
		"list": [
		  {
			"areaCode": "450329",
			"cityCode": "4503",
			"code": "450329100",
			"name": "资源镇",
			"provinceCode": "45"
		  },
		  {
			"areaCode": "450329",
			"cityCode": "4503",
			"code": "450329101",
			"name": "中峰镇",
			"provinceCode": "45"
		  },
		  {
			"areaCode": "450329",
			"cityCode": "4503",
			"code": "450329102",
			"name": "梅溪镇",
			"provinceCode": "45"
		  },
		  {
			"areaCode": "450329",
			"cityCode": "4503",
			"code": "450329202",
			"name": "瓜里乡",
			"provinceCode": "45"
		  },
		  {
			"areaCode": "450329",
			"cityCode": "4503",
			"code": "450329203",
			"name": "车田苗族乡",
			"provinceCode": "45"
		  },
		  {
			"areaCode": "450329",
			"cityCode": "4503",
			"code": "450329204",
			"name": "两水苗族乡",
			"provinceCode": "45"
		  },
		  {
			"areaCode": "450329",
			"cityCode": "4503",
			"code": "450329205",
			"name": "河口瑶族乡",
			"provinceCode": "45"
		  }
		]
	  },
	  {
		"cityCode": "4503",
		"code": "450330",
		"name": "平乐县",
		"provinceCode": "45",
		"list": [
		  {
			"areaCode": "450330",
			"cityCode": "4503",
			"code": "450330100",
			"name": "平乐镇",
			"provinceCode": "45"
		  },
		  {
			"areaCode": "450330",
			"cityCode": "4503",
			"code": "450330101",
			"name": "二塘镇",
			"provinceCode": "45"
		  },
		  {
			"areaCode": "450330",
			"cityCode": "4503",
			"code": "450330102",
			"name": "沙子镇",
			"provinceCode": "45"
		  },
		  {
			"areaCode": "450330",
			"cityCode": "4503",
			"code": "450330103",
			"name": "同安镇",
			"provinceCode": "45"
		  },
		  {
			"areaCode": "450330",
			"cityCode": "4503",
			"code": "450330104",
			"name": "张家镇",
			"provinceCode": "45"
		  },
		  {
			"areaCode": "450330",
			"cityCode": "4503",
			"code": "450330105",
			"name": "源头镇",
			"provinceCode": "45"
		  },
		  {
			"areaCode": "450330",
			"cityCode": "4503",
			"code": "450330200",
			"name": "阳安乡",
			"provinceCode": "45"
		  },
		  {
			"areaCode": "450330",
			"cityCode": "4503",
			"code": "450330201",
			"name": "青龙乡",
			"provinceCode": "45"
		  },
		  {
			"areaCode": "450330",
			"cityCode": "4503",
			"code": "450330202",
			"name": "桥亭乡",
			"provinceCode": "45"
		  },
		  {
			"areaCode": "450330",
			"cityCode": "4503",
			"code": "450330203",
			"name": "大发瑶族乡",
			"provinceCode": "45"
		  }
		]
	  },
	  {
		"cityCode": "4503",
		"code": "450332",
		"name": "恭城瑶族自治县",
		"provinceCode": "45",
		"list": [
		  {
			"areaCode": "450332",
			"cityCode": "4503",
			"code": "450332100",
			"name": "恭城镇",
			"provinceCode": "45"
		  },
		  {
			"areaCode": "450332",
			"cityCode": "4503",
			"code": "450332101",
			"name": "栗木镇",
			"provinceCode": "45"
		  },
		  {
			"areaCode": "450332",
			"cityCode": "4503",
			"code": "450332102",
			"name": "莲花镇",
			"provinceCode": "45"
		  },
		  {
			"areaCode": "450332",
			"cityCode": "4503",
			"code": "450332103",
			"name": "嘉会镇",
			"provinceCode": "45"
		  },
		  {
			"areaCode": "450332",
			"cityCode": "4503",
			"code": "450332104",
			"name": "西岭镇",
			"provinceCode": "45"
		  },
		  {
			"areaCode": "450332",
			"cityCode": "4503",
			"code": "450332200",
			"name": "平安乡",
			"provinceCode": "45"
		  },
		  {
			"areaCode": "450332",
			"cityCode": "4503",
			"code": "450332201",
			"name": "三江乡",
			"provinceCode": "45"
		  },
		  {
			"areaCode": "450332",
			"cityCode": "4503",
			"code": "450332204",
			"name": "观音乡",
			"provinceCode": "45"
		  },
		  {
			"areaCode": "450332",
			"cityCode": "4503",
			"code": "450332205",
			"name": "龙虎乡",
			"provinceCode": "45"
		  }
		]
	  },
	  {
		"cityCode": "4503",
		"code": "450381",
		"name": "荔浦市",
		"provinceCode": "45",
		"list": [
		  {
			"areaCode": "450381",
			"cityCode": "4503",
			"code": "450381100",
			"name": "荔城镇",
			"provinceCode": "45"
		  },
		  {
			"areaCode": "450381",
			"cityCode": "4503",
			"code": "450381101",
			"name": "东昌镇",
			"provinceCode": "45"
		  },
		  {
			"areaCode": "450381",
			"cityCode": "4503",
			"code": "450381102",
			"name": "新坪镇",
			"provinceCode": "45"
		  },
		  {
			"areaCode": "450381",
			"cityCode": "4503",
			"code": "450381103",
			"name": "杜莫镇",
			"provinceCode": "45"
		  },
		  {
			"areaCode": "450381",
			"cityCode": "4503",
			"code": "450381104",
			"name": "青山镇",
			"provinceCode": "45"
		  },
		  {
			"areaCode": "450381",
			"cityCode": "4503",
			"code": "450381105",
			"name": "修仁镇",
			"provinceCode": "45"
		  },
		  {
			"areaCode": "450381",
			"cityCode": "4503",
			"code": "450381106",
			"name": "大塘镇",
			"provinceCode": "45"
		  },
		  {
			"areaCode": "450381",
			"cityCode": "4503",
			"code": "450381107",
			"name": "花箦镇",
			"provinceCode": "45"
		  },
		  {
			"areaCode": "450381",
			"cityCode": "4503",
			"code": "450381108",
			"name": "双江镇",
			"provinceCode": "45"
		  },
		  {
			"areaCode": "450381",
			"cityCode": "4503",
			"code": "450381109",
			"name": "马岭镇",
			"provinceCode": "45"
		  },
		  {
			"areaCode": "450381",
			"cityCode": "4503",
			"code": "450381200",
			"name": "龙怀乡",
			"provinceCode": "45"
		  },
		  {
			"areaCode": "450381",
			"cityCode": "4503",
			"code": "450381201",
			"name": "茶城乡",
			"provinceCode": "45"
		  },
		  {
			"areaCode": "450381",
			"cityCode": "4503",
			"code": "450381202",
			"name": "蒲芦瑶族乡",
			"provinceCode": "45"
		  }
		]
	  }
	]
  },
  {
	"code": "4504",
	"name": "梧州市",
	"provinceCode": "45",
	"list": [
	  {
		"cityCode": "4504",
		"code": "450403",
		"name": "万秀区",
		"provinceCode": "45",
		"list": [
		  {
			"areaCode": "450403",
			"cityCode": "4504",
			"code": "450403001",
			"name": "城东街道办事处",
			"provinceCode": "45"
		  },
		  {
			"areaCode": "450403",
			"cityCode": "4504",
			"code": "450403002",
			"name": "城南街道办事处",
			"provinceCode": "45"
		  },
		  {
			"areaCode": "450403",
			"cityCode": "4504",
			"code": "450403003",
			"name": "城中办街道事处",
			"provinceCode": "45"
		  },
		  {
			"areaCode": "450403",
			"cityCode": "4504",
			"code": "450403004",
			"name": "城北办街道事处",
			"provinceCode": "45"
		  },
		  {
			"areaCode": "450403",
			"cityCode": "4504",
			"code": "450403005",
			"name": "角嘴街道办事处",
			"provinceCode": "45"
		  },
		  {
			"areaCode": "450403",
			"cityCode": "4504",
			"code": "450403006",
			"name": "东兴街道办事处",
			"provinceCode": "45"
		  },
		  {
			"areaCode": "450403",
			"cityCode": "4504",
			"code": "450403007",
			"name": "富民街道办事处",
			"provinceCode": "45"
		  },
		  {
			"areaCode": "450403",
			"cityCode": "4504",
			"code": "450403101",
			"name": "城东镇",
			"provinceCode": "45"
		  },
		  {
			"areaCode": "450403",
			"cityCode": "4504",
			"code": "450403103",
			"name": "龙湖镇",
			"provinceCode": "45"
		  },
		  {
			"areaCode": "450403",
			"cityCode": "4504",
			"code": "450403104",
			"name": "夏郢镇",
			"provinceCode": "45"
		  }
		]
	  },
	  {
		"cityCode": "4504",
		"code": "450405",
		"name": "长洲区",
		"provinceCode": "45",
		"list": [
		  {
			"areaCode": "450405",
			"cityCode": "4504",
			"code": "450405001",
			"name": "大塘街道办事处",
			"provinceCode": "45"
		  },
		  {
			"areaCode": "450405",
			"cityCode": "4504",
			"code": "450405002",
			"name": "兴龙街道办事处",
			"provinceCode": "45"
		  },
		  {
			"areaCode": "450405",
			"cityCode": "4504",
			"code": "450405101",
			"name": "长洲镇",
			"provinceCode": "45"
		  },
		  {
			"areaCode": "450405",
			"cityCode": "4504",
			"code": "450405102",
			"name": "倒水镇",
			"provinceCode": "45"
		  }
		]
	  },
	  {
		"cityCode": "4504",
		"code": "450406",
		"name": "龙圩区",
		"provinceCode": "45",
		"list": [
		  {
			"areaCode": "450406",
			"cityCode": "4504",
			"code": "450406100",
			"name": "龙圩镇",
			"provinceCode": "45"
		  },
		  {
			"areaCode": "450406",
			"cityCode": "4504",
			"code": "450406101",
			"name": "大坡镇",
			"provinceCode": "45"
		  },
		  {
			"areaCode": "450406",
			"cityCode": "4504",
			"code": "450406102",
			"name": "广平镇",
			"provinceCode": "45"
		  },
		  {
			"areaCode": "450406",
			"cityCode": "4504",
			"code": "450406103",
			"name": "新地镇",
			"provinceCode": "45"
		  }
		]
	  },
	  {
		"cityCode": "4504",
		"code": "450421",
		"name": "苍梧县",
		"provinceCode": "45",
		"list": [
		  {
			"areaCode": "450421",
			"cityCode": "4504",
			"code": "450421100",
			"name": "石桥镇",
			"provinceCode": "45"
		  },
		  {
			"areaCode": "450421",
			"cityCode": "4504",
			"code": "450421101",
			"name": "沙头镇",
			"provinceCode": "45"
		  },
		  {
			"areaCode": "450421",
			"cityCode": "4504",
			"code": "450421102",
			"name": "梨埠镇",
			"provinceCode": "45"
		  },
		  {
			"areaCode": "450421",
			"cityCode": "4504",
			"code": "450421105",
			"name": "岭脚镇",
			"provinceCode": "45"
		  },
		  {
			"areaCode": "450421",
			"cityCode": "4504",
			"code": "450421108",
			"name": "京南镇",
			"provinceCode": "45"
		  },
		  {
			"areaCode": "450421",
			"cityCode": "4504",
			"code": "450421109",
			"name": "狮寨镇",
			"provinceCode": "45"
		  },
		  {
			"areaCode": "450421",
			"cityCode": "4504",
			"code": "450421110",
			"name": "旺甫镇",
			"provinceCode": "45"
		  },
		  {
			"areaCode": "450421",
			"cityCode": "4504",
			"code": "450421112",
			"name": "六堡镇",
			"provinceCode": "45"
		  },
		  {
			"areaCode": "450421",
			"cityCode": "4504",
			"code": "450421114",
			"name": "木双镇",
			"provinceCode": "45"
		  }
		]
	  },
	  {
		"cityCode": "4504",
		"code": "450422",
		"name": "藤县",
		"provinceCode": "45",
		"list": [
		  {
			"areaCode": "450422",
			"cityCode": "4504",
			"code": "450422100",
			"name": "藤州镇",
			"provinceCode": "45"
		  },
		  {
			"areaCode": "450422",
			"cityCode": "4504",
			"code": "450422103",
			"name": "塘步镇",
			"provinceCode": "45"
		  },
		  {
			"areaCode": "450422",
			"cityCode": "4504",
			"code": "450422104",
			"name": "埌南镇",
			"provinceCode": "45"
		  },
		  {
			"areaCode": "450422",
			"cityCode": "4504",
			"code": "450422105",
			"name": "同心镇",
			"provinceCode": "45"
		  },
		  {
			"areaCode": "450422",
			"cityCode": "4504",
			"code": "450422106",
			"name": "金鸡镇",
			"provinceCode": "45"
		  },
		  {
			"areaCode": "450422",
			"cityCode": "4504",
			"code": "450422107",
			"name": "新庆镇",
			"provinceCode": "45"
		  },
		  {
			"areaCode": "450422",
			"cityCode": "4504",
			"code": "450422108",
			"name": "象棋镇",
			"provinceCode": "45"
		  },
		  {
			"areaCode": "450422",
			"cityCode": "4504",
			"code": "450422109",
			"name": "岭景镇",
			"provinceCode": "45"
		  },
		  {
			"areaCode": "450422",
			"cityCode": "4504",
			"code": "450422110",
			"name": "天平镇",
			"provinceCode": "45"
		  },
		  {
			"areaCode": "450422",
			"cityCode": "4504",
			"code": "450422111",
			"name": "蒙江镇",
			"provinceCode": "45"
		  },
		  {
			"areaCode": "450422",
			"cityCode": "4504",
			"code": "450422112",
			"name": "和平镇",
			"provinceCode": "45"
		  },
		  {
			"areaCode": "450422",
			"cityCode": "4504",
			"code": "450422113",
			"name": "太平镇",
			"provinceCode": "45"
		  },
		  {
			"areaCode": "450422",
			"cityCode": "4504",
			"code": "450422114",
			"name": "古龙镇",
			"provinceCode": "45"
		  },
		  {
			"areaCode": "450422",
			"cityCode": "4504",
			"code": "450422115",
			"name": "东荣镇",
			"provinceCode": "45"
		  },
		  {
			"areaCode": "450422",
			"cityCode": "4504",
			"code": "450422116",
			"name": "大黎镇",
			"provinceCode": "45"
		  },
		  {
			"areaCode": "450422",
			"cityCode": "4504",
			"code": "450422200",
			"name": "平福乡",
			"provinceCode": "45"
		  },
		  {
			"areaCode": "450422",
			"cityCode": "4504",
			"code": "450422201",
			"name": "宁康乡",
			"provinceCode": "45"
		  }
		]
	  },
	  {
		"cityCode": "4504",
		"code": "450423",
		"name": "蒙山县",
		"provinceCode": "45",
		"list": [
		  {
			"areaCode": "450423",
			"cityCode": "4504",
			"code": "450423100",
			"name": "蒙山镇",
			"provinceCode": "45"
		  },
		  {
			"areaCode": "450423",
			"cityCode": "4504",
			"code": "450423101",
			"name": "西河镇",
			"provinceCode": "45"
		  },
		  {
			"areaCode": "450423",
			"cityCode": "4504",
			"code": "450423102",
			"name": "新圩镇",
			"provinceCode": "45"
		  },
		  {
			"areaCode": "450423",
			"cityCode": "4504",
			"code": "450423103",
			"name": "文圩镇",
			"provinceCode": "45"
		  },
		  {
			"areaCode": "450423",
			"cityCode": "4504",
			"code": "450423104",
			"name": "黄村镇",
			"provinceCode": "45"
		  },
		  {
			"areaCode": "450423",
			"cityCode": "4504",
			"code": "450423105",
			"name": "陈塘镇",
			"provinceCode": "45"
		  },
		  {
			"areaCode": "450423",
			"cityCode": "4504",
			"code": "450423200",
			"name": "汉豪乡",
			"provinceCode": "45"
		  },
		  {
			"areaCode": "450423",
			"cityCode": "4504",
			"code": "450423201",
			"name": "长坪瑶族乡",
			"provinceCode": "45"
		  },
		  {
			"areaCode": "450423",
			"cityCode": "4504",
			"code": "450423202",
			"name": "夏宜瑶族乡",
			"provinceCode": "45"
		  }
		]
	  },
	  {
		"cityCode": "4504",
		"code": "450481",
		"name": "岑溪市",
		"provinceCode": "45",
		"list": [
		  {
			"areaCode": "450481",
			"cityCode": "4504",
			"code": "450481100",
			"name": "岑城镇",
			"provinceCode": "45"
		  },
		  {
			"areaCode": "450481",
			"cityCode": "4504",
			"code": "450481102",
			"name": "马路镇",
			"provinceCode": "45"
		  },
		  {
			"areaCode": "450481",
			"cityCode": "4504",
			"code": "450481103",
			"name": "南渡镇",
			"provinceCode": "45"
		  },
		  {
			"areaCode": "450481",
			"cityCode": "4504",
			"code": "450481105",
			"name": "水汶镇",
			"provinceCode": "45"
		  },
		  {
			"areaCode": "450481",
			"cityCode": "4504",
			"code": "450481106",
			"name": "大隆镇",
			"provinceCode": "45"
		  },
		  {
			"areaCode": "450481",
			"cityCode": "4504",
			"code": "450481107",
			"name": "梨木镇",
			"provinceCode": "45"
		  },
		  {
			"areaCode": "450481",
			"cityCode": "4504",
			"code": "450481108",
			"name": "大业镇",
			"provinceCode": "45"
		  },
		  {
			"areaCode": "450481",
			"cityCode": "4504",
			"code": "450481109",
			"name": "筋竹镇",
			"provinceCode": "45"
		  },
		  {
			"areaCode": "450481",
			"cityCode": "4504",
			"code": "450481110",
			"name": "诚谏镇",
			"provinceCode": "45"
		  },
		  {
			"areaCode": "450481",
			"cityCode": "4504",
			"code": "450481111",
			"name": "归义镇",
			"provinceCode": "45"
		  },
		  {
			"areaCode": "450481",
			"cityCode": "4504",
			"code": "450481112",
			"name": "糯垌镇",
			"provinceCode": "45"
		  },
		  {
			"areaCode": "450481",
			"cityCode": "4504",
			"code": "450481113",
			"name": "安平镇",
			"provinceCode": "45"
		  },
		  {
			"areaCode": "450481",
			"cityCode": "4504",
			"code": "450481114",
			"name": "三堡镇",
			"provinceCode": "45"
		  },
		  {
			"areaCode": "450481",
			"cityCode": "4504",
			"code": "450481115",
			"name": "波塘镇",
			"provinceCode": "45"
		  }
		]
	  }
	]
  },
  {
	"code": "4505",
	"name": "北海市",
	"provinceCode": "45",
	"list": [
	  {
		"cityCode": "4505",
		"code": "450502",
		"name": "海城区",
		"provinceCode": "45",
		"list": [
		  {
			"areaCode": "450502",
			"cityCode": "4505",
			"code": "450502001",
			"name": "中街街道办事处",
			"provinceCode": "45"
		  },
		  {
			"areaCode": "450502",
			"cityCode": "4505",
			"code": "450502002",
			"name": "东街街道办事处",
			"provinceCode": "45"
		  },
		  {
			"areaCode": "450502",
			"cityCode": "4505",
			"code": "450502003",
			"name": "西街街道办事处",
			"provinceCode": "45"
		  },
		  {
			"areaCode": "450502",
			"cityCode": "4505",
			"code": "450502004",
			"name": "海角街道办事处",
			"provinceCode": "45"
		  },
		  {
			"areaCode": "450502",
			"cityCode": "4505",
			"code": "450502005",
			"name": "地角街道办事处",
			"provinceCode": "45"
		  },
		  {
			"areaCode": "450502",
			"cityCode": "4505",
			"code": "450502006",
			"name": "高德街道办事处",
			"provinceCode": "45"
		  },
		  {
			"areaCode": "450502",
			"cityCode": "4505",
			"code": "450502007",
			"name": "驿马街道办事处",
			"provinceCode": "45"
		  },
		  {
			"areaCode": "450502",
			"cityCode": "4505",
			"code": "450502100",
			"name": "涠洲镇",
			"provinceCode": "45"
		  }
		]
	  },
	  {
		"cityCode": "4505",
		"code": "450503",
		"name": "银海区",
		"provinceCode": "45",
		"list": [
		  {
			"areaCode": "450503",
			"cityCode": "4505",
			"code": "450503100",
			"name": "福成镇",
			"provinceCode": "45"
		  },
		  {
			"areaCode": "450503",
			"cityCode": "4505",
			"code": "450503101",
			"name": "银滩镇",
			"provinceCode": "45"
		  },
		  {
			"areaCode": "450503",
			"cityCode": "4505",
			"code": "450503102",
			"name": "平阳镇",
			"provinceCode": "45"
		  },
		  {
			"areaCode": "450503",
			"cityCode": "4505",
			"code": "450503103",
			"name": "侨港镇",
			"provinceCode": "45"
		  }
		]
	  },
	  {
		"cityCode": "4505",
		"code": "450512",
		"name": "铁山港区",
		"provinceCode": "45",
		"list": [
		  {
			"areaCode": "450512",
			"cityCode": "4505",
			"code": "450512100",
			"name": "南康镇",
			"provinceCode": "45"
		  },
		  {
			"areaCode": "450512",
			"cityCode": "4505",
			"code": "450512101",
			"name": "营盘镇",
			"provinceCode": "45"
		  },
		  {
			"areaCode": "450512",
			"cityCode": "4505",
			"code": "450512102",
			"name": "兴港镇",
			"provinceCode": "45"
		  }
		]
	  },
	  {
		"cityCode": "4505",
		"code": "450521",
		"name": "合浦县",
		"provinceCode": "45",
		"list": [
		  {
			"areaCode": "450521",
			"cityCode": "4505",
			"code": "450521100",
			"name": "廉州镇",
			"provinceCode": "45"
		  },
		  {
			"areaCode": "450521",
			"cityCode": "4505",
			"code": "450521101",
			"name": "党江镇",
			"provinceCode": "45"
		  },
		  {
			"areaCode": "450521",
			"cityCode": "4505",
			"code": "450521102",
			"name": "西场镇",
			"provinceCode": "45"
		  },
		  {
			"areaCode": "450521",
			"cityCode": "4505",
			"code": "450521103",
			"name": "沙岗镇",
			"provinceCode": "45"
		  },
		  {
			"areaCode": "450521",
			"cityCode": "4505",
			"code": "450521104",
			"name": "乌家镇",
			"provinceCode": "45"
		  },
		  {
			"areaCode": "450521",
			"cityCode": "4505",
			"code": "450521105",
			"name": "闸口镇",
			"provinceCode": "45"
		  },
		  {
			"areaCode": "450521",
			"cityCode": "4505",
			"code": "450521106",
			"name": "公馆镇",
			"provinceCode": "45"
		  },
		  {
			"areaCode": "450521",
			"cityCode": "4505",
			"code": "450521107",
			"name": "白沙镇",
			"provinceCode": "45"
		  },
		  {
			"areaCode": "450521",
			"cityCode": "4505",
			"code": "450521108",
			"name": "山口镇",
			"provinceCode": "45"
		  },
		  {
			"areaCode": "450521",
			"cityCode": "4505",
			"code": "450521109",
			"name": "沙田镇",
			"provinceCode": "45"
		  },
		  {
			"areaCode": "450521",
			"cityCode": "4505",
			"code": "450521110",
			"name": "石湾镇",
			"provinceCode": "45"
		  },
		  {
			"areaCode": "450521",
			"cityCode": "4505",
			"code": "450521111",
			"name": "石康镇",
			"provinceCode": "45"
		  },
		  {
			"areaCode": "450521",
			"cityCode": "4505",
			"code": "450521112",
			"name": "常乐镇",
			"provinceCode": "45"
		  },
		  {
			"areaCode": "450521",
			"cityCode": "4505",
			"code": "450521113",
			"name": "星岛湖镇",
			"provinceCode": "45"
		  },
		  {
			"areaCode": "450521",
			"cityCode": "4505",
			"code": "450521200",
			"name": "曲樟乡",
			"provinceCode": "45"
		  }
		]
	  }
	]
  },
  {
	"code": "4506",
	"name": "防城港市",
	"provinceCode": "45",
	"list": [
	  {
		"cityCode": "4506",
		"code": "450602",
		"name": "港口区",
		"provinceCode": "45",
		"list": [
		  {
			"areaCode": "450602",
			"cityCode": "4506",
			"code": "450602001",
			"name": "渔州坪街道办事处",
			"provinceCode": "45"
		  },
		  {
			"areaCode": "450602",
			"cityCode": "4506",
			"code": "450602002",
			"name": "白沙万街道办事处",
			"provinceCode": "45"
		  },
		  {
			"areaCode": "450602",
			"cityCode": "4506",
			"code": "450602003",
			"name": "沙潭江街道办事处",
			"provinceCode": "45"
		  },
		  {
			"areaCode": "450602",
			"cityCode": "4506",
			"code": "450602004",
			"name": "王府街道办事处",
			"provinceCode": "45"
		  },
		  {
			"areaCode": "450602",
			"cityCode": "4506",
			"code": "450602100",
			"name": "企沙镇",
			"provinceCode": "45"
		  },
		  {
			"areaCode": "450602",
			"cityCode": "4506",
			"code": "450602101",
			"name": "光坡镇",
			"provinceCode": "45"
		  }
		]
	  },
	  {
		"cityCode": "4506",
		"code": "450603",
		"name": "防城区",
		"provinceCode": "45",
		"list": [
		  {
			"areaCode": "450603",
			"cityCode": "4506",
			"code": "450603001",
			"name": "水营街道办事处",
			"provinceCode": "45"
		  },
		  {
			"areaCode": "450603",
			"cityCode": "4506",
			"code": "450603002",
			"name": "珠河街道办事处",
			"provinceCode": "45"
		  },
		  {
			"areaCode": "450603",
			"cityCode": "4506",
			"code": "450603003",
			"name": "文昌街道办事处",
			"provinceCode": "45"
		  },
		  {
			"areaCode": "450603",
			"cityCode": "4506",
			"code": "450603101",
			"name": "大菉镇",
			"provinceCode": "45"
		  },
		  {
			"areaCode": "450603",
			"cityCode": "4506",
			"code": "450603102",
			"name": "华石镇",
			"provinceCode": "45"
		  },
		  {
			"areaCode": "450603",
			"cityCode": "4506",
			"code": "450603103",
			"name": "那梭镇",
			"provinceCode": "45"
		  },
		  {
			"areaCode": "450603",
			"cityCode": "4506",
			"code": "450603104",
			"name": "那良镇",
			"provinceCode": "45"
		  },
		  {
			"areaCode": "450603",
			"cityCode": "4506",
			"code": "450603105",
			"name": "峒中镇",
			"provinceCode": "45"
		  },
		  {
			"areaCode": "450603",
			"cityCode": "4506",
			"code": "450603106",
			"name": "江山镇",
			"provinceCode": "45"
		  },
		  {
			"areaCode": "450603",
			"cityCode": "4506",
			"code": "450603107",
			"name": "茅岭镇",
			"provinceCode": "45"
		  },
		  {
			"areaCode": "450603",
			"cityCode": "4506",
			"code": "450603108",
			"name": "扶隆镇",
			"provinceCode": "45"
		  },
		  {
			"areaCode": "450603",
			"cityCode": "4506",
			"code": "450603203",
			"name": "滩营乡",
			"provinceCode": "45"
		  },
		  {
			"areaCode": "450603",
			"cityCode": "4506",
			"code": "450603209",
			"name": "十万山瑶族乡",
			"provinceCode": "45"
		  },
		  {
			"areaCode": "450603",
			"cityCode": "4506",
			"code": "450603450",
			"name": "小峰经济作物场",
			"provinceCode": "45"
		  },
		  {
			"areaCode": "450603",
			"cityCode": "4506",
			"code": "450603451",
			"name": "荣光农场",
			"provinceCode": "45"
		  },
		  {
			"areaCode": "450603",
			"cityCode": "4506",
			"code": "450603453",
			"name": "垌美农场",
			"provinceCode": "45"
		  },
		  {
			"areaCode": "450603",
			"cityCode": "4506",
			"code": "450603454",
			"name": "那梭农场",
			"provinceCode": "45"
		  }
		]
	  },
	  {
		"cityCode": "4506",
		"code": "450621",
		"name": "上思县",
		"provinceCode": "45",
		"list": [
		  {
			"areaCode": "450621",
			"cityCode": "4506",
			"code": "450621100",
			"name": "思阳镇",
			"provinceCode": "45"
		  },
		  {
			"areaCode": "450621",
			"cityCode": "4506",
			"code": "450621101",
			"name": "在妙镇",
			"provinceCode": "45"
		  },
		  {
			"areaCode": "450621",
			"cityCode": "4506",
			"code": "450621102",
			"name": "华兰镇",
			"provinceCode": "45"
		  },
		  {
			"areaCode": "450621",
			"cityCode": "4506",
			"code": "450621103",
			"name": "叫安镇",
			"provinceCode": "45"
		  },
		  {
			"areaCode": "450621",
			"cityCode": "4506",
			"code": "450621203",
			"name": "南屏瑶族乡",
			"provinceCode": "45"
		  },
		  {
			"areaCode": "450621",
			"cityCode": "4506",
			"code": "450621204",
			"name": "平福乡",
			"provinceCode": "45"
		  },
		  {
			"areaCode": "450621",
			"cityCode": "4506",
			"code": "450621205",
			"name": "那琴乡",
			"provinceCode": "45"
		  },
		  {
			"areaCode": "450621",
			"cityCode": "4506",
			"code": "450621206",
			"name": "公正乡",
			"provinceCode": "45"
		  },
		  {
			"areaCode": "450621",
			"cityCode": "4506",
			"code": "450621450",
			"name": "国有昌菱农场",
			"provinceCode": "45"
		  }
		]
	  },
	  {
		"cityCode": "4506",
		"code": "450681",
		"name": "东兴市",
		"provinceCode": "45",
		"list": [
		  {
			"areaCode": "450681",
			"cityCode": "4506",
			"code": "450681100",
			"name": "东兴镇",
			"provinceCode": "45"
		  },
		  {
			"areaCode": "450681",
			"cityCode": "4506",
			"code": "450681101",
			"name": "江平镇",
			"provinceCode": "45"
		  },
		  {
			"areaCode": "450681",
			"cityCode": "4506",
			"code": "450681102",
			"name": "马路镇",
			"provinceCode": "45"
		  }
		]
	  }
	]
  },
  {
	"code": "4507",
	"name": "钦州市",
	"provinceCode": "45",
	"list": [
	  {
		"cityCode": "4507",
		"code": "450702",
		"name": "钦南区",
		"provinceCode": "45",
		"list": [
		  {
			"areaCode": "450702",
			"cityCode": "4507",
			"code": "450702001",
			"name": "向阳街道办事处",
			"provinceCode": "45"
		  },
		  {
			"areaCode": "450702",
			"cityCode": "4507",
			"code": "450702002",
			"name": "水东街道办事处",
			"provinceCode": "45"
		  },
		  {
			"areaCode": "450702",
			"cityCode": "4507",
			"code": "450702003",
			"name": "文峰街道办事处",
			"provinceCode": "45"
		  },
		  {
			"areaCode": "450702",
			"cityCode": "4507",
			"code": "450702004",
			"name": "南珠街道办事处",
			"provinceCode": "45"
		  },
		  {
			"areaCode": "450702",
			"cityCode": "4507",
			"code": "450702005",
			"name": "尖山街道办事处",
			"provinceCode": "45"
		  },
		  {
			"areaCode": "450702",
			"cityCode": "4507",
			"code": "450702100",
			"name": "沙埠镇",
			"provinceCode": "45"
		  },
		  {
			"areaCode": "450702",
			"cityCode": "4507",
			"code": "450702101",
			"name": "康熙岭镇",
			"provinceCode": "45"
		  },
		  {
			"areaCode": "450702",
			"cityCode": "4507",
			"code": "450702102",
			"name": "黄屋屯镇",
			"provinceCode": "45"
		  },
		  {
			"areaCode": "450702",
			"cityCode": "4507",
			"code": "450702104",
			"name": "大番坡镇",
			"provinceCode": "45"
		  },
		  {
			"areaCode": "450702",
			"cityCode": "4507",
			"code": "450702105",
			"name": "龙门港镇",
			"provinceCode": "45"
		  },
		  {
			"areaCode": "450702",
			"cityCode": "4507",
			"code": "450702107",
			"name": "久隆镇",
			"provinceCode": "45"
		  },
		  {
			"areaCode": "450702",
			"cityCode": "4507",
			"code": "450702108",
			"name": "东场镇",
			"provinceCode": "45"
		  },
		  {
			"areaCode": "450702",
			"cityCode": "4507",
			"code": "450702109",
			"name": "那丽镇",
			"provinceCode": "45"
		  },
		  {
			"areaCode": "450702",
			"cityCode": "4507",
			"code": "450702110",
			"name": "那彭镇",
			"provinceCode": "45"
		  },
		  {
			"areaCode": "450702",
			"cityCode": "4507",
			"code": "450702111",
			"name": "那思镇",
			"provinceCode": "45"
		  },
		  {
			"areaCode": "450702",
			"cityCode": "4507",
			"code": "450702112",
			"name": "犀牛脚镇",
			"provinceCode": "45"
		  },
		  {
			"areaCode": "450702",
			"cityCode": "4507",
			"code": "450702400",
			"name": "丽光华侨农场",
			"provinceCode": "45"
		  },
		  {
			"areaCode": "450702",
			"cityCode": "4507",
			"code": "450702401",
			"name": "钦州港经济技术开发区",
			"provinceCode": "45"
		  },
		  {
			"areaCode": "450702",
			"cityCode": "4507",
			"code": "450702402",
			"name": "三娘湾旅游管理区",
			"provinceCode": "45"
		  },
		  {
			"areaCode": "450702",
			"cityCode": "4507",
			"code": "450702403",
			"name": "广西钦州保税港区",
			"provinceCode": "45"
		  },
		  {
			"areaCode": "450702",
			"cityCode": "4507",
			"code": "450702404",
			"name": "中马钦州产业园区",
			"provinceCode": "45"
		  }
		]
	  },
	  {
		"cityCode": "4507",
		"code": "450703",
		"name": "钦北区",
		"provinceCode": "45",
		"list": [
		  {
			"areaCode": "450703",
			"cityCode": "4507",
			"code": "450703001",
			"name": "长田街道办事处",
			"provinceCode": "45"
		  },
		  {
			"areaCode": "450703",
			"cityCode": "4507",
			"code": "450703002",
			"name": "鸿亭街道办事处",
			"provinceCode": "45"
		  },
		  {
			"areaCode": "450703",
			"cityCode": "4507",
			"code": "450703003",
			"name": "子材街道办事处",
			"provinceCode": "45"
		  },
		  {
			"areaCode": "450703",
			"cityCode": "4507",
			"code": "450703100",
			"name": "大垌镇",
			"provinceCode": "45"
		  },
		  {
			"areaCode": "450703",
			"cityCode": "4507",
			"code": "450703101",
			"name": "平吉镇",
			"provinceCode": "45"
		  },
		  {
			"areaCode": "450703",
			"cityCode": "4507",
			"code": "450703102",
			"name": "青塘镇",
			"provinceCode": "45"
		  },
		  {
			"areaCode": "450703",
			"cityCode": "4507",
			"code": "450703103",
			"name": "小董镇",
			"provinceCode": "45"
		  },
		  {
			"areaCode": "450703",
			"cityCode": "4507",
			"code": "450703104",
			"name": "板城镇",
			"provinceCode": "45"
		  },
		  {
			"areaCode": "450703",
			"cityCode": "4507",
			"code": "450703105",
			"name": "那蒙镇",
			"provinceCode": "45"
		  },
		  {
			"areaCode": "450703",
			"cityCode": "4507",
			"code": "450703106",
			"name": "长滩镇",
			"provinceCode": "45"
		  },
		  {
			"areaCode": "450703",
			"cityCode": "4507",
			"code": "450703107",
			"name": "新棠镇",
			"provinceCode": "45"
		  },
		  {
			"areaCode": "450703",
			"cityCode": "4507",
			"code": "450703108",
			"name": "大直镇",
			"provinceCode": "45"
		  },
		  {
			"areaCode": "450703",
			"cityCode": "4507",
			"code": "450703109",
			"name": "大寺镇",
			"provinceCode": "45"
		  },
		  {
			"areaCode": "450703",
			"cityCode": "4507",
			"code": "450703110",
			"name": "贵台镇",
			"provinceCode": "45"
		  }
		]
	  },
	  {
		"cityCode": "4507",
		"code": "450721",
		"name": "灵山县",
		"provinceCode": "45",
		"list": [
		  {
			"areaCode": "450721",
			"cityCode": "4507",
			"code": "450721001",
			"name": "灵城街道办事处",
			"provinceCode": "45"
		  },
		  {
			"areaCode": "450721",
			"cityCode": "4507",
			"code": "450721002",
			"name": "三海街道办事处",
			"provinceCode": "45"
		  },
		  {
			"areaCode": "450721",
			"cityCode": "4507",
			"code": "450721101",
			"name": "新圩镇",
			"provinceCode": "45"
		  },
		  {
			"areaCode": "450721",
			"cityCode": "4507",
			"code": "450721102",
			"name": "丰塘镇",
			"provinceCode": "45"
		  },
		  {
			"areaCode": "450721",
			"cityCode": "4507",
			"code": "450721103",
			"name": "平山镇",
			"provinceCode": "45"
		  },
		  {
			"areaCode": "450721",
			"cityCode": "4507",
			"code": "450721104",
			"name": "石塘镇",
			"provinceCode": "45"
		  },
		  {
			"areaCode": "450721",
			"cityCode": "4507",
			"code": "450721105",
			"name": "佛子镇",
			"provinceCode": "45"
		  },
		  {
			"areaCode": "450721",
			"cityCode": "4507",
			"code": "450721106",
			"name": "平南镇",
			"provinceCode": "45"
		  },
		  {
			"areaCode": "450721",
			"cityCode": "4507",
			"code": "450721107",
			"name": "烟墩镇",
			"provinceCode": "45"
		  },
		  {
			"areaCode": "450721",
			"cityCode": "4507",
			"code": "450721108",
			"name": "檀圩镇",
			"provinceCode": "45"
		  },
		  {
			"areaCode": "450721",
			"cityCode": "4507",
			"code": "450721109",
			"name": "那隆镇",
			"provinceCode": "45"
		  },
		  {
			"areaCode": "450721",
			"cityCode": "4507",
			"code": "450721110",
			"name": "三隆镇",
			"provinceCode": "45"
		  },
		  {
			"areaCode": "450721",
			"cityCode": "4507",
			"code": "450721111",
			"name": "陆屋镇",
			"provinceCode": "45"
		  },
		  {
			"areaCode": "450721",
			"cityCode": "4507",
			"code": "450721112",
			"name": "旧州镇",
			"provinceCode": "45"
		  },
		  {
			"areaCode": "450721",
			"cityCode": "4507",
			"code": "450721113",
			"name": "太平镇",
			"provinceCode": "45"
		  },
		  {
			"areaCode": "450721",
			"cityCode": "4507",
			"code": "450721114",
			"name": "沙坪镇",
			"provinceCode": "45"
		  },
		  {
			"areaCode": "450721",
			"cityCode": "4507",
			"code": "450721115",
			"name": "武利镇",
			"provinceCode": "45"
		  },
		  {
			"areaCode": "450721",
			"cityCode": "4507",
			"code": "450721116",
			"name": "文利镇",
			"provinceCode": "45"
		  },
		  {
			"areaCode": "450721",
			"cityCode": "4507",
			"code": "450721117",
			"name": "伯劳镇",
			"provinceCode": "45"
		  },
		  {
			"areaCode": "450721",
			"cityCode": "4507",
			"code": "450721400",
			"name": "国营新光农场",
			"provinceCode": "45"
		  },
		  {
			"areaCode": "450721",
			"cityCode": "4507",
			"code": "450721401",
			"name": "国营华山农场",
			"provinceCode": "45"
		  }
		]
	  },
	  {
		"cityCode": "4507",
		"code": "450722",
		"name": "浦北县",
		"provinceCode": "45",
		"list": [
		  {
			"areaCode": "450722",
			"cityCode": "4507",
			"code": "450722001",
			"name": "小江街道办事处",
			"provinceCode": "45"
		  },
		  {
			"areaCode": "450722",
			"cityCode": "4507",
			"code": "450722002",
			"name": "江城街道办事处",
			"provinceCode": "45"
		  },
		  {
			"areaCode": "450722",
			"cityCode": "4507",
			"code": "450722101",
			"name": "泉水镇",
			"provinceCode": "45"
		  },
		  {
			"areaCode": "450722",
			"cityCode": "4507",
			"code": "450722102",
			"name": "石埇镇",
			"provinceCode": "45"
		  },
		  {
			"areaCode": "450722",
			"cityCode": "4507",
			"code": "450722103",
			"name": "安石镇",
			"provinceCode": "45"
		  },
		  {
			"areaCode": "450722",
			"cityCode": "4507",
			"code": "450722104",
			"name": "张黄镇",
			"provinceCode": "45"
		  },
		  {
			"areaCode": "450722",
			"cityCode": "4507",
			"code": "450722105",
			"name": "大成镇",
			"provinceCode": "45"
		  },
		  {
			"areaCode": "450722",
			"cityCode": "4507",
			"code": "450722106",
			"name": "白石水镇",
			"provinceCode": "45"
		  },
		  {
			"areaCode": "450722",
			"cityCode": "4507",
			"code": "450722107",
			"name": "北通镇",
			"provinceCode": "45"
		  },
		  {
			"areaCode": "450722",
			"cityCode": "4507",
			"code": "450722108",
			"name": "三合镇",
			"provinceCode": "45"
		  },
		  {
			"areaCode": "450722",
			"cityCode": "4507",
			"code": "450722109",
			"name": "龙门镇",
			"provinceCode": "45"
		  },
		  {
			"areaCode": "450722",
			"cityCode": "4507",
			"code": "450722110",
			"name": "福旺镇",
			"provinceCode": "45"
		  },
		  {
			"areaCode": "450722",
			"cityCode": "4507",
			"code": "450722111",
			"name": "寨圩镇",
			"provinceCode": "45"
		  },
		  {
			"areaCode": "450722",
			"cityCode": "4507",
			"code": "450722112",
			"name": "乐民镇",
			"provinceCode": "45"
		  },
		  {
			"areaCode": "450722",
			"cityCode": "4507",
			"code": "450722113",
			"name": "六硍镇",
			"provinceCode": "45"
		  },
		  {
			"areaCode": "450722",
			"cityCode": "4507",
			"code": "450722114",
			"name": "平睦镇",
			"provinceCode": "45"
		  },
		  {
			"areaCode": "450722",
			"cityCode": "4507",
			"code": "450722115",
			"name": "官垌镇",
			"provinceCode": "45"
		  }
		]
	  }
	]
  },
  {
	"code": "4508",
	"name": "贵港市",
	"provinceCode": "45",
	"list": [
	  {
		"cityCode": "4508",
		"code": "450802",
		"name": "港北区",
		"provinceCode": "45",
		"list": [
		  {
			"areaCode": "450802",
			"cityCode": "4508",
			"code": "450802001",
			"name": "贵城街道办事处",
			"provinceCode": "45"
		  },
		  {
			"areaCode": "450802",
			"cityCode": "4508",
			"code": "450802002",
			"name": "港城街道办事处",
			"provinceCode": "45"
		  },
		  {
			"areaCode": "450802",
			"cityCode": "4508",
			"code": "450802101",
			"name": "大圩镇",
			"provinceCode": "45"
		  },
		  {
			"areaCode": "450802",
			"cityCode": "4508",
			"code": "450802102",
			"name": "庆丰镇",
			"provinceCode": "45"
		  },
		  {
			"areaCode": "450802",
			"cityCode": "4508",
			"code": "450802103",
			"name": "根竹镇",
			"provinceCode": "45"
		  },
		  {
			"areaCode": "450802",
			"cityCode": "4508",
			"code": "450802104",
			"name": "武乐镇",
			"provinceCode": "45"
		  },
		  {
			"areaCode": "450802",
			"cityCode": "4508",
			"code": "450802200",
			"name": "奇石乡",
			"provinceCode": "45"
		  },
		  {
			"areaCode": "450802",
			"cityCode": "4508",
			"code": "450802201",
			"name": "中里乡",
			"provinceCode": "45"
		  }
		]
	  },
	  {
		"cityCode": "4508",
		"code": "450803",
		"name": "港南区",
		"provinceCode": "45",
		"list": [
		  {
			"areaCode": "450803",
			"cityCode": "4508",
			"code": "450803001",
			"name": "江南街道办事处",
			"provinceCode": "45"
		  },
		  {
			"areaCode": "450803",
			"cityCode": "4508",
			"code": "450803002",
			"name": "八塘街道办事处",
			"provinceCode": "45"
		  },
		  {
			"areaCode": "450803",
			"cityCode": "4508",
			"code": "450803100",
			"name": "桥圩镇",
			"provinceCode": "45"
		  },
		  {
			"areaCode": "450803",
			"cityCode": "4508",
			"code": "450803101",
			"name": "木格镇",
			"provinceCode": "45"
		  },
		  {
			"areaCode": "450803",
			"cityCode": "4508",
			"code": "450803102",
			"name": "木梓镇",
			"provinceCode": "45"
		  },
		  {
			"areaCode": "450803",
			"cityCode": "4508",
			"code": "450803103",
			"name": "湛江镇",
			"provinceCode": "45"
		  },
		  {
			"areaCode": "450803",
			"cityCode": "4508",
			"code": "450803104",
			"name": "东津镇",
			"provinceCode": "45"
		  },
		  {
			"areaCode": "450803",
			"cityCode": "4508",
			"code": "450803106",
			"name": "新塘镇",
			"provinceCode": "45"
		  },
		  {
			"areaCode": "450803",
			"cityCode": "4508",
			"code": "450803107",
			"name": "瓦塘镇",
			"provinceCode": "45"
		  }
		]
	  },
	  {
		"cityCode": "4508",
		"code": "450804",
		"name": "覃塘区",
		"provinceCode": "45",
		"list": [
		  {
			"areaCode": "450804",
			"cityCode": "4508",
			"code": "450804001",
			"name": "覃塘街道办事处",
			"provinceCode": "45"
		  },
		  {
			"areaCode": "450804",
			"cityCode": "4508",
			"code": "450804101",
			"name": "东龙镇",
			"provinceCode": "45"
		  },
		  {
			"areaCode": "450804",
			"cityCode": "4508",
			"code": "450804102",
			"name": "三里镇",
			"provinceCode": "45"
		  },
		  {
			"areaCode": "450804",
			"cityCode": "4508",
			"code": "450804103",
			"name": "黄练镇",
			"provinceCode": "45"
		  },
		  {
			"areaCode": "450804",
			"cityCode": "4508",
			"code": "450804104",
			"name": "石卡镇",
			"provinceCode": "45"
		  },
		  {
			"areaCode": "450804",
			"cityCode": "4508",
			"code": "450804105",
			"name": "五里镇",
			"provinceCode": "45"
		  },
		  {
			"areaCode": "450804",
			"cityCode": "4508",
			"code": "450804106",
			"name": "樟木镇",
			"provinceCode": "45"
		  },
		  {
			"areaCode": "450804",
			"cityCode": "4508",
			"code": "450804107",
			"name": "蒙公镇",
			"provinceCode": "45"
		  },
		  {
			"areaCode": "450804",
			"cityCode": "4508",
			"code": "450804200",
			"name": "山北乡",
			"provinceCode": "45"
		  },
		  {
			"areaCode": "450804",
			"cityCode": "4508",
			"code": "450804204",
			"name": "大岭乡",
			"provinceCode": "45"
		  }
		]
	  },
	  {
		"cityCode": "4508",
		"code": "450821",
		"name": "平南县",
		"provinceCode": "45",
		"list": [
		  {
			"areaCode": "450821",
			"cityCode": "4508",
			"code": "450821001",
			"name": "平南街道办事处",
			"provinceCode": "45"
		  },
		  {
			"areaCode": "450821",
			"cityCode": "4508",
			"code": "450821002",
			"name": "上渡街道办事处",
			"provinceCode": "45"
		  },
		  {
			"areaCode": "450821",
			"cityCode": "4508",
			"code": "450821101",
			"name": "平山镇",
			"provinceCode": "45"
		  },
		  {
			"areaCode": "450821",
			"cityCode": "4508",
			"code": "450821102",
			"name": "寺面镇",
			"provinceCode": "45"
		  },
		  {
			"areaCode": "450821",
			"cityCode": "4508",
			"code": "450821103",
			"name": "六陈镇",
			"provinceCode": "45"
		  },
		  {
			"areaCode": "450821",
			"cityCode": "4508",
			"code": "450821104",
			"name": "大新镇",
			"provinceCode": "45"
		  },
		  {
			"areaCode": "450821",
			"cityCode": "4508",
			"code": "450821105",
			"name": "大安镇",
			"provinceCode": "45"
		  },
		  {
			"areaCode": "450821",
			"cityCode": "4508",
			"code": "450821106",
			"name": "武林镇",
			"provinceCode": "45"
		  },
		  {
			"areaCode": "450821",
			"cityCode": "4508",
			"code": "450821107",
			"name": "大坡镇",
			"provinceCode": "45"
		  },
		  {
			"areaCode": "450821",
			"cityCode": "4508",
			"code": "450821108",
			"name": "大洲镇",
			"provinceCode": "45"
		  },
		  {
			"areaCode": "450821",
			"cityCode": "4508",
			"code": "450821109",
			"name": "镇隆镇",
			"provinceCode": "45"
		  },
		  {
			"areaCode": "450821",
			"cityCode": "4508",
			"code": "450821112",
			"name": "安怀镇",
			"provinceCode": "45"
		  },
		  {
			"areaCode": "450821",
			"cityCode": "4508",
			"code": "450821113",
			"name": "丹竹镇",
			"provinceCode": "45"
		  },
		  {
			"areaCode": "450821",
			"cityCode": "4508",
			"code": "450821114",
			"name": "官成镇",
			"provinceCode": "45"
		  },
		  {
			"areaCode": "450821",
			"cityCode": "4508",
			"code": "450821115",
			"name": "思旺镇",
			"provinceCode": "45"
		  },
		  {
			"areaCode": "450821",
			"cityCode": "4508",
			"code": "450821116",
			"name": "大鹏镇",
			"provinceCode": "45"
		  },
		  {
			"areaCode": "450821",
			"cityCode": "4508",
			"code": "450821117",
			"name": "同和镇",
			"provinceCode": "45"
		  },
		  {
			"areaCode": "450821",
			"cityCode": "4508",
			"code": "450821118",
			"name": "东华镇",
			"provinceCode": "45"
		  },
		  {
			"areaCode": "450821",
			"cityCode": "4508",
			"code": "450821204",
			"name": "思界乡",
			"provinceCode": "45"
		  },
		  {
			"areaCode": "450821",
			"cityCode": "4508",
			"code": "450821205",
			"name": "国安瑶族乡",
			"provinceCode": "45"
		  },
		  {
			"areaCode": "450821",
			"cityCode": "4508",
			"code": "450821206",
			"name": "马练瑶族乡",
			"provinceCode": "45"
		  }
		]
	  },
	  {
		"cityCode": "4508",
		"code": "450881",
		"name": "桂平市",
		"provinceCode": "45",
		"list": [
		  {
			"areaCode": "450881",
			"cityCode": "4508",
			"code": "450881101",
			"name": "木乐镇",
			"provinceCode": "45"
		  },
		  {
			"areaCode": "450881",
			"cityCode": "4508",
			"code": "450881102",
			"name": "木圭镇",
			"provinceCode": "45"
		  },
		  {
			"areaCode": "450881",
			"cityCode": "4508",
			"code": "450881103",
			"name": "石咀镇",
			"provinceCode": "45"
		  },
		  {
			"areaCode": "450881",
			"cityCode": "4508",
			"code": "450881104",
			"name": "油麻镇",
			"provinceCode": "45"
		  },
		  {
			"areaCode": "450881",
			"cityCode": "4508",
			"code": "450881105",
			"name": "社坡镇",
			"provinceCode": "45"
		  },
		  {
			"areaCode": "450881",
			"cityCode": "4508",
			"code": "450881106",
			"name": "罗秀镇",
			"provinceCode": "45"
		  },
		  {
			"areaCode": "450881",
			"cityCode": "4508",
			"code": "450881107",
			"name": "麻垌镇",
			"provinceCode": "45"
		  },
		  {
			"areaCode": "450881",
			"cityCode": "4508",
			"code": "450881108",
			"name": "社步镇",
			"provinceCode": "45"
		  },
		  {
			"areaCode": "450881",
			"cityCode": "4508",
			"code": "450881109",
			"name": "下湾镇",
			"provinceCode": "45"
		  },
		  {
			"areaCode": "450881",
			"cityCode": "4508",
			"code": "450881110",
			"name": "木根镇",
			"provinceCode": "45"
		  },
		  {
			"areaCode": "450881",
			"cityCode": "4508",
			"code": "450881111",
			"name": "中沙镇",
			"provinceCode": "45"
		  },
		  {
			"areaCode": "450881",
			"cityCode": "4508",
			"code": "450881113",
			"name": "大洋镇",
			"provinceCode": "45"
		  },
		  {
			"areaCode": "450881",
			"cityCode": "4508",
			"code": "450881114",
			"name": "大湾镇",
			"provinceCode": "45"
		  },
		  {
			"areaCode": "450881",
			"cityCode": "4508",
			"code": "450881115",
			"name": "白沙镇",
			"provinceCode": "45"
		  },
		  {
			"areaCode": "450881",
			"cityCode": "4508",
			"code": "450881116",
			"name": "石龙镇",
			"provinceCode": "45"
		  },
		  {
			"areaCode": "450881",
			"cityCode": "4508",
			"code": "450881117",
			"name": "蒙圩镇",
			"provinceCode": "45"
		  },
		  {
			"areaCode": "450881",
			"cityCode": "4508",
			"code": "450881118",
			"name": "西山镇",
			"provinceCode": "45"
		  },
		  {
			"areaCode": "450881",
			"cityCode": "4508",
			"code": "450881119",
			"name": "南木镇",
			"provinceCode": "45"
		  },
		  {
			"areaCode": "450881",
			"cityCode": "4508",
			"code": "450881120",
			"name": "江口镇",
			"provinceCode": "45"
		  },
		  {
			"areaCode": "450881",
			"cityCode": "4508",
			"code": "450881121",
			"name": "金田镇",
			"provinceCode": "45"
		  },
		  {
			"areaCode": "450881",
			"cityCode": "4508",
			"code": "450881122",
			"name": "紫荆镇",
			"provinceCode": "45"
		  },
		  {
			"areaCode": "450881",
			"cityCode": "4508",
			"code": "450881200",
			"name": "马皮乡",
			"provinceCode": "45"
		  },
		  {
			"areaCode": "450881",
			"cityCode": "4508",
			"code": "450881202",
			"name": "寻旺乡",
			"provinceCode": "45"
		  },
		  {
			"areaCode": "450881",
			"cityCode": "4508",
			"code": "450881203",
			"name": "罗播乡",
			"provinceCode": "45"
		  },
		  {
			"areaCode": "450881",
			"cityCode": "4508",
			"code": "450881204",
			"name": "厚禄乡",
			"provinceCode": "45"
		  },
		  {
			"areaCode": "450881",
			"cityCode": "4508",
			"code": "450881206",
			"name": "垌心乡",
			"provinceCode": "45"
		  }
		]
	  }
	]
  },
  {
	"code": "4509",
	"name": "玉林市",
	"provinceCode": "45",
	"list": [
	  {
		"cityCode": "4509",
		"code": "450902",
		"name": "玉州区",
		"provinceCode": "45",
		"list": [
		  {
			"areaCode": "450902",
			"cityCode": "4509",
			"code": "450902001",
			"name": "玉城街道办事处",
			"provinceCode": "45"
		  },
		  {
			"areaCode": "450902",
			"cityCode": "4509",
			"code": "450902002",
			"name": "南江街道办事处",
			"provinceCode": "45"
		  },
		  {
			"areaCode": "450902",
			"cityCode": "4509",
			"code": "450902003",
			"name": "城西街道办事处",
			"provinceCode": "45"
		  },
		  {
			"areaCode": "450902",
			"cityCode": "4509",
			"code": "450902004",
			"name": "城北街道办事处",
			"provinceCode": "45"
		  },
		  {
			"areaCode": "450902",
			"cityCode": "4509",
			"code": "450902005",
			"name": "名山街道办事处",
			"provinceCode": "45"
		  },
		  {
			"areaCode": "450902",
			"cityCode": "4509",
			"code": "450902100",
			"name": "大塘镇",
			"provinceCode": "45"
		  },
		  {
			"areaCode": "450902",
			"cityCode": "4509",
			"code": "450902105",
			"name": "茂林镇",
			"provinceCode": "45"
		  },
		  {
			"areaCode": "450902",
			"cityCode": "4509",
			"code": "450902106",
			"name": "仁东镇",
			"provinceCode": "45"
		  },
		  {
			"areaCode": "450902",
			"cityCode": "4509",
			"code": "450902113",
			"name": "仁厚镇",
			"provinceCode": "45"
		  }
		]
	  },
	  {
		"cityCode": "4509",
		"code": "450903",
		"name": "福绵区",
		"provinceCode": "45",
		"list": [
		  {
			"areaCode": "450903",
			"cityCode": "4509",
			"code": "450903107",
			"name": "福绵镇",
			"provinceCode": "45"
		  },
		  {
			"areaCode": "450903",
			"cityCode": "4509",
			"code": "450903108",
			"name": "成均镇",
			"provinceCode": "45"
		  },
		  {
			"areaCode": "450903",
			"cityCode": "4509",
			"code": "450903109",
			"name": "樟木镇",
			"provinceCode": "45"
		  },
		  {
			"areaCode": "450903",
			"cityCode": "4509",
			"code": "450903110",
			"name": "新桥镇",
			"provinceCode": "45"
		  },
		  {
			"areaCode": "450903",
			"cityCode": "4509",
			"code": "450903111",
			"name": "沙田镇",
			"provinceCode": "45"
		  },
		  {
			"areaCode": "450903",
			"cityCode": "4509",
			"code": "450903112",
			"name": "石和镇",
			"provinceCode": "45"
		  }
		]
	  },
	  {
		"cityCode": "4509",
		"code": "450921",
		"name": "容县",
		"provinceCode": "45",
		"list": [
		  {
			"areaCode": "450921",
			"cityCode": "4509",
			"code": "450921100",
			"name": "容州镇",
			"provinceCode": "45"
		  },
		  {
			"areaCode": "450921",
			"cityCode": "4509",
			"code": "450921102",
			"name": "杨梅镇",
			"provinceCode": "45"
		  },
		  {
			"areaCode": "450921",
			"cityCode": "4509",
			"code": "450921103",
			"name": "灵山镇",
			"provinceCode": "45"
		  },
		  {
			"areaCode": "450921",
			"cityCode": "4509",
			"code": "450921104",
			"name": "六王镇",
			"provinceCode": "45"
		  },
		  {
			"areaCode": "450921",
			"cityCode": "4509",
			"code": "450921105",
			"name": "黎村镇",
			"provinceCode": "45"
		  },
		  {
			"areaCode": "450921",
			"cityCode": "4509",
			"code": "450921106",
			"name": "杨村镇",
			"provinceCode": "45"
		  },
		  {
			"areaCode": "450921",
			"cityCode": "4509",
			"code": "450921107",
			"name": "县底镇",
			"provinceCode": "45"
		  },
		  {
			"areaCode": "450921",
			"cityCode": "4509",
			"code": "450921108",
			"name": "自良镇",
			"provinceCode": "45"
		  },
		  {
			"areaCode": "450921",
			"cityCode": "4509",
			"code": "450921109",
			"name": "松山镇",
			"provinceCode": "45"
		  },
		  {
			"areaCode": "450921",
			"cityCode": "4509",
			"code": "450921110",
			"name": "罗江镇",
			"provinceCode": "45"
		  },
		  {
			"areaCode": "450921",
			"cityCode": "4509",
			"code": "450921111",
			"name": "石头镇",
			"provinceCode": "45"
		  },
		  {
			"areaCode": "450921",
			"cityCode": "4509",
			"code": "450921112",
			"name": "石寨镇",
			"provinceCode": "45"
		  },
		  {
			"areaCode": "450921",
			"cityCode": "4509",
			"code": "450921113",
			"name": "十里镇",
			"provinceCode": "45"
		  },
		  {
			"areaCode": "450921",
			"cityCode": "4509",
			"code": "450921114",
			"name": "容西镇",
			"provinceCode": "45"
		  },
		  {
			"areaCode": "450921",
			"cityCode": "4509",
			"code": "450921115",
			"name": "浪水镇",
			"provinceCode": "45"
		  }
		]
	  },
	  {
		"cityCode": "4509",
		"code": "450922",
		"name": "陆川县",
		"provinceCode": "45",
		"list": [
		  {
			"areaCode": "450922",
			"cityCode": "4509",
			"code": "450922101",
			"name": "温泉镇",
			"provinceCode": "45"
		  },
		  {
			"areaCode": "450922",
			"cityCode": "4509",
			"code": "450922102",
			"name": "米场镇",
			"provinceCode": "45"
		  },
		  {
			"areaCode": "450922",
			"cityCode": "4509",
			"code": "450922103",
			"name": "马坡镇",
			"provinceCode": "45"
		  },
		  {
			"areaCode": "450922",
			"cityCode": "4509",
			"code": "450922104",
			"name": "珊罗镇",
			"provinceCode": "45"
		  },
		  {
			"areaCode": "450922",
			"cityCode": "4509",
			"code": "450922105",
			"name": "平乐镇",
			"provinceCode": "45"
		  },
		  {
			"areaCode": "450922",
			"cityCode": "4509",
			"code": "450922106",
			"name": "沙坡镇",
			"provinceCode": "45"
		  },
		  {
			"areaCode": "450922",
			"cityCode": "4509",
			"code": "450922107",
			"name": "大桥镇",
			"provinceCode": "45"
		  },
		  {
			"areaCode": "450922",
			"cityCode": "4509",
			"code": "450922108",
			"name": "乌石镇",
			"provinceCode": "45"
		  },
		  {
			"areaCode": "450922",
			"cityCode": "4509",
			"code": "450922109",
			"name": "良田镇",
			"provinceCode": "45"
		  },
		  {
			"areaCode": "450922",
			"cityCode": "4509",
			"code": "450922110",
			"name": "清湖镇",
			"provinceCode": "45"
		  },
		  {
			"areaCode": "450922",
			"cityCode": "4509",
			"code": "450922111",
			"name": "古城镇",
			"provinceCode": "45"
		  },
		  {
			"areaCode": "450922",
			"cityCode": "4509",
			"code": "450922112",
			"name": "沙湖镇",
			"provinceCode": "45"
		  },
		  {
			"areaCode": "450922",
			"cityCode": "4509",
			"code": "450922113",
			"name": "横山镇",
			"provinceCode": "45"
		  },
		  {
			"areaCode": "450922",
			"cityCode": "4509",
			"code": "450922114",
			"name": "滩面镇",
			"provinceCode": "45"
		  }
		]
	  },
	  {
		"cityCode": "4509",
		"code": "450923",
		"name": "博白县",
		"provinceCode": "45",
		"list": [
		  {
			"areaCode": "450923",
			"cityCode": "4509",
			"code": "450923100",
			"name": "博白镇",
			"provinceCode": "45"
		  },
		  {
			"areaCode": "450923",
			"cityCode": "4509",
			"code": "450923102",
			"name": "双凤镇",
			"provinceCode": "45"
		  },
		  {
			"areaCode": "450923",
			"cityCode": "4509",
			"code": "450923105",
			"name": "顿谷镇",
			"provinceCode": "45"
		  },
		  {
			"areaCode": "450923",
			"cityCode": "4509",
			"code": "450923106",
			"name": "水鸣镇",
			"provinceCode": "45"
		  },
		  {
			"areaCode": "450923",
			"cityCode": "4509",
			"code": "450923107",
			"name": "那林镇",
			"provinceCode": "45"
		  },
		  {
			"areaCode": "450923",
			"cityCode": "4509",
			"code": "450923108",
			"name": "江宁镇",
			"provinceCode": "45"
		  },
		  {
			"areaCode": "450923",
			"cityCode": "4509",
			"code": "450923109",
			"name": "三滩镇",
			"provinceCode": "45"
		  },
		  {
			"areaCode": "450923",
			"cityCode": "4509",
			"code": "450923110",
			"name": "黄凌镇",
			"provinceCode": "45"
		  },
		  {
			"areaCode": "450923",
			"cityCode": "4509",
			"code": "450923111",
			"name": "亚山镇",
			"provinceCode": "45"
		  },
		  {
			"areaCode": "450923",
			"cityCode": "4509",
			"code": "450923112",
			"name": "旺茂镇",
			"provinceCode": "45"
		  },
		  {
			"areaCode": "450923",
			"cityCode": "4509",
			"code": "450923114",
			"name": "东平镇",
			"provinceCode": "45"
		  },
		  {
			"areaCode": "450923",
			"cityCode": "4509",
			"code": "450923115",
			"name": "沙河镇",
			"provinceCode": "45"
		  },
		  {
			"areaCode": "450923",
			"cityCode": "4509",
			"code": "450923116",
			"name": "菱角镇",
			"provinceCode": "45"
		  },
		  {
			"areaCode": "450923",
			"cityCode": "4509",
			"code": "450923117",
			"name": "新田镇",
			"provinceCode": "45"
		  },
		  {
			"areaCode": "450923",
			"cityCode": "4509",
			"code": "450923118",
			"name": "凤山镇",
			"provinceCode": "45"
		  },
		  {
			"areaCode": "450923",
			"cityCode": "4509",
			"code": "450923119",
			"name": "宁潭镇",
			"provinceCode": "45"
		  },
		  {
			"areaCode": "450923",
			"cityCode": "4509",
			"code": "450923120",
			"name": "文地镇",
			"provinceCode": "45"
		  },
		  {
			"areaCode": "450923",
			"cityCode": "4509",
			"code": "450923121",
			"name": "英桥镇",
			"provinceCode": "45"
		  },
		  {
			"areaCode": "450923",
			"cityCode": "4509",
			"code": "450923122",
			"name": "那卜镇",
			"provinceCode": "45"
		  },
		  {
			"areaCode": "450923",
			"cityCode": "4509",
			"code": "450923123",
			"name": "大垌镇",
			"provinceCode": "45"
		  },
		  {
			"areaCode": "450923",
			"cityCode": "4509",
			"code": "450923124",
			"name": "沙陂镇",
			"provinceCode": "45"
		  },
		  {
			"areaCode": "450923",
			"cityCode": "4509",
			"code": "450923125",
			"name": "双旺镇",
			"provinceCode": "45"
		  },
		  {
			"areaCode": "450923",
			"cityCode": "4509",
			"code": "450923126",
			"name": "松旺镇",
			"provinceCode": "45"
		  },
		  {
			"areaCode": "450923",
			"cityCode": "4509",
			"code": "450923127",
			"name": "龙潭镇",
			"provinceCode": "45"
		  },
		  {
			"areaCode": "450923",
			"cityCode": "4509",
			"code": "450923128",
			"name": "大坝镇",
			"provinceCode": "45"
		  },
		  {
			"areaCode": "450923",
			"cityCode": "4509",
			"code": "450923129",
			"name": "永安镇",
			"provinceCode": "45"
		  },
		  {
			"areaCode": "450923",
			"cityCode": "4509",
			"code": "450923130",
			"name": "径口镇",
			"provinceCode": "45"
		  },
		  {
			"areaCode": "450923",
			"cityCode": "4509",
			"code": "450923131",
			"name": "浪平镇",
			"provinceCode": "45"
		  }
		]
	  },
	  {
		"cityCode": "4509",
		"code": "450924",
		"name": "兴业县",
		"provinceCode": "45",
		"list": [
		  {
			"areaCode": "450924",
			"cityCode": "4509",
			"code": "450924100",
			"name": "石南镇",
			"provinceCode": "45"
		  },
		  {
			"areaCode": "450924",
			"cityCode": "4509",
			"code": "450924101",
			"name": "大平山镇",
			"provinceCode": "45"
		  },
		  {
			"areaCode": "450924",
			"cityCode": "4509",
			"code": "450924102",
			"name": "葵阳镇",
			"provinceCode": "45"
		  },
		  {
			"areaCode": "450924",
			"cityCode": "4509",
			"code": "450924103",
			"name": "城隍镇",
			"provinceCode": "45"
		  },
		  {
			"areaCode": "450924",
			"cityCode": "4509",
			"code": "450924104",
			"name": "山心镇",
			"provinceCode": "45"
		  },
		  {
			"areaCode": "450924",
			"cityCode": "4509",
			"code": "450924105",
			"name": "沙塘镇",
			"provinceCode": "45"
		  },
		  {
			"areaCode": "450924",
			"cityCode": "4509",
			"code": "450924106",
			"name": "蒲塘镇",
			"provinceCode": "45"
		  },
		  {
			"areaCode": "450924",
			"cityCode": "4509",
			"code": "450924107",
			"name": "北市镇",
			"provinceCode": "45"
		  },
		  {
			"areaCode": "450924",
			"cityCode": "4509",
			"code": "450924108",
			"name": "龙安镇",
			"provinceCode": "45"
		  },
		  {
			"areaCode": "450924",
			"cityCode": "4509",
			"code": "450924109",
			"name": "高峰镇",
			"provinceCode": "45"
		  },
		  {
			"areaCode": "450924",
			"cityCode": "4509",
			"code": "450924110",
			"name": "小平山镇",
			"provinceCode": "45"
		  },
		  {
			"areaCode": "450924",
			"cityCode": "4509",
			"code": "450924111",
			"name": "卖酒镇",
			"provinceCode": "45"
		  },
		  {
			"areaCode": "450924",
			"cityCode": "4509",
			"code": "450924112",
			"name": "洛阳镇",
			"provinceCode": "45"
		  }
		]
	  },
	  {
		"cityCode": "4509",
		"code": "450981",
		"name": "北流市",
		"provinceCode": "45",
		"list": [
		  {
			"areaCode": "450981",
			"cityCode": "4509",
			"code": "450981001",
			"name": "陵城街道办事处",
			"provinceCode": "45"
		  },
		  {
			"areaCode": "450981",
			"cityCode": "4509",
			"code": "450981002",
			"name": "城南街道办事处",
			"provinceCode": "45"
		  },
		  {
			"areaCode": "450981",
			"cityCode": "4509",
			"code": "450981003",
			"name": "城北街道办事处",
			"provinceCode": "45"
		  },
		  {
			"areaCode": "450981",
			"cityCode": "4509",
			"code": "450981100",
			"name": "北流镇",
			"provinceCode": "45"
		  },
		  {
			"areaCode": "450981",
			"cityCode": "4509",
			"code": "450981101",
			"name": "新荣镇",
			"provinceCode": "45"
		  },
		  {
			"areaCode": "450981",
			"cityCode": "4509",
			"code": "450981102",
			"name": "民安镇",
			"provinceCode": "45"
		  },
		  {
			"areaCode": "450981",
			"cityCode": "4509",
			"code": "450981103",
			"name": "山围镇",
			"provinceCode": "45"
		  },
		  {
			"areaCode": "450981",
			"cityCode": "4509",
			"code": "450981104",
			"name": "民乐镇",
			"provinceCode": "45"
		  },
		  {
			"areaCode": "450981",
			"cityCode": "4509",
			"code": "450981105",
			"name": "西埌镇",
			"provinceCode": "45"
		  },
		  {
			"areaCode": "450981",
			"cityCode": "4509",
			"code": "450981106",
			"name": "新圩镇",
			"provinceCode": "45"
		  },
		  {
			"areaCode": "450981",
			"cityCode": "4509",
			"code": "450981107",
			"name": "大里镇",
			"provinceCode": "45"
		  },
		  {
			"areaCode": "450981",
			"cityCode": "4509",
			"code": "450981108",
			"name": "塘岸镇",
			"provinceCode": "45"
		  },
		  {
			"areaCode": "450981",
			"cityCode": "4509",
			"code": "450981109",
			"name": "清水口镇",
			"provinceCode": "45"
		  },
		  {
			"areaCode": "450981",
			"cityCode": "4509",
			"code": "450981110",
			"name": "隆盛镇",
			"provinceCode": "45"
		  },
		  {
			"areaCode": "450981",
			"cityCode": "4509",
			"code": "450981111",
			"name": "大坡外镇",
			"provinceCode": "45"
		  },
		  {
			"areaCode": "450981",
			"cityCode": "4509",
			"code": "450981112",
			"name": "六麻镇",
			"provinceCode": "45"
		  },
		  {
			"areaCode": "450981",
			"cityCode": "4509",
			"code": "450981113",
			"name": "新丰镇",
			"provinceCode": "45"
		  },
		  {
			"areaCode": "450981",
			"cityCode": "4509",
			"code": "450981114",
			"name": "沙垌镇",
			"provinceCode": "45"
		  },
		  {
			"areaCode": "450981",
			"cityCode": "4509",
			"code": "450981115",
			"name": "平政镇",
			"provinceCode": "45"
		  },
		  {
			"areaCode": "450981",
			"cityCode": "4509",
			"code": "450981116",
			"name": "白马镇",
			"provinceCode": "45"
		  },
		  {
			"areaCode": "450981",
			"cityCode": "4509",
			"code": "450981117",
			"name": "大伦镇",
			"provinceCode": "45"
		  },
		  {
			"areaCode": "450981",
			"cityCode": "4509",
			"code": "450981118",
			"name": "扶新镇",
			"provinceCode": "45"
		  },
		  {
			"areaCode": "450981",
			"cityCode": "4509",
			"code": "450981119",
			"name": "六靖镇",
			"provinceCode": "45"
		  },
		  {
			"areaCode": "450981",
			"cityCode": "4509",
			"code": "450981120",
			"name": "石窝镇",
			"provinceCode": "45"
		  },
		  {
			"areaCode": "450981",
			"cityCode": "4509",
			"code": "450981121",
			"name": "清湾镇",
			"provinceCode": "45"
		  }
		]
	  }
	]
  },
  {
	"code": "4510",
	"name": "百色市",
	"provinceCode": "45",
	"list": [
	  {
		"cityCode": "4510",
		"code": "451002",
		"name": "右江区",
		"provinceCode": "45",
		"list": [
		  {
			"areaCode": "451002",
			"cityCode": "4510",
			"code": "451002001",
			"name": "百城街道办事处",
			"provinceCode": "45"
		  },
		  {
			"areaCode": "451002",
			"cityCode": "4510",
			"code": "451002002",
			"name": "龙景街道办事处",
			"provinceCode": "45"
		  },
		  {
			"areaCode": "451002",
			"cityCode": "4510",
			"code": "451002101",
			"name": "阳圩镇",
			"provinceCode": "45"
		  },
		  {
			"areaCode": "451002",
			"cityCode": "4510",
			"code": "451002102",
			"name": "四塘镇",
			"provinceCode": "45"
		  },
		  {
			"areaCode": "451002",
			"cityCode": "4510",
			"code": "451002103",
			"name": "龙川镇",
			"provinceCode": "45"
		  },
		  {
			"areaCode": "451002",
			"cityCode": "4510",
			"code": "451002104",
			"name": "永乐镇",
			"provinceCode": "45"
		  },
		  {
			"areaCode": "451002",
			"cityCode": "4510",
			"code": "451002202",
			"name": "汪甸瑶族乡",
			"provinceCode": "45"
		  },
		  {
			"areaCode": "451002",
			"cityCode": "4510",
			"code": "451002203",
			"name": "大楞乡",
			"provinceCode": "45"
		  },
		  {
			"areaCode": "451002",
			"cityCode": "4510",
			"code": "451002204",
			"name": "泮水乡",
			"provinceCode": "45"
		  }
		]
	  },
	  {
		"cityCode": "4510",
		"code": "451021",
		"name": "田阳县",
		"provinceCode": "45",
		"list": [
		  {
			"areaCode": "451021",
			"cityCode": "4510",
			"code": "451021100",
			"name": "田州镇",
			"provinceCode": "45"
		  },
		  {
			"areaCode": "451021",
			"cityCode": "4510",
			"code": "451021101",
			"name": "那坡镇",
			"provinceCode": "45"
		  },
		  {
			"areaCode": "451021",
			"cityCode": "4510",
			"code": "451021102",
			"name": "坡洪镇",
			"provinceCode": "45"
		  },
		  {
			"areaCode": "451021",
			"cityCode": "4510",
			"code": "451021103",
			"name": "那满镇",
			"provinceCode": "45"
		  },
		  {
			"areaCode": "451021",
			"cityCode": "4510",
			"code": "451021104",
			"name": "百育镇",
			"provinceCode": "45"
		  },
		  {
			"areaCode": "451021",
			"cityCode": "4510",
			"code": "451021105",
			"name": "玉凤镇",
			"provinceCode": "45"
		  },
		  {
			"areaCode": "451021",
			"cityCode": "4510",
			"code": "451021106",
			"name": "头塘镇",
			"provinceCode": "45"
		  },
		  {
			"areaCode": "451021",
			"cityCode": "4510",
			"code": "451021107",
			"name": "五村镇",
			"provinceCode": "45"
		  },
		  {
			"areaCode": "451021",
			"cityCode": "4510",
			"code": "451021108",
			"name": "洞靖镇",
			"provinceCode": "45"
		  },
		  {
			"areaCode": "451021",
			"cityCode": "4510",
			"code": "451021204",
			"name": "巴别乡",
			"provinceCode": "45"
		  }
		]
	  },
	  {
		"cityCode": "4510",
		"code": "451022",
		"name": "田东县",
		"provinceCode": "45",
		"list": [
		  {
			"areaCode": "451022",
			"cityCode": "4510",
			"code": "451022100",
			"name": "平马镇",
			"provinceCode": "45"
		  },
		  {
			"areaCode": "451022",
			"cityCode": "4510",
			"code": "451022101",
			"name": "祥周镇",
			"provinceCode": "45"
		  },
		  {
			"areaCode": "451022",
			"cityCode": "4510",
			"code": "451022103",
			"name": "林逢镇",
			"provinceCode": "45"
		  },
		  {
			"areaCode": "451022",
			"cityCode": "4510",
			"code": "451022105",
			"name": "思林镇",
			"provinceCode": "45"
		  },
		  {
			"areaCode": "451022",
			"cityCode": "4510",
			"code": "451022106",
			"name": "印茶镇",
			"provinceCode": "45"
		  },
		  {
			"areaCode": "451022",
			"cityCode": "4510",
			"code": "451022107",
			"name": "江城镇",
			"provinceCode": "45"
		  },
		  {
			"areaCode": "451022",
			"cityCode": "4510",
			"code": "451022108",
			"name": "朔良镇",
			"provinceCode": "45"
		  },
		  {
			"areaCode": "451022",
			"cityCode": "4510",
			"code": "451022109",
			"name": "义圩镇",
			"provinceCode": "45"
		  },
		  {
			"areaCode": "451022",
			"cityCode": "4510",
			"code": "451022110",
			"name": "那拔镇",
			"provinceCode": "45"
		  },
		  {
			"areaCode": "451022",
			"cityCode": "4510",
			"code": "451022201",
			"name": "作登瑶族乡",
			"provinceCode": "45"
		  }
		]
	  },
	  {
		"cityCode": "4510",
		"code": "451023",
		"name": "平果县",
		"provinceCode": "45",
		"list": [
		  {
			"areaCode": "451023",
			"cityCode": "4510",
			"code": "451023100",
			"name": "马头镇",
			"provinceCode": "45"
		  },
		  {
			"areaCode": "451023",
			"cityCode": "4510",
			"code": "451023101",
			"name": "新安镇",
			"provinceCode": "45"
		  },
		  {
			"areaCode": "451023",
			"cityCode": "4510",
			"code": "451023102",
			"name": "果化镇",
			"provinceCode": "45"
		  },
		  {
			"areaCode": "451023",
			"cityCode": "4510",
			"code": "451023103",
			"name": "太平镇",
			"provinceCode": "45"
		  },
		  {
			"areaCode": "451023",
			"cityCode": "4510",
			"code": "451023104",
			"name": "坡造镇",
			"provinceCode": "45"
		  },
		  {
			"areaCode": "451023",
			"cityCode": "4510",
			"code": "451023105",
			"name": "四塘镇",
			"provinceCode": "45"
		  },
		  {
			"areaCode": "451023",
			"cityCode": "4510",
			"code": "451023106",
			"name": "旧城镇",
			"provinceCode": "45"
		  },
		  {
			"areaCode": "451023",
			"cityCode": "4510",
			"code": "451023107",
			"name": "榜圩镇",
			"provinceCode": "45"
		  },
		  {
			"areaCode": "451023",
			"cityCode": "4510",
			"code": "451023108",
			"name": "凤梧镇",
			"provinceCode": "45"
		  },
		  {
			"areaCode": "451023",
			"cityCode": "4510",
			"code": "451023200",
			"name": "海城乡",
			"provinceCode": "45"
		  },
		  {
			"areaCode": "451023",
			"cityCode": "4510",
			"code": "451023202",
			"name": "黎明乡",
			"provinceCode": "45"
		  },
		  {
			"areaCode": "451023",
			"cityCode": "4510",
			"code": "451023203",
			"name": "同老乡",
			"provinceCode": "45"
		  },
		  {
			"areaCode": "451023",
			"cityCode": "4510",
			"code": "451023450",
			"name": "平果铝",
			"provinceCode": "45"
		  }
		]
	  },
	  {
		"cityCode": "4510",
		"code": "451024",
		"name": "德保县",
		"provinceCode": "45",
		"list": [
		  {
			"areaCode": "451024",
			"cityCode": "4510",
			"code": "451024100",
			"name": "城关镇",
			"provinceCode": "45"
		  },
		  {
			"areaCode": "451024",
			"cityCode": "4510",
			"code": "451024101",
			"name": "足荣镇",
			"provinceCode": "45"
		  },
		  {
			"areaCode": "451024",
			"cityCode": "4510",
			"code": "451024102",
			"name": "隆桑镇",
			"provinceCode": "45"
		  },
		  {
			"areaCode": "451024",
			"cityCode": "4510",
			"code": "451024103",
			"name": "敬德镇",
			"provinceCode": "45"
		  },
		  {
			"areaCode": "451024",
			"cityCode": "4510",
			"code": "451024104",
			"name": "马隘镇",
			"provinceCode": "45"
		  },
		  {
			"areaCode": "451024",
			"cityCode": "4510",
			"code": "451024105",
			"name": "东凌镇",
			"provinceCode": "45"
		  },
		  {
			"areaCode": "451024",
			"cityCode": "4510",
			"code": "451024106",
			"name": "那甲镇",
			"provinceCode": "45"
		  },
		  {
			"areaCode": "451024",
			"cityCode": "4510",
			"code": "451024200",
			"name": "都安乡",
			"provinceCode": "45"
		  },
		  {
			"areaCode": "451024",
			"cityCode": "4510",
			"code": "451024203",
			"name": "荣华乡",
			"provinceCode": "45"
		  },
		  {
			"areaCode": "451024",
			"cityCode": "4510",
			"code": "451024204",
			"name": "燕峒乡",
			"provinceCode": "45"
		  },
		  {
			"areaCode": "451024",
			"cityCode": "4510",
			"code": "451024205",
			"name": "龙光乡",
			"provinceCode": "45"
		  },
		  {
			"areaCode": "451024",
			"cityCode": "4510",
			"code": "451024206",
			"name": "巴头乡",
			"provinceCode": "45"
		  },
		  {
			"areaCode": "451024",
			"cityCode": "4510",
			"code": "451024450",
			"name": "德保铝业",
			"provinceCode": "45"
		  }
		]
	  },
	  {
		"cityCode": "4510",
		"code": "451026",
		"name": "那坡县",
		"provinceCode": "45",
		"list": [
		  {
			"areaCode": "451026",
			"cityCode": "4510",
			"code": "451026100",
			"name": "城厢镇",
			"provinceCode": "45"
		  },
		  {
			"areaCode": "451026",
			"cityCode": "4510",
			"code": "451026101",
			"name": "平孟镇",
			"provinceCode": "45"
		  },
		  {
			"areaCode": "451026",
			"cityCode": "4510",
			"code": "451026102",
			"name": "龙合镇",
			"provinceCode": "45"
		  },
		  {
			"areaCode": "451026",
			"cityCode": "4510",
			"code": "451026200",
			"name": "坡荷乡",
			"provinceCode": "45"
		  },
		  {
			"areaCode": "451026",
			"cityCode": "4510",
			"code": "451026203",
			"name": "德隆乡",
			"provinceCode": "45"
		  },
		  {
			"areaCode": "451026",
			"cityCode": "4510",
			"code": "451026204",
			"name": "百合乡",
			"provinceCode": "45"
		  },
		  {
			"areaCode": "451026",
			"cityCode": "4510",
			"code": "451026205",
			"name": "百南乡",
			"provinceCode": "45"
		  },
		  {
			"areaCode": "451026",
			"cityCode": "4510",
			"code": "451026207",
			"name": "百省乡",
			"provinceCode": "45"
		  },
		  {
			"areaCode": "451026",
			"cityCode": "4510",
			"code": "451026208",
			"name": "百都乡",
			"provinceCode": "45"
		  }
		]
	  },
	  {
		"cityCode": "4510",
		"code": "451027",
		"name": "凌云县",
		"provinceCode": "45",
		"list": [
		  {
			"areaCode": "451027",
			"cityCode": "4510",
			"code": "451027100",
			"name": "泗城镇",
			"provinceCode": "45"
		  },
		  {
			"areaCode": "451027",
			"cityCode": "4510",
			"code": "451027101",
			"name": "逻楼镇",
			"provinceCode": "45"
		  },
		  {
			"areaCode": "451027",
			"cityCode": "4510",
			"code": "451027102",
			"name": "加尤镇",
			"provinceCode": "45"
		  },
		  {
			"areaCode": "451027",
			"cityCode": "4510",
			"code": "451027103",
			"name": "下甲镇",
			"provinceCode": "45"
		  },
		  {
			"areaCode": "451027",
			"cityCode": "4510",
			"code": "451027201",
			"name": "伶站瑶族乡",
			"provinceCode": "45"
		  },
		  {
			"areaCode": "451027",
			"cityCode": "4510",
			"code": "451027202",
			"name": "朝里瑶族乡",
			"provinceCode": "45"
		  },
		  {
			"areaCode": "451027",
			"cityCode": "4510",
			"code": "451027203",
			"name": "沙里瑶族乡",
			"provinceCode": "45"
		  },
		  {
			"areaCode": "451027",
			"cityCode": "4510",
			"code": "451027205",
			"name": "玉洪瑶族乡",
			"provinceCode": "45"
		  }
		]
	  },
	  {
		"cityCode": "4510",
		"code": "451028",
		"name": "乐业县",
		"provinceCode": "45",
		"list": [
		  {
			"areaCode": "451028",
			"cityCode": "4510",
			"code": "451028100",
			"name": "同乐镇",
			"provinceCode": "45"
		  },
		  {
			"areaCode": "451028",
			"cityCode": "4510",
			"code": "451028101",
			"name": "甘田镇",
			"provinceCode": "45"
		  },
		  {
			"areaCode": "451028",
			"cityCode": "4510",
			"code": "451028102",
			"name": "新化镇",
			"provinceCode": "45"
		  },
		  {
			"areaCode": "451028",
			"cityCode": "4510",
			"code": "451028103",
			"name": "花坪镇",
			"provinceCode": "45"
		  },
		  {
			"areaCode": "451028",
			"cityCode": "4510",
			"code": "451028201",
			"name": "逻沙乡",
			"provinceCode": "45"
		  },
		  {
			"areaCode": "451028",
			"cityCode": "4510",
			"code": "451028203",
			"name": "逻西乡",
			"provinceCode": "45"
		  },
		  {
			"areaCode": "451028",
			"cityCode": "4510",
			"code": "451028204",
			"name": "幼平乡",
			"provinceCode": "45"
		  },
		  {
			"areaCode": "451028",
			"cityCode": "4510",
			"code": "451028205",
			"name": "雅长乡",
			"provinceCode": "45"
		  }
		]
	  },
	  {
		"cityCode": "4510",
		"code": "451029",
		"name": "田林县",
		"provinceCode": "45",
		"list": [
		  {
			"areaCode": "451029",
			"cityCode": "4510",
			"code": "451029100",
			"name": "乐里镇",
			"provinceCode": "45"
		  },
		  {
			"areaCode": "451029",
			"cityCode": "4510",
			"code": "451029101",
			"name": "旧州镇",
			"provinceCode": "45"
		  },
		  {
			"areaCode": "451029",
			"cityCode": "4510",
			"code": "451029102",
			"name": "定安镇",
			"provinceCode": "45"
		  },
		  {
			"areaCode": "451029",
			"cityCode": "4510",
			"code": "451029103",
			"name": "六隆镇",
			"provinceCode": "45"
		  },
		  {
			"areaCode": "451029",
			"cityCode": "4510",
			"code": "451029104",
			"name": "浪平镇",
			"provinceCode": "45"
		  },
		  {
			"areaCode": "451029",
			"cityCode": "4510",
			"code": "451029200",
			"name": "潞城瑶族乡",
			"provinceCode": "45"
		  },
		  {
			"areaCode": "451029",
			"cityCode": "4510",
			"code": "451029201",
			"name": "利周瑶族乡",
			"provinceCode": "45"
		  },
		  {
			"areaCode": "451029",
			"cityCode": "4510",
			"code": "451029202",
			"name": "平塘乡",
			"provinceCode": "45"
		  },
		  {
			"areaCode": "451029",
			"cityCode": "4510",
			"code": "451029204",
			"name": "八桂瑶族乡",
			"provinceCode": "45"
		  },
		  {
			"areaCode": "451029",
			"cityCode": "4510",
			"code": "451029205",
			"name": "八渡瑶族乡",
			"provinceCode": "45"
		  },
		  {
			"areaCode": "451029",
			"cityCode": "4510",
			"code": "451029206",
			"name": "那比乡",
			"provinceCode": "45"
		  },
		  {
			"areaCode": "451029",
			"cityCode": "4510",
			"code": "451029207",
			"name": "高龙乡",
			"provinceCode": "45"
		  },
		  {
			"areaCode": "451029",
			"cityCode": "4510",
			"code": "451029208",
			"name": "百乐乡",
			"provinceCode": "45"
		  },
		  {
			"areaCode": "451029",
			"cityCode": "4510",
			"code": "451029209",
			"name": "者苗乡",
			"provinceCode": "45"
		  }
		]
	  },
	  {
		"cityCode": "4510",
		"code": "451030",
		"name": "西林县",
		"provinceCode": "45",
		"list": [
		  {
			"areaCode": "451030",
			"cityCode": "4510",
			"code": "451030100",
			"name": "八达镇",
			"provinceCode": "45"
		  },
		  {
			"areaCode": "451030",
			"cityCode": "4510",
			"code": "451030101",
			"name": "古障镇",
			"provinceCode": "45"
		  },
		  {
			"areaCode": "451030",
			"cityCode": "4510",
			"code": "451030102",
			"name": "那劳镇",
			"provinceCode": "45"
		  },
		  {
			"areaCode": "451030",
			"cityCode": "4510",
			"code": "451030103",
			"name": "马蚌镇",
			"provinceCode": "45"
		  },
		  {
			"areaCode": "451030",
			"cityCode": "4510",
			"code": "451030203",
			"name": "普合苗族乡",
			"provinceCode": "45"
		  },
		  {
			"areaCode": "451030",
			"cityCode": "4510",
			"code": "451030204",
			"name": "西平乡",
			"provinceCode": "45"
		  },
		  {
			"areaCode": "451030",
			"cityCode": "4510",
			"code": "451030206",
			"name": "那佐苗族乡",
			"provinceCode": "45"
		  },
		  {
			"areaCode": "451030",
			"cityCode": "4510",
			"code": "451030208",
			"name": "足别瑶族苗族乡",
			"provinceCode": "45"
		  }
		]
	  },
	  {
		"cityCode": "4510",
		"code": "451031",
		"name": "隆林各族自治县",
		"provinceCode": "45",
		"list": [
		  {
			"areaCode": "451031",
			"cityCode": "4510",
			"code": "451031100",
			"name": "新州镇",
			"provinceCode": "45"
		  },
		  {
			"areaCode": "451031",
			"cityCode": "4510",
			"code": "451031101",
			"name": "桠杈镇",
			"provinceCode": "45"
		  },
		  {
			"areaCode": "451031",
			"cityCode": "4510",
			"code": "451031102",
			"name": "天生桥镇",
			"provinceCode": "45"
		  },
		  {
			"areaCode": "451031",
			"cityCode": "4510",
			"code": "451031103",
			"name": "平班镇",
			"provinceCode": "45"
		  },
		  {
			"areaCode": "451031",
			"cityCode": "4510",
			"code": "451031104",
			"name": "德峨镇",
			"provinceCode": "45"
		  },
		  {
			"areaCode": "451031",
			"cityCode": "4510",
			"code": "451031105",
			"name": "隆或镇",
			"provinceCode": "45"
		  },
		  {
			"areaCode": "451031",
			"cityCode": "4510",
			"code": "451031200",
			"name": "沙梨乡",
			"provinceCode": "45"
		  },
		  {
			"areaCode": "451031",
			"cityCode": "4510",
			"code": "451031203",
			"name": "者保乡",
			"provinceCode": "45"
		  },
		  {
			"areaCode": "451031",
			"cityCode": "4510",
			"code": "451031204",
			"name": "者浪乡",
			"provinceCode": "45"
		  },
		  {
			"areaCode": "451031",
			"cityCode": "4510",
			"code": "451031205",
			"name": "革步乡",
			"provinceCode": "45"
		  },
		  {
			"areaCode": "451031",
			"cityCode": "4510",
			"code": "451031206",
			"name": "金钟山乡",
			"provinceCode": "45"
		  },
		  {
			"areaCode": "451031",
			"cityCode": "4510",
			"code": "451031208",
			"name": "猪场乡",
			"provinceCode": "45"
		  },
		  {
			"areaCode": "451031",
			"cityCode": "4510",
			"code": "451031210",
			"name": "蛇场乡",
			"provinceCode": "45"
		  },
		  {
			"areaCode": "451031",
			"cityCode": "4510",
			"code": "451031211",
			"name": "克长乡",
			"provinceCode": "45"
		  },
		  {
			"areaCode": "451031",
			"cityCode": "4510",
			"code": "451031213",
			"name": "岩茶乡",
			"provinceCode": "45"
		  },
		  {
			"areaCode": "451031",
			"cityCode": "4510",
			"code": "451031215",
			"name": "介廷乡",
			"provinceCode": "45"
		  }
		]
	  },
	  {
		"cityCode": "4510",
		"code": "451081",
		"name": "靖西市",
		"provinceCode": "45",
		"list": [
		  {
			"areaCode": "451081",
			"cityCode": "4510",
			"code": "451081100",
			"name": "新靖镇",
			"provinceCode": "45"
		  },
		  {
			"areaCode": "451081",
			"cityCode": "4510",
			"code": "451081101",
			"name": "化峒镇",
			"provinceCode": "45"
		  },
		  {
			"areaCode": "451081",
			"cityCode": "4510",
			"code": "451081102",
			"name": "湖润镇",
			"provinceCode": "45"
		  },
		  {
			"areaCode": "451081",
			"cityCode": "4510",
			"code": "451081103",
			"name": "安德镇",
			"provinceCode": "45"
		  },
		  {
			"areaCode": "451081",
			"cityCode": "4510",
			"code": "451081104",
			"name": "龙临镇",
			"provinceCode": "45"
		  },
		  {
			"areaCode": "451081",
			"cityCode": "4510",
			"code": "451081105",
			"name": "渠洋镇",
			"provinceCode": "45"
		  },
		  {
			"areaCode": "451081",
			"cityCode": "4510",
			"code": "451081106",
			"name": "岳圩镇",
			"provinceCode": "45"
		  },
		  {
			"areaCode": "451081",
			"cityCode": "4510",
			"code": "451081107",
			"name": "龙邦镇",
			"provinceCode": "45"
		  },
		  {
			"areaCode": "451081",
			"cityCode": "4510",
			"code": "451081108",
			"name": "禄峒镇",
			"provinceCode": "45"
		  },
		  {
			"areaCode": "451081",
			"cityCode": "4510",
			"code": "451081109",
			"name": "武平镇",
			"provinceCode": "45"
		  },
		  {
			"areaCode": "451081",
			"cityCode": "4510",
			"code": "451081110",
			"name": "地州镇",
			"provinceCode": "45"
		  },
		  {
			"areaCode": "451081",
			"cityCode": "4510",
			"code": "451081200",
			"name": "同德乡",
			"provinceCode": "45"
		  },
		  {
			"areaCode": "451081",
			"cityCode": "4510",
			"code": "451081201",
			"name": "壬庄乡",
			"provinceCode": "45"
		  },
		  {
			"areaCode": "451081",
			"cityCode": "4510",
			"code": "451081202",
			"name": "安宁乡",
			"provinceCode": "45"
		  },
		  {
			"areaCode": "451081",
			"cityCode": "4510",
			"code": "451081206",
			"name": "南坡乡",
			"provinceCode": "45"
		  },
		  {
			"areaCode": "451081",
			"cityCode": "4510",
			"code": "451081207",
			"name": "吞盘乡",
			"provinceCode": "45"
		  },
		  {
			"areaCode": "451081",
			"cityCode": "4510",
			"code": "451081209",
			"name": "果乐乡",
			"provinceCode": "45"
		  },
		  {
			"areaCode": "451081",
			"cityCode": "4510",
			"code": "451081211",
			"name": "新甲乡",
			"provinceCode": "45"
		  },
		  {
			"areaCode": "451081",
			"cityCode": "4510",
			"code": "451081215",
			"name": "魁圩乡",
			"provinceCode": "45"
		  }
		]
	  }
	]
  },
  {
	"code": "4511",
	"name": "贺州市",
	"provinceCode": "45",
	"list": [
	  {
		"cityCode": "4511",
		"code": "451102",
		"name": "八步区",
		"provinceCode": "45",
		"list": [
		  {
			"areaCode": "451102",
			"cityCode": "4511",
			"code": "451102001",
			"name": "八步街道办事处",
			"provinceCode": "45"
		  },
		  {
			"areaCode": "451102",
			"cityCode": "4511",
			"code": "451102002",
			"name": "城东街道办事处",
			"provinceCode": "45"
		  },
		  {
			"areaCode": "451102",
			"cityCode": "4511",
			"code": "451102003",
			"name": "江南街道办事处",
			"provinceCode": "45"
		  },
		  {
			"areaCode": "451102",
			"cityCode": "4511",
			"code": "451102101",
			"name": "贺街镇",
			"provinceCode": "45"
		  },
		  {
			"areaCode": "451102",
			"cityCode": "4511",
			"code": "451102102",
			"name": "步头镇",
			"provinceCode": "45"
		  },
		  {
			"areaCode": "451102",
			"cityCode": "4511",
			"code": "451102103",
			"name": "莲塘镇",
			"provinceCode": "45"
		  },
		  {
			"areaCode": "451102",
			"cityCode": "4511",
			"code": "451102104",
			"name": "大宁镇",
			"provinceCode": "45"
		  },
		  {
			"areaCode": "451102",
			"cityCode": "4511",
			"code": "451102105",
			"name": "南乡镇",
			"provinceCode": "45"
		  },
		  {
			"areaCode": "451102",
			"cityCode": "4511",
			"code": "451102106",
			"name": "桂岭镇",
			"provinceCode": "45"
		  },
		  {
			"areaCode": "451102",
			"cityCode": "4511",
			"code": "451102107",
			"name": "开山镇",
			"provinceCode": "45"
		  },
		  {
			"areaCode": "451102",
			"cityCode": "4511",
			"code": "451102109",
			"name": "里松镇",
			"provinceCode": "45"
		  },
		  {
			"areaCode": "451102",
			"cityCode": "4511",
			"code": "451102114",
			"name": "信都镇",
			"provinceCode": "45"
		  },
		  {
			"areaCode": "451102",
			"cityCode": "4511",
			"code": "451102115",
			"name": "灵峰镇",
			"provinceCode": "45"
		  },
		  {
			"areaCode": "451102",
			"cityCode": "4511",
			"code": "451102116",
			"name": "仁义镇",
			"provinceCode": "45"
		  },
		  {
			"areaCode": "451102",
			"cityCode": "4511",
			"code": "451102117",
			"name": "铺门镇",
			"provinceCode": "45"
		  },
		  {
			"areaCode": "451102",
			"cityCode": "4511",
			"code": "451102200",
			"name": "黄洞瑶族乡",
			"provinceCode": "45"
		  }
		]
	  },
	  {
		"cityCode": "4511",
		"code": "451103",
		"name": "平桂区",
		"provinceCode": "45",
		"list": [
		  {
			"areaCode": "451103",
			"cityCode": "4511",
			"code": "451103001",
			"name": "西湾街道办事处",
			"provinceCode": "45"
		  },
		  {
			"areaCode": "451103",
			"cityCode": "4511",
			"code": "451103101",
			"name": "黄田镇",
			"provinceCode": "45"
		  },
		  {
			"areaCode": "451103",
			"cityCode": "4511",
			"code": "451103102",
			"name": "鹅塘镇",
			"provinceCode": "45"
		  },
		  {
			"areaCode": "451103",
			"cityCode": "4511",
			"code": "451103103",
			"name": "沙田镇",
			"provinceCode": "45"
		  },
		  {
			"areaCode": "451103",
			"cityCode": "4511",
			"code": "451103104",
			"name": "公会镇",
			"provinceCode": "45"
		  },
		  {
			"areaCode": "451103",
			"cityCode": "4511",
			"code": "451103105",
			"name": "水口镇",
			"provinceCode": "45"
		  },
		  {
			"areaCode": "451103",
			"cityCode": "4511",
			"code": "451103106",
			"name": "望高镇",
			"provinceCode": "45"
		  },
		  {
			"areaCode": "451103",
			"cityCode": "4511",
			"code": "451103107",
			"name": "羊头镇",
			"provinceCode": "45"
		  },
		  {
			"areaCode": "451103",
			"cityCode": "4511",
			"code": "451103201",
			"name": "大平瑶族乡",
			"provinceCode": "45"
		  }
		]
	  },
	  {
		"cityCode": "4511",
		"code": "451121",
		"name": "昭平县",
		"provinceCode": "45",
		"list": [
		  {
			"areaCode": "451121",
			"cityCode": "4511",
			"code": "451121100",
			"name": "昭平镇",
			"provinceCode": "45"
		  },
		  {
			"areaCode": "451121",
			"cityCode": "4511",
			"code": "451121101",
			"name": "文竹镇",
			"provinceCode": "45"
		  },
		  {
			"areaCode": "451121",
			"cityCode": "4511",
			"code": "451121102",
			"name": "黄姚镇",
			"provinceCode": "45"
		  },
		  {
			"areaCode": "451121",
			"cityCode": "4511",
			"code": "451121103",
			"name": "富罗镇",
			"provinceCode": "45"
		  },
		  {
			"areaCode": "451121",
			"cityCode": "4511",
			"code": "451121104",
			"name": "北陀镇",
			"provinceCode": "45"
		  },
		  {
			"areaCode": "451121",
			"cityCode": "4511",
			"code": "451121105",
			"name": "马江镇",
			"provinceCode": "45"
		  },
		  {
			"areaCode": "451121",
			"cityCode": "4511",
			"code": "451121107",
			"name": "五将镇",
			"provinceCode": "45"
		  },
		  {
			"areaCode": "451121",
			"cityCode": "4511",
			"code": "451121108",
			"name": "走马镇",
			"provinceCode": "45"
		  },
		  {
			"areaCode": "451121",
			"cityCode": "4511",
			"code": "451121109",
			"name": "樟木林镇",
			"provinceCode": "45"
		  },
		  {
			"areaCode": "451121",
			"cityCode": "4511",
			"code": "451121201",
			"name": "仙回瑶族乡",
			"provinceCode": "45"
		  },
		  {
			"areaCode": "451121",
			"cityCode": "4511",
			"code": "451121206",
			"name": "凤凰乡",
			"provinceCode": "45"
		  },
		  {
			"areaCode": "451121",
			"cityCode": "4511",
			"code": "451121208",
			"name": "木格乡",
			"provinceCode": "45"
		  }
		]
	  },
	  {
		"cityCode": "4511",
		"code": "451122",
		"name": "钟山县",
		"provinceCode": "45",
		"list": [
		  {
			"areaCode": "451122",
			"cityCode": "4511",
			"code": "451122100",
			"name": "钟山镇",
			"provinceCode": "45"
		  },
		  {
			"areaCode": "451122",
			"cityCode": "4511",
			"code": "451122104",
			"name": "回龙镇",
			"provinceCode": "45"
		  },
		  {
			"areaCode": "451122",
			"cityCode": "4511",
			"code": "451122105",
			"name": "石龙镇",
			"provinceCode": "45"
		  },
		  {
			"areaCode": "451122",
			"cityCode": "4511",
			"code": "451122106",
			"name": "凤翔镇",
			"provinceCode": "45"
		  },
		  {
			"areaCode": "451122",
			"cityCode": "4511",
			"code": "451122107",
			"name": "珊瑚镇",
			"provinceCode": "45"
		  },
		  {
			"areaCode": "451122",
			"cityCode": "4511",
			"code": "451122108",
			"name": "同古镇",
			"provinceCode": "45"
		  },
		  {
			"areaCode": "451122",
			"cityCode": "4511",
			"code": "451122109",
			"name": "公安镇",
			"provinceCode": "45"
		  },
		  {
			"areaCode": "451122",
			"cityCode": "4511",
			"code": "451122111",
			"name": "清塘镇",
			"provinceCode": "45"
		  },
		  {
			"areaCode": "451122",
			"cityCode": "4511",
			"code": "451122112",
			"name": "燕塘镇",
			"provinceCode": "45"
		  },
		  {
			"areaCode": "451122",
			"cityCode": "4511",
			"code": "451122113",
			"name": "红花镇",
			"provinceCode": "45"
		  },
		  {
			"areaCode": "451122",
			"cityCode": "4511",
			"code": "451122200",
			"name": "花山瑶族乡",
			"provinceCode": "45"
		  },
		  {
			"areaCode": "451122",
			"cityCode": "4511",
			"code": "451122201",
			"name": "两安瑶族乡",
			"provinceCode": "45"
		  }
		]
	  },
	  {
		"cityCode": "4511",
		"code": "451123",
		"name": "富川瑶族自治县",
		"provinceCode": "45",
		"list": [
		  {
			"areaCode": "451123",
			"cityCode": "4511",
			"code": "451123100",
			"name": "富阳镇",
			"provinceCode": "45"
		  },
		  {
			"areaCode": "451123",
			"cityCode": "4511",
			"code": "451123101",
			"name": "白沙镇",
			"provinceCode": "45"
		  },
		  {
			"areaCode": "451123",
			"cityCode": "4511",
			"code": "451123102",
			"name": "莲山镇",
			"provinceCode": "45"
		  },
		  {
			"areaCode": "451123",
			"cityCode": "4511",
			"code": "451123103",
			"name": "古城镇",
			"provinceCode": "45"
		  },
		  {
			"areaCode": "451123",
			"cityCode": "4511",
			"code": "451123104",
			"name": "福利镇",
			"provinceCode": "45"
		  },
		  {
			"areaCode": "451123",
			"cityCode": "4511",
			"code": "451123105",
			"name": "麦岭镇",
			"provinceCode": "45"
		  },
		  {
			"areaCode": "451123",
			"cityCode": "4511",
			"code": "451123106",
			"name": "葛坡镇",
			"provinceCode": "45"
		  },
		  {
			"areaCode": "451123",
			"cityCode": "4511",
			"code": "451123107",
			"name": "城北镇",
			"provinceCode": "45"
		  },
		  {
			"areaCode": "451123",
			"cityCode": "4511",
			"code": "451123108",
			"name": "朝东镇",
			"provinceCode": "45"
		  },
		  {
			"areaCode": "451123",
			"cityCode": "4511",
			"code": "451123200",
			"name": "新华乡",
			"provinceCode": "45"
		  },
		  {
			"areaCode": "451123",
			"cityCode": "4511",
			"code": "451123201",
			"name": "石家乡",
			"provinceCode": "45"
		  },
		  {
			"areaCode": "451123",
			"cityCode": "4511",
			"code": "451123203",
			"name": "柳家乡",
			"provinceCode": "45"
		  }
		]
	  }
	]
  },
  {
	"code": "4512",
	"name": "河池市",
	"provinceCode": "45",
	"list": [
	  {
		"cityCode": "4512",
		"code": "451202",
		"name": "金城江区",
		"provinceCode": "45",
		"list": [
		  {
			"areaCode": "451202",
			"cityCode": "4512",
			"code": "451202001",
			"name": "金城江街道办事处",
			"provinceCode": "45"
		  },
		  {
			"areaCode": "451202",
			"cityCode": "4512",
			"code": "451202101",
			"name": "东江镇",
			"provinceCode": "45"
		  },
		  {
			"areaCode": "451202",
			"cityCode": "4512",
			"code": "451202102",
			"name": "六圩镇",
			"provinceCode": "45"
		  },
		  {
			"areaCode": "451202",
			"cityCode": "4512",
			"code": "451202103",
			"name": "六甲镇",
			"provinceCode": "45"
		  },
		  {
			"areaCode": "451202",
			"cityCode": "4512",
			"code": "451202104",
			"name": "河池镇",
			"provinceCode": "45"
		  },
		  {
			"areaCode": "451202",
			"cityCode": "4512",
			"code": "451202105",
			"name": "拔贡镇",
			"provinceCode": "45"
		  },
		  {
			"areaCode": "451202",
			"cityCode": "4512",
			"code": "451202106",
			"name": "九圩镇",
			"provinceCode": "45"
		  },
		  {
			"areaCode": "451202",
			"cityCode": "4512",
			"code": "451202107",
			"name": "五圩镇",
			"provinceCode": "45"
		  },
		  {
			"areaCode": "451202",
			"cityCode": "4512",
			"code": "451202200",
			"name": "白土乡",
			"provinceCode": "45"
		  },
		  {
			"areaCode": "451202",
			"cityCode": "4512",
			"code": "451202203",
			"name": "侧岭乡",
			"provinceCode": "45"
		  },
		  {
			"areaCode": "451202",
			"cityCode": "4512",
			"code": "451202204",
			"name": "保平乡",
			"provinceCode": "45"
		  },
		  {
			"areaCode": "451202",
			"cityCode": "4512",
			"code": "451202205",
			"name": "长老乡",
			"provinceCode": "45"
		  }
		]
	  },
	  {
		"cityCode": "4512",
		"code": "451203",
		"name": "宜州区",
		"provinceCode": "45",
		"list": [
		  {
			"areaCode": "451203",
			"cityCode": "4512",
			"code": "451203100",
			"name": "庆远镇",
			"provinceCode": "45"
		  },
		  {
			"areaCode": "451203",
			"cityCode": "4512",
			"code": "451203101",
			"name": "三岔镇",
			"provinceCode": "45"
		  },
		  {
			"areaCode": "451203",
			"cityCode": "4512",
			"code": "451203102",
			"name": "洛西镇",
			"provinceCode": "45"
		  },
		  {
			"areaCode": "451203",
			"cityCode": "4512",
			"code": "451203103",
			"name": "怀远镇",
			"provinceCode": "45"
		  },
		  {
			"areaCode": "451203",
			"cityCode": "4512",
			"code": "451203104",
			"name": "德胜镇",
			"provinceCode": "45"
		  },
		  {
			"areaCode": "451203",
			"cityCode": "4512",
			"code": "451203105",
			"name": "石别镇",
			"provinceCode": "45"
		  },
		  {
			"areaCode": "451203",
			"cityCode": "4512",
			"code": "451203106",
			"name": "北山镇",
			"provinceCode": "45"
		  },
		  {
			"areaCode": "451203",
			"cityCode": "4512",
			"code": "451203107",
			"name": "刘三姐镇",
			"provinceCode": "45"
		  },
		  {
			"areaCode": "451203",
			"cityCode": "4512",
			"code": "451203108",
			"name": "洛东镇",
			"provinceCode": "45"
		  },
		  {
			"areaCode": "451203",
			"cityCode": "4512",
			"code": "451203200",
			"name": "祥贝乡",
			"provinceCode": "45"
		  },
		  {
			"areaCode": "451203",
			"cityCode": "4512",
			"code": "451203203",
			"name": "屏南乡",
			"provinceCode": "45"
		  },
		  {
			"areaCode": "451203",
			"cityCode": "4512",
			"code": "451203207",
			"name": "福龙瑶族乡",
			"provinceCode": "45"
		  },
		  {
			"areaCode": "451203",
			"cityCode": "4512",
			"code": "451203208",
			"name": "北牙瑶族乡",
			"provinceCode": "45"
		  },
		  {
			"areaCode": "451203",
			"cityCode": "4512",
			"code": "451203210",
			"name": "同德乡",
			"provinceCode": "45"
		  },
		  {
			"areaCode": "451203",
			"cityCode": "4512",
			"code": "451203211",
			"name": "安马乡",
			"provinceCode": "45"
		  },
		  {
			"areaCode": "451203",
			"cityCode": "4512",
			"code": "451203213",
			"name": "龙头乡",
			"provinceCode": "45"
		  }
		]
	  },
	  {
		"cityCode": "4512",
		"code": "451221",
		"name": "南丹县",
		"provinceCode": "45",
		"list": [
		  {
			"areaCode": "451221",
			"cityCode": "4512",
			"code": "451221100",
			"name": "城关镇",
			"provinceCode": "45"
		  },
		  {
			"areaCode": "451221",
			"cityCode": "4512",
			"code": "451221101",
			"name": "大厂镇",
			"provinceCode": "45"
		  },
		  {
			"areaCode": "451221",
			"cityCode": "4512",
			"code": "451221102",
			"name": "车河镇",
			"provinceCode": "45"
		  },
		  {
			"areaCode": "451221",
			"cityCode": "4512",
			"code": "451221103",
			"name": "芒场镇",
			"provinceCode": "45"
		  },
		  {
			"areaCode": "451221",
			"cityCode": "4512",
			"code": "451221104",
			"name": "六寨镇",
			"provinceCode": "45"
		  },
		  {
			"areaCode": "451221",
			"cityCode": "4512",
			"code": "451221105",
			"name": "月里镇",
			"provinceCode": "45"
		  },
		  {
			"areaCode": "451221",
			"cityCode": "4512",
			"code": "451221106",
			"name": "吾隘镇",
			"provinceCode": "45"
		  },
		  {
			"areaCode": "451221",
			"cityCode": "4512",
			"code": "451221107",
			"name": "罗富镇",
			"provinceCode": "45"
		  },
		  {
			"areaCode": "451221",
			"cityCode": "4512",
			"code": "451221202",
			"name": "中堡苗族乡",
			"provinceCode": "45"
		  },
		  {
			"areaCode": "451221",
			"cityCode": "4512",
			"code": "451221203",
			"name": "八圩瑶族乡",
			"provinceCode": "45"
		  },
		  {
			"areaCode": "451221",
			"cityCode": "4512",
			"code": "451221204",
			"name": "里湖瑶族乡",
			"provinceCode": "45"
		  }
		]
	  },
	  {
		"cityCode": "4512",
		"code": "451222",
		"name": "天峨县",
		"provinceCode": "45",
		"list": [
		  {
			"areaCode": "451222",
			"cityCode": "4512",
			"code": "451222100",
			"name": "六排镇",
			"provinceCode": "45"
		  },
		  {
			"areaCode": "451222",
			"cityCode": "4512",
			"code": "451222101",
			"name": "向阳镇",
			"provinceCode": "45"
		  },
		  {
			"areaCode": "451222",
			"cityCode": "4512",
			"code": "451222200",
			"name": "岜暮乡",
			"provinceCode": "45"
		  },
		  {
			"areaCode": "451222",
			"cityCode": "4512",
			"code": "451222201",
			"name": "八腊瑶族乡",
			"provinceCode": "45"
		  },
		  {
			"areaCode": "451222",
			"cityCode": "4512",
			"code": "451222203",
			"name": "纳直乡",
			"provinceCode": "45"
		  },
		  {
			"areaCode": "451222",
			"cityCode": "4512",
			"code": "451222204",
			"name": "更新乡",
			"provinceCode": "45"
		  },
		  {
			"areaCode": "451222",
			"cityCode": "4512",
			"code": "451222206",
			"name": "下老乡",
			"provinceCode": "45"
		  },
		  {
			"areaCode": "451222",
			"cityCode": "4512",
			"code": "451222207",
			"name": "坡结乡",
			"provinceCode": "45"
		  },
		  {
			"areaCode": "451222",
			"cityCode": "4512",
			"code": "451222208",
			"name": "三堡乡",
			"provinceCode": "45"
		  }
		]
	  },
	  {
		"cityCode": "4512",
		"code": "451223",
		"name": "凤山县",
		"provinceCode": "45",
		"list": [
		  {
			"areaCode": "451223",
			"cityCode": "4512",
			"code": "451223100",
			"name": "凤城镇",
			"provinceCode": "45"
		  },
		  {
			"areaCode": "451223",
			"cityCode": "4512",
			"code": "451223101",
			"name": "长洲镇",
			"provinceCode": "45"
		  },
		  {
			"areaCode": "451223",
			"cityCode": "4512",
			"code": "451223102",
			"name": "三门海镇",
			"provinceCode": "45"
		  },
		  {
			"areaCode": "451223",
			"cityCode": "4512",
			"code": "451223201",
			"name": "砦牙乡",
			"provinceCode": "45"
		  },
		  {
			"areaCode": "451223",
			"cityCode": "4512",
			"code": "451223203",
			"name": "乔音乡",
			"provinceCode": "45"
		  },
		  {
			"areaCode": "451223",
			"cityCode": "4512",
			"code": "451223205",
			"name": "金牙瑶族乡",
			"provinceCode": "45"
		  },
		  {
			"areaCode": "451223",
			"cityCode": "4512",
			"code": "451223207",
			"name": "中亭乡",
			"provinceCode": "45"
		  },
		  {
			"areaCode": "451223",
			"cityCode": "4512",
			"code": "451223208",
			"name": "平乐瑶族乡",
			"provinceCode": "45"
		  },
		  {
			"areaCode": "451223",
			"cityCode": "4512",
			"code": "451223209",
			"name": "江洲瑶族乡",
			"provinceCode": "45"
		  }
		]
	  },
	  {
		"cityCode": "4512",
		"code": "451224",
		"name": "东兰县",
		"provinceCode": "45",
		"list": [
		  {
			"areaCode": "451224",
			"cityCode": "4512",
			"code": "451224100",
			"name": "东兰镇",
			"provinceCode": "45"
		  },
		  {
			"areaCode": "451224",
			"cityCode": "4512",
			"code": "451224101",
			"name": "隘洞镇",
			"provinceCode": "45"
		  },
		  {
			"areaCode": "451224",
			"cityCode": "4512",
			"code": "451224102",
			"name": "长乐镇",
			"provinceCode": "45"
		  },
		  {
			"areaCode": "451224",
			"cityCode": "4512",
			"code": "451224103",
			"name": "三石镇",
			"provinceCode": "45"
		  },
		  {
			"areaCode": "451224",
			"cityCode": "4512",
			"code": "451224104",
			"name": "武篆镇",
			"provinceCode": "45"
		  },
		  {
			"areaCode": "451224",
			"cityCode": "4512",
			"code": "451224105",
			"name": "长江镇",
			"provinceCode": "45"
		  },
		  {
			"areaCode": "451224",
			"cityCode": "4512",
			"code": "451224200",
			"name": "泗孟乡",
			"provinceCode": "45"
		  },
		  {
			"areaCode": "451224",
			"cityCode": "4512",
			"code": "451224201",
			"name": "兰木乡",
			"provinceCode": "45"
		  },
		  {
			"areaCode": "451224",
			"cityCode": "4512",
			"code": "451224203",
			"name": "巴畴乡",
			"provinceCode": "45"
		  },
		  {
			"areaCode": "451224",
			"cityCode": "4512",
			"code": "451224204",
			"name": "金谷乡",
			"provinceCode": "45"
		  },
		  {
			"areaCode": "451224",
			"cityCode": "4512",
			"code": "451224205",
			"name": "三弄瑶族乡",
			"provinceCode": "45"
		  },
		  {
			"areaCode": "451224",
			"cityCode": "4512",
			"code": "451224206",
			"name": "大同乡",
			"provinceCode": "45"
		  },
		  {
			"areaCode": "451224",
			"cityCode": "4512",
			"code": "451224207",
			"name": "花香乡",
			"provinceCode": "45"
		  },
		  {
			"areaCode": "451224",
			"cityCode": "4512",
			"code": "451224208",
			"name": "切学乡",
			"provinceCode": "45"
		  }
		]
	  },
	  {
		"cityCode": "4512",
		"code": "451225",
		"name": "罗城仫佬族自治县",
		"provinceCode": "45",
		"list": [
		  {
			"areaCode": "451225",
			"cityCode": "4512",
			"code": "451225100",
			"name": "东门镇",
			"provinceCode": "45"
		  },
		  {
			"areaCode": "451225",
			"cityCode": "4512",
			"code": "451225101",
			"name": "龙岸镇",
			"provinceCode": "45"
		  },
		  {
			"areaCode": "451225",
			"cityCode": "4512",
			"code": "451225102",
			"name": "黄金镇",
			"provinceCode": "45"
		  },
		  {
			"areaCode": "451225",
			"cityCode": "4512",
			"code": "451225103",
			"name": "小长安镇",
			"provinceCode": "45"
		  },
		  {
			"areaCode": "451225",
			"cityCode": "4512",
			"code": "451225105",
			"name": "四把镇",
			"provinceCode": "45"
		  },
		  {
			"areaCode": "451225",
			"cityCode": "4512",
			"code": "451225106",
			"name": "天河镇",
			"provinceCode": "45"
		  },
		  {
			"areaCode": "451225",
			"cityCode": "4512",
			"code": "451225107",
			"name": "怀群镇",
			"provinceCode": "45"
		  },
		  {
			"areaCode": "451225",
			"cityCode": "4512",
			"code": "451225200",
			"name": "宝坛乡",
			"provinceCode": "45"
		  },
		  {
			"areaCode": "451225",
			"cityCode": "4512",
			"code": "451225202",
			"name": "乔善乡",
			"provinceCode": "45"
		  },
		  {
			"areaCode": "451225",
			"cityCode": "4512",
			"code": "451225203",
			"name": "纳翁乡",
			"provinceCode": "45"
		  },
		  {
			"areaCode": "451225",
			"cityCode": "4512",
			"code": "451225204",
			"name": "兼爱乡",
			"provinceCode": "45"
		  }
		]
	  },
	  {
		"cityCode": "4512",
		"code": "451226",
		"name": "环江毛南族自治县",
		"provinceCode": "45",
		"list": [
		  {
			"areaCode": "451226",
			"cityCode": "4512",
			"code": "451226100",
			"name": "思恩镇",
			"provinceCode": "45"
		  },
		  {
			"areaCode": "451226",
			"cityCode": "4512",
			"code": "451226101",
			"name": "水源镇",
			"provinceCode": "45"
		  },
		  {
			"areaCode": "451226",
			"cityCode": "4512",
			"code": "451226102",
			"name": "洛阳镇",
			"provinceCode": "45"
		  },
		  {
			"areaCode": "451226",
			"cityCode": "4512",
			"code": "451226103",
			"name": "川山镇",
			"provinceCode": "45"
		  },
		  {
			"areaCode": "451226",
			"cityCode": "4512",
			"code": "451226104",
			"name": "明伦镇",
			"provinceCode": "45"
		  },
		  {
			"areaCode": "451226",
			"cityCode": "4512",
			"code": "451226105",
			"name": "东兴镇",
			"provinceCode": "45"
		  },
		  {
			"areaCode": "451226",
			"cityCode": "4512",
			"code": "451226200",
			"name": "大才乡",
			"provinceCode": "45"
		  },
		  {
			"areaCode": "451226",
			"cityCode": "4512",
			"code": "451226202",
			"name": "下南乡",
			"provinceCode": "45"
		  },
		  {
			"areaCode": "451226",
			"cityCode": "4512",
			"code": "451226204",
			"name": "大安乡",
			"provinceCode": "45"
		  },
		  {
			"areaCode": "451226",
			"cityCode": "4512",
			"code": "451226205",
			"name": "长美乡",
			"provinceCode": "45"
		  },
		  {
			"areaCode": "451226",
			"cityCode": "4512",
			"code": "451226206",
			"name": "龙岩乡",
			"provinceCode": "45"
		  },
		  {
			"areaCode": "451226",
			"cityCode": "4512",
			"code": "451226207",
			"name": "驯乐苗族乡",
			"provinceCode": "45"
		  }
		]
	  },
	  {
		"cityCode": "4512",
		"code": "451227",
		"name": "巴马瑶族自治县",
		"provinceCode": "45",
		"list": [
		  {
			"areaCode": "451227",
			"cityCode": "4512",
			"code": "451227100",
			"name": "巴马镇",
			"provinceCode": "45"
		  },
		  {
			"areaCode": "451227",
			"cityCode": "4512",
			"code": "451227101",
			"name": "甲篆镇",
			"provinceCode": "45"
		  },
		  {
			"areaCode": "451227",
			"cityCode": "4512",
			"code": "451227102",
			"name": "燕洞镇",
			"provinceCode": "45"
		  },
		  {
			"areaCode": "451227",
			"cityCode": "4512",
			"code": "451227202",
			"name": "那社乡",
			"provinceCode": "45"
		  },
		  {
			"areaCode": "451227",
			"cityCode": "4512",
			"code": "451227203",
			"name": "所略乡",
			"provinceCode": "45"
		  },
		  {
			"areaCode": "451227",
			"cityCode": "4512",
			"code": "451227205",
			"name": "西山乡",
			"provinceCode": "45"
		  },
		  {
			"areaCode": "451227",
			"cityCode": "4512",
			"code": "451227207",
			"name": "东山乡",
			"provinceCode": "45"
		  },
		  {
			"areaCode": "451227",
			"cityCode": "4512",
			"code": "451227208",
			"name": "凤凰乡",
			"provinceCode": "45"
		  },
		  {
			"areaCode": "451227",
			"cityCode": "4512",
			"code": "451227209",
			"name": "百林乡",
			"provinceCode": "45"
		  },
		  {
			"areaCode": "451227",
			"cityCode": "4512",
			"code": "451227210",
			"name": "那桃乡",
			"provinceCode": "45"
		  }
		]
	  },
	  {
		"cityCode": "4512",
		"code": "451228",
		"name": "都安瑶族自治县",
		"provinceCode": "45",
		"list": [
		  {
			"areaCode": "451228",
			"cityCode": "4512",
			"code": "451228100",
			"name": "安阳镇",
			"provinceCode": "45"
		  },
		  {
			"areaCode": "451228",
			"cityCode": "4512",
			"code": "451228101",
			"name": "高岭镇",
			"provinceCode": "45"
		  },
		  {
			"areaCode": "451228",
			"cityCode": "4512",
			"code": "451228102",
			"name": "地苏镇",
			"provinceCode": "45"
		  },
		  {
			"areaCode": "451228",
			"cityCode": "4512",
			"code": "451228103",
			"name": "下坳镇",
			"provinceCode": "45"
		  },
		  {
			"areaCode": "451228",
			"cityCode": "4512",
			"code": "451228104",
			"name": "拉烈镇",
			"provinceCode": "45"
		  },
		  {
			"areaCode": "451228",
			"cityCode": "4512",
			"code": "451228105",
			"name": "百旺镇",
			"provinceCode": "45"
		  },
		  {
			"areaCode": "451228",
			"cityCode": "4512",
			"code": "451228106",
			"name": "澄江镇",
			"provinceCode": "45"
		  },
		  {
			"areaCode": "451228",
			"cityCode": "4512",
			"code": "451228107",
			"name": "大兴镇",
			"provinceCode": "45"
		  },
		  {
			"areaCode": "451228",
			"cityCode": "4512",
			"code": "451228108",
			"name": "拉仁镇",
			"provinceCode": "45"
		  },
		  {
			"areaCode": "451228",
			"cityCode": "4512",
			"code": "451228109",
			"name": "永安镇",
			"provinceCode": "45"
		  },
		  {
			"areaCode": "451228",
			"cityCode": "4512",
			"code": "451228204",
			"name": "东庙乡",
			"provinceCode": "45"
		  },
		  {
			"areaCode": "451228",
			"cityCode": "4512",
			"code": "451228208",
			"name": "隆福乡",
			"provinceCode": "45"
		  },
		  {
			"areaCode": "451228",
			"cityCode": "4512",
			"code": "451228209",
			"name": "保安乡",
			"provinceCode": "45"
		  },
		  {
			"areaCode": "451228",
			"cityCode": "4512",
			"code": "451228210",
			"name": "板岭乡",
			"provinceCode": "45"
		  },
		  {
			"areaCode": "451228",
			"cityCode": "4512",
			"code": "451228212",
			"name": "三只羊乡",
			"provinceCode": "45"
		  },
		  {
			"areaCode": "451228",
			"cityCode": "4512",
			"code": "451228213",
			"name": "龙湾乡",
			"provinceCode": "45"
		  },
		  {
			"areaCode": "451228",
			"cityCode": "4512",
			"code": "451228214",
			"name": "菁盛乡",
			"provinceCode": "45"
		  },
		  {
			"areaCode": "451228",
			"cityCode": "4512",
			"code": "451228217",
			"name": "加贵乡",
			"provinceCode": "45"
		  },
		  {
			"areaCode": "451228",
			"cityCode": "4512",
			"code": "451228219",
			"name": "九渡乡",
			"provinceCode": "45"
		  }
		]
	  },
	  {
		"cityCode": "4512",
		"code": "451229",
		"name": "大化瑶族自治县",
		"provinceCode": "45",
		"list": [
		  {
			"areaCode": "451229",
			"cityCode": "4512",
			"code": "451229100",
			"name": "大化镇",
			"provinceCode": "45"
		  },
		  {
			"areaCode": "451229",
			"cityCode": "4512",
			"code": "451229101",
			"name": "都阳镇",
			"provinceCode": "45"
		  },
		  {
			"areaCode": "451229",
			"cityCode": "4512",
			"code": "451229102",
			"name": "岩滩镇",
			"provinceCode": "45"
		  },
		  {
			"areaCode": "451229",
			"cityCode": "4512",
			"code": "451229103",
			"name": "北景镇",
			"provinceCode": "45"
		  },
		  {
			"areaCode": "451229",
			"cityCode": "4512",
			"code": "451229200",
			"name": "共和乡",
			"provinceCode": "45"
		  },
		  {
			"areaCode": "451229",
			"cityCode": "4512",
			"code": "451229201",
			"name": "贡川乡",
			"provinceCode": "45"
		  },
		  {
			"areaCode": "451229",
			"cityCode": "4512",
			"code": "451229202",
			"name": "百马乡",
			"provinceCode": "45"
		  },
		  {
			"areaCode": "451229",
			"cityCode": "4512",
			"code": "451229203",
			"name": "古河乡",
			"provinceCode": "45"
		  },
		  {
			"areaCode": "451229",
			"cityCode": "4512",
			"code": "451229204",
			"name": "古文乡",
			"provinceCode": "45"
		  },
		  {
			"areaCode": "451229",
			"cityCode": "4512",
			"code": "451229205",
			"name": "江南乡",
			"provinceCode": "45"
		  },
		  {
			"areaCode": "451229",
			"cityCode": "4512",
			"code": "451229206",
			"name": "羌圩乡",
			"provinceCode": "45"
		  },
		  {
			"areaCode": "451229",
			"cityCode": "4512",
			"code": "451229207",
			"name": "乙圩乡",
			"provinceCode": "45"
		  },
		  {
			"areaCode": "451229",
			"cityCode": "4512",
			"code": "451229210",
			"name": "板升乡",
			"provinceCode": "45"
		  },
		  {
			"areaCode": "451229",
			"cityCode": "4512",
			"code": "451229211",
			"name": "七百弄乡",
			"provinceCode": "45"
		  },
		  {
			"areaCode": "451229",
			"cityCode": "4512",
			"code": "451229213",
			"name": "雅龙乡",
			"provinceCode": "45"
		  },
		  {
			"areaCode": "451229",
			"cityCode": "4512",
			"code": "451229214",
			"name": "六也乡",
			"provinceCode": "45"
		  }
		]
	  }
	]
  },
  {
	"code": "4513",
	"name": "来宾市",
	"provinceCode": "45",
	"list": [
	  {
		"cityCode": "4513",
		"code": "451302",
		"name": "兴宾区",
		"provinceCode": "45",
		"list": [
		  {
			"areaCode": "451302",
			"cityCode": "4513",
			"code": "451302001",
			"name": "城东街道办事处",
			"provinceCode": "45"
		  },
		  {
			"areaCode": "451302",
			"cityCode": "4513",
			"code": "451302002",
			"name": "城北街道办事处",
			"provinceCode": "45"
		  },
		  {
			"areaCode": "451302",
			"cityCode": "4513",
			"code": "451302003",
			"name": "河西街道办事处",
			"provinceCode": "45"
		  },
		  {
			"areaCode": "451302",
			"cityCode": "4513",
			"code": "451302005",
			"name": "来华街道办事处",
			"provinceCode": "45"
		  },
		  {
			"areaCode": "451302",
			"cityCode": "4513",
			"code": "451302101",
			"name": "凤凰镇",
			"provinceCode": "45"
		  },
		  {
			"areaCode": "451302",
			"cityCode": "4513",
			"code": "451302102",
			"name": "良江镇",
			"provinceCode": "45"
		  },
		  {
			"areaCode": "451302",
			"cityCode": "4513",
			"code": "451302103",
			"name": "小平阳镇",
			"provinceCode": "45"
		  },
		  {
			"areaCode": "451302",
			"cityCode": "4513",
			"code": "451302104",
			"name": "迁江镇",
			"provinceCode": "45"
		  },
		  {
			"areaCode": "451302",
			"cityCode": "4513",
			"code": "451302105",
			"name": "石陵镇",
			"provinceCode": "45"
		  },
		  {
			"areaCode": "451302",
			"cityCode": "4513",
			"code": "451302106",
			"name": "平阳镇",
			"provinceCode": "45"
		  },
		  {
			"areaCode": "451302",
			"cityCode": "4513",
			"code": "451302107",
			"name": "蒙村镇",
			"provinceCode": "45"
		  },
		  {
			"areaCode": "451302",
			"cityCode": "4513",
			"code": "451302108",
			"name": "大湾镇",
			"provinceCode": "45"
		  },
		  {
			"areaCode": "451302",
			"cityCode": "4513",
			"code": "451302109",
			"name": "桥巩镇",
			"provinceCode": "45"
		  },
		  {
			"areaCode": "451302",
			"cityCode": "4513",
			"code": "451302110",
			"name": "寺山镇",
			"provinceCode": "45"
		  },
		  {
			"areaCode": "451302",
			"cityCode": "4513",
			"code": "451302111",
			"name": "城厢镇",
			"provinceCode": "45"
		  },
		  {
			"areaCode": "451302",
			"cityCode": "4513",
			"code": "451302112",
			"name": "三五镇",
			"provinceCode": "45"
		  },
		  {
			"areaCode": "451302",
			"cityCode": "4513",
			"code": "451302113",
			"name": "陶邓镇",
			"provinceCode": "45"
		  },
		  {
			"areaCode": "451302",
			"cityCode": "4513",
			"code": "451302114",
			"name": "石牙镇",
			"provinceCode": "45"
		  },
		  {
			"areaCode": "451302",
			"cityCode": "4513",
			"code": "451302202",
			"name": "五山乡",
			"provinceCode": "45"
		  },
		  {
			"areaCode": "451302",
			"cityCode": "4513",
			"code": "451302205",
			"name": "良塘乡",
			"provinceCode": "45"
		  },
		  {
			"areaCode": "451302",
			"cityCode": "4513",
			"code": "451302206",
			"name": "七洞乡",
			"provinceCode": "45"
		  },
		  {
			"areaCode": "451302",
			"cityCode": "4513",
			"code": "451302213",
			"name": "南泗乡",
			"provinceCode": "45"
		  },
		  {
			"areaCode": "451302",
			"cityCode": "4513",
			"code": "451302214",
			"name": "高安乡",
			"provinceCode": "45"
		  },
		  {
			"areaCode": "451302",
			"cityCode": "4513",
			"code": "451302216",
			"name": "正龙乡",
			"provinceCode": "45"
		  },
		  {
			"areaCode": "451302",
			"cityCode": "4513",
			"code": "451302402",
			"name": "来华投资区",
			"provinceCode": "45"
		  }
		]
	  },
	  {
		"cityCode": "4513",
		"code": "451321",
		"name": "忻城县",
		"provinceCode": "45",
		"list": [
		  {
			"areaCode": "451321",
			"cityCode": "4513",
			"code": "451321100",
			"name": "城关镇",
			"provinceCode": "45"
		  },
		  {
			"areaCode": "451321",
			"cityCode": "4513",
			"code": "451321101",
			"name": "大塘镇",
			"provinceCode": "45"
		  },
		  {
			"areaCode": "451321",
			"cityCode": "4513",
			"code": "451321102",
			"name": "思练镇",
			"provinceCode": "45"
		  },
		  {
			"areaCode": "451321",
			"cityCode": "4513",
			"code": "451321103",
			"name": "红渡镇",
			"provinceCode": "45"
		  },
		  {
			"areaCode": "451321",
			"cityCode": "4513",
			"code": "451321104",
			"name": "古蓬镇",
			"provinceCode": "45"
		  },
		  {
			"areaCode": "451321",
			"cityCode": "4513",
			"code": "451321105",
			"name": "果遂镇",
			"provinceCode": "45"
		  },
		  {
			"areaCode": "451321",
			"cityCode": "4513",
			"code": "451321201",
			"name": "马泗乡",
			"provinceCode": "45"
		  },
		  {
			"areaCode": "451321",
			"cityCode": "4513",
			"code": "451321202",
			"name": "欧洞乡",
			"provinceCode": "45"
		  },
		  {
			"areaCode": "451321",
			"cityCode": "4513",
			"code": "451321203",
			"name": "安东乡",
			"provinceCode": "45"
		  },
		  {
			"areaCode": "451321",
			"cityCode": "4513",
			"code": "451321205",
			"name": "新圩乡",
			"provinceCode": "45"
		  },
		  {
			"areaCode": "451321",
			"cityCode": "4513",
			"code": "451321206",
			"name": "遂意乡",
			"provinceCode": "45"
		  },
		  {
			"areaCode": "451321",
			"cityCode": "4513",
			"code": "451321207",
			"name": "北更乡",
			"provinceCode": "45"
		  }
		]
	  },
	  {
		"cityCode": "4513",
		"code": "451322",
		"name": "象州县",
		"provinceCode": "45",
		"list": [
		  {
			"areaCode": "451322",
			"cityCode": "4513",
			"code": "451322100",
			"name": "象州镇",
			"provinceCode": "45"
		  },
		  {
			"areaCode": "451322",
			"cityCode": "4513",
			"code": "451322101",
			"name": "石龙镇",
			"provinceCode": "45"
		  },
		  {
			"areaCode": "451322",
			"cityCode": "4513",
			"code": "451322102",
			"name": "运江镇",
			"provinceCode": "45"
		  },
		  {
			"areaCode": "451322",
			"cityCode": "4513",
			"code": "451322103",
			"name": "寺村镇",
			"provinceCode": "45"
		  },
		  {
			"areaCode": "451322",
			"cityCode": "4513",
			"code": "451322104",
			"name": "中平镇",
			"provinceCode": "45"
		  },
		  {
			"areaCode": "451322",
			"cityCode": "4513",
			"code": "451322105",
			"name": "罗秀镇",
			"provinceCode": "45"
		  },
		  {
			"areaCode": "451322",
			"cityCode": "4513",
			"code": "451322106",
			"name": "大乐镇",
			"provinceCode": "45"
		  },
		  {
			"areaCode": "451322",
			"cityCode": "4513",
			"code": "451322107",
			"name": "马坪镇",
			"provinceCode": "45"
		  },
		  {
			"areaCode": "451322",
			"cityCode": "4513",
			"code": "451322201",
			"name": "妙皇乡",
			"provinceCode": "45"
		  },
		  {
			"areaCode": "451322",
			"cityCode": "4513",
			"code": "451322202",
			"name": "百丈乡",
			"provinceCode": "45"
		  },
		  {
			"areaCode": "451322",
			"cityCode": "4513",
			"code": "451322203",
			"name": "水晶乡",
			"provinceCode": "45"
		  }
		]
	  },
	  {
		"cityCode": "4513",
		"code": "451323",
		"name": "武宣县",
		"provinceCode": "45",
		"list": [
		  {
			"areaCode": "451323",
			"cityCode": "4513",
			"code": "451323100",
			"name": "武宣镇",
			"provinceCode": "45"
		  },
		  {
			"areaCode": "451323",
			"cityCode": "4513",
			"code": "451323101",
			"name": "桐岭镇",
			"provinceCode": "45"
		  },
		  {
			"areaCode": "451323",
			"cityCode": "4513",
			"code": "451323102",
			"name": "通挽镇",
			"provinceCode": "45"
		  },
		  {
			"areaCode": "451323",
			"cityCode": "4513",
			"code": "451323103",
			"name": "东乡镇",
			"provinceCode": "45"
		  },
		  {
			"areaCode": "451323",
			"cityCode": "4513",
			"code": "451323104",
			"name": "三里镇",
			"provinceCode": "45"
		  },
		  {
			"areaCode": "451323",
			"cityCode": "4513",
			"code": "451323105",
			"name": "二塘镇",
			"provinceCode": "45"
		  },
		  {
			"areaCode": "451323",
			"cityCode": "4513",
			"code": "451323106",
			"name": "黄茆镇",
			"provinceCode": "45"
		  },
		  {
			"areaCode": "451323",
			"cityCode": "4513",
			"code": "451323107",
			"name": "禄新镇",
			"provinceCode": "45"
		  },
		  {
			"areaCode": "451323",
			"cityCode": "4513",
			"code": "451323108",
			"name": "思灵镇",
			"provinceCode": "45"
		  },
		  {
			"areaCode": "451323",
			"cityCode": "4513",
			"code": "451323204",
			"name": "金鸡乡",
			"provinceCode": "45"
		  },
		  {
			"areaCode": "451323",
			"cityCode": "4513",
			"code": "451323401",
			"name": "黔江农场",
			"provinceCode": "45"
		  }
		]
	  },
	  {
		"cityCode": "4513",
		"code": "451324",
		"name": "金秀瑶族自治县",
		"provinceCode": "45",
		"list": [
		  {
			"areaCode": "451324",
			"cityCode": "4513",
			"code": "451324100",
			"name": "金秀镇",
			"provinceCode": "45"
		  },
		  {
			"areaCode": "451324",
			"cityCode": "4513",
			"code": "451324101",
			"name": "桐木镇",
			"provinceCode": "45"
		  },
		  {
			"areaCode": "451324",
			"cityCode": "4513",
			"code": "451324102",
			"name": "头排镇",
			"provinceCode": "45"
		  },
		  {
			"areaCode": "451324",
			"cityCode": "4513",
			"code": "451324200",
			"name": "三角乡",
			"provinceCode": "45"
		  },
		  {
			"areaCode": "451324",
			"cityCode": "4513",
			"code": "451324201",
			"name": "忠良乡",
			"provinceCode": "45"
		  },
		  {
			"areaCode": "451324",
			"cityCode": "4513",
			"code": "451324202",
			"name": "罗香乡",
			"provinceCode": "45"
		  },
		  {
			"areaCode": "451324",
			"cityCode": "4513",
			"code": "451324203",
			"name": "长垌乡",
			"provinceCode": "45"
		  },
		  {
			"areaCode": "451324",
			"cityCode": "4513",
			"code": "451324204",
			"name": "大樟乡",
			"provinceCode": "45"
		  },
		  {
			"areaCode": "451324",
			"cityCode": "4513",
			"code": "451324205",
			"name": "六巷乡",
			"provinceCode": "45"
		  },
		  {
			"areaCode": "451324",
			"cityCode": "4513",
			"code": "451324207",
			"name": "三江乡",
			"provinceCode": "45"
		  }
		]
	  },
	  {
		"cityCode": "4513",
		"code": "451381",
		"name": "合山市",
		"provinceCode": "45",
		"list": [
		  {
			"areaCode": "451381",
			"cityCode": "4513",
			"code": "451381100",
			"name": "岭南镇",
			"provinceCode": "45"
		  },
		  {
			"areaCode": "451381",
			"cityCode": "4513",
			"code": "451381101",
			"name": "北泗镇",
			"provinceCode": "45"
		  },
		  {
			"areaCode": "451381",
			"cityCode": "4513",
			"code": "451381102",
			"name": "河里镇",
			"provinceCode": "45"
		  }
		]
	  }
	]
  },
  {
	"code": "4514",
	"name": "崇左市",
	"provinceCode": "45",
	"list": [
	  {
		"cityCode": "4514",
		"code": "451402",
		"name": "江州区",
		"provinceCode": "45",
		"list": [
		  {
			"areaCode": "451402",
			"cityCode": "4514",
			"code": "451402001",
			"name": "太平街道办事处",
			"provinceCode": "45"
		  },
		  {
			"areaCode": "451402",
			"cityCode": "4514",
			"code": "451402002",
			"name": "江南街道办事处",
			"provinceCode": "45"
		  },
		  {
			"areaCode": "451402",
			"cityCode": "4514",
			"code": "451402003",
			"name": "石景林街道办事处",
			"provinceCode": "45"
		  },
		  {
			"areaCode": "451402",
			"cityCode": "4514",
			"code": "451402101",
			"name": "新和镇",
			"provinceCode": "45"
		  },
		  {
			"areaCode": "451402",
			"cityCode": "4514",
			"code": "451402102",
			"name": "濑湍镇",
			"provinceCode": "45"
		  },
		  {
			"areaCode": "451402",
			"cityCode": "4514",
			"code": "451402103",
			"name": "江州镇",
			"provinceCode": "45"
		  },
		  {
			"areaCode": "451402",
			"cityCode": "4514",
			"code": "451402104",
			"name": "左州镇",
			"provinceCode": "45"
		  },
		  {
			"areaCode": "451402",
			"cityCode": "4514",
			"code": "451402105",
			"name": "那隆镇",
			"provinceCode": "45"
		  },
		  {
			"areaCode": "451402",
			"cityCode": "4514",
			"code": "451402106",
			"name": "驮卢镇",
			"provinceCode": "45"
		  },
		  {
			"areaCode": "451402",
			"cityCode": "4514",
			"code": "451402201",
			"name": "罗白乡",
			"provinceCode": "45"
		  },
		  {
			"areaCode": "451402",
			"cityCode": "4514",
			"code": "451402202",
			"name": "板利乡",
			"provinceCode": "45"
		  },
		  {
			"areaCode": "451402",
			"cityCode": "4514",
			"code": "451402400",
			"name": "新和华侨农场",
			"provinceCode": "45"
		  },
		  {
			"areaCode": "451402",
			"cityCode": "4514",
			"code": "451402401",
			"name": "左江华侨农场",
			"provinceCode": "45"
		  },
		  {
			"areaCode": "451402",
			"cityCode": "4514",
			"code": "451402402",
			"name": "中泰产业园",
			"provinceCode": "45"
		  }
		]
	  },
	  {
		"cityCode": "4514",
		"code": "451421",
		"name": "扶绥县",
		"provinceCode": "45",
		"list": [
		  {
			"areaCode": "451421",
			"cityCode": "4514",
			"code": "451421100",
			"name": "新宁镇",
			"provinceCode": "45"
		  },
		  {
			"areaCode": "451421",
			"cityCode": "4514",
			"code": "451421101",
			"name": "渠黎镇",
			"provinceCode": "45"
		  },
		  {
			"areaCode": "451421",
			"cityCode": "4514",
			"code": "451421102",
			"name": "渠旧镇",
			"provinceCode": "45"
		  },
		  {
			"areaCode": "451421",
			"cityCode": "4514",
			"code": "451421103",
			"name": "柳桥镇",
			"provinceCode": "45"
		  },
		  {
			"areaCode": "451421",
			"cityCode": "4514",
			"code": "451421104",
			"name": "东门镇",
			"provinceCode": "45"
		  },
		  {
			"areaCode": "451421",
			"cityCode": "4514",
			"code": "451421105",
			"name": "山圩镇",
			"provinceCode": "45"
		  },
		  {
			"areaCode": "451421",
			"cityCode": "4514",
			"code": "451421106",
			"name": "中东镇",
			"provinceCode": "45"
		  },
		  {
			"areaCode": "451421",
			"cityCode": "4514",
			"code": "451421107",
			"name": "东罗镇",
			"provinceCode": "45"
		  },
		  {
			"areaCode": "451421",
			"cityCode": "4514",
			"code": "451421201",
			"name": "龙头乡",
			"provinceCode": "45"
		  },
		  {
			"areaCode": "451421",
			"cityCode": "4514",
			"code": "451421202",
			"name": "岜盆乡",
			"provinceCode": "45"
		  },
		  {
			"areaCode": "451421",
			"cityCode": "4514",
			"code": "451421203",
			"name": "昌平乡",
			"provinceCode": "45"
		  }
		]
	  },
	  {
		"cityCode": "4514",
		"code": "451422",
		"name": "宁明县",
		"provinceCode": "45",
		"list": [
		  {
			"areaCode": "451422",
			"cityCode": "4514",
			"code": "451422100",
			"name": "城中镇",
			"provinceCode": "45"
		  },
		  {
			"areaCode": "451422",
			"cityCode": "4514",
			"code": "451422101",
			"name": "爱店镇",
			"provinceCode": "45"
		  },
		  {
			"areaCode": "451422",
			"cityCode": "4514",
			"code": "451422102",
			"name": "明江镇",
			"provinceCode": "45"
		  },
		  {
			"areaCode": "451422",
			"cityCode": "4514",
			"code": "451422103",
			"name": "海渊镇",
			"provinceCode": "45"
		  },
		  {
			"areaCode": "451422",
			"cityCode": "4514",
			"code": "451422104",
			"name": "桐棉镇",
			"provinceCode": "45"
		  },
		  {
			"areaCode": "451422",
			"cityCode": "4514",
			"code": "451422105",
			"name": "那堪镇",
			"provinceCode": "45"
		  },
		  {
			"areaCode": "451422",
			"cityCode": "4514",
			"code": "451422106",
			"name": "亭亮镇",
			"provinceCode": "45"
		  },
		  {
			"areaCode": "451422",
			"cityCode": "4514",
			"code": "451422202",
			"name": "寨安乡",
			"provinceCode": "45"
		  },
		  {
			"areaCode": "451422",
			"cityCode": "4514",
			"code": "451422203",
			"name": "峙浪乡",
			"provinceCode": "45"
		  },
		  {
			"areaCode": "451422",
			"cityCode": "4514",
			"code": "451422204",
			"name": "东安乡",
			"provinceCode": "45"
		  },
		  {
			"areaCode": "451422",
			"cityCode": "4514",
			"code": "451422205",
			"name": "板棍乡",
			"provinceCode": "45"
		  },
		  {
			"areaCode": "451422",
			"cityCode": "4514",
			"code": "451422206",
			"name": "北江乡",
			"provinceCode": "45"
		  },
		  {
			"areaCode": "451422",
			"cityCode": "4514",
			"code": "451422209",
			"name": "那楠乡",
			"provinceCode": "45"
		  },
		  {
			"areaCode": "451422",
			"cityCode": "4514",
			"code": "451422401",
			"name": "国营宁明华侨农场",
			"provinceCode": "45"
		  },
		  {
			"areaCode": "451422",
			"cityCode": "4514",
			"code": "451422402",
			"name": "国营天西华侨农场",
			"provinceCode": "45"
		  }
		]
	  },
	  {
		"cityCode": "4514",
		"code": "451423",
		"name": "龙州县",
		"provinceCode": "45",
		"list": [
		  {
			"areaCode": "451423",
			"cityCode": "4514",
			"code": "451423100",
			"name": "龙州镇",
			"provinceCode": "45"
		  },
		  {
			"areaCode": "451423",
			"cityCode": "4514",
			"code": "451423101",
			"name": "下冻镇",
			"provinceCode": "45"
		  },
		  {
			"areaCode": "451423",
			"cityCode": "4514",
			"code": "451423102",
			"name": "水口镇",
			"provinceCode": "45"
		  },
		  {
			"areaCode": "451423",
			"cityCode": "4514",
			"code": "451423103",
			"name": "金龙镇",
			"provinceCode": "45"
		  },
		  {
			"areaCode": "451423",
			"cityCode": "4514",
			"code": "451423104",
			"name": "响水镇",
			"provinceCode": "45"
		  },
		  {
			"areaCode": "451423",
			"cityCode": "4514",
			"code": "451423201",
			"name": "八角乡",
			"provinceCode": "45"
		  },
		  {
			"areaCode": "451423",
			"cityCode": "4514",
			"code": "451423202",
			"name": "上降乡",
			"provinceCode": "45"
		  },
		  {
			"areaCode": "451423",
			"cityCode": "4514",
			"code": "451423203",
			"name": "彬桥乡",
			"provinceCode": "45"
		  },
		  {
			"areaCode": "451423",
			"cityCode": "4514",
			"code": "451423204",
			"name": "上龙乡",
			"provinceCode": "45"
		  },
		  {
			"areaCode": "451423",
			"cityCode": "4514",
			"code": "451423205",
			"name": "武德乡",
			"provinceCode": "45"
		  },
		  {
			"areaCode": "451423",
			"cityCode": "4514",
			"code": "451423206",
			"name": "逐卜乡",
			"provinceCode": "45"
		  },
		  {
			"areaCode": "451423",
			"cityCode": "4514",
			"code": "451423207",
			"name": "上金乡",
			"provinceCode": "45"
		  }
		]
	  },
	  {
		"cityCode": "4514",
		"code": "451424",
		"name": "大新县",
		"provinceCode": "45",
		"list": [
		  {
			"areaCode": "451424",
			"cityCode": "4514",
			"code": "451424100",
			"name": "桃城镇",
			"provinceCode": "45"
		  },
		  {
			"areaCode": "451424",
			"cityCode": "4514",
			"code": "451424101",
			"name": "全茗镇",
			"provinceCode": "45"
		  },
		  {
			"areaCode": "451424",
			"cityCode": "4514",
			"code": "451424102",
			"name": "雷平镇",
			"provinceCode": "45"
		  },
		  {
			"areaCode": "451424",
			"cityCode": "4514",
			"code": "451424103",
			"name": "硕龙镇",
			"provinceCode": "45"
		  },
		  {
			"areaCode": "451424",
			"cityCode": "4514",
			"code": "451424104",
			"name": "下雷镇",
			"provinceCode": "45"
		  },
		  {
			"areaCode": "451424",
			"cityCode": "4514",
			"code": "451424200",
			"name": "五山乡",
			"provinceCode": "45"
		  },
		  {
			"areaCode": "451424",
			"cityCode": "4514",
			"code": "451424201",
			"name": "龙门乡",
			"provinceCode": "45"
		  },
		  {
			"areaCode": "451424",
			"cityCode": "4514",
			"code": "451424202",
			"name": "昌明乡",
			"provinceCode": "45"
		  },
		  {
			"areaCode": "451424",
			"cityCode": "4514",
			"code": "451424203",
			"name": "福隆乡",
			"provinceCode": "45"
		  },
		  {
			"areaCode": "451424",
			"cityCode": "4514",
			"code": "451424204",
			"name": "那岭乡",
			"provinceCode": "45"
		  },
		  {
			"areaCode": "451424",
			"cityCode": "4514",
			"code": "451424205",
			"name": "恩城乡",
			"provinceCode": "45"
		  },
		  {
			"areaCode": "451424",
			"cityCode": "4514",
			"code": "451424206",
			"name": "榄圩乡",
			"provinceCode": "45"
		  },
		  {
			"areaCode": "451424",
			"cityCode": "4514",
			"code": "451424207",
			"name": "宝圩乡",
			"provinceCode": "45"
		  },
		  {
			"areaCode": "451424",
			"cityCode": "4514",
			"code": "451424208",
			"name": "堪圩乡",
			"provinceCode": "45"
		  },
		  {
			"areaCode": "451424",
			"cityCode": "4514",
			"code": "451424400",
			"name": "国营桃城华侨农场",
			"provinceCode": "45"
		  }
		]
	  },
	  {
		"cityCode": "4514",
		"code": "451425",
		"name": "天等县",
		"provinceCode": "45",
		"list": [
		  {
			"areaCode": "451425",
			"cityCode": "4514",
			"code": "451425100",
			"name": "天等镇",
			"provinceCode": "45"
		  },
		  {
			"areaCode": "451425",
			"cityCode": "4514",
			"code": "451425101",
			"name": "龙茗镇",
			"provinceCode": "45"
		  },
		  {
			"areaCode": "451425",
			"cityCode": "4514",
			"code": "451425102",
			"name": "进结镇",
			"provinceCode": "45"
		  },
		  {
			"areaCode": "451425",
			"cityCode": "4514",
			"code": "451425103",
			"name": "向都镇",
			"provinceCode": "45"
		  },
		  {
			"areaCode": "451425",
			"cityCode": "4514",
			"code": "451425104",
			"name": "东平镇",
			"provinceCode": "45"
		  },
		  {
			"areaCode": "451425",
			"cityCode": "4514",
			"code": "451425105",
			"name": "福新镇",
			"provinceCode": "45"
		  },
		  {
			"areaCode": "451425",
			"cityCode": "4514",
			"code": "451425200",
			"name": "都康乡",
			"provinceCode": "45"
		  },
		  {
			"areaCode": "451425",
			"cityCode": "4514",
			"code": "451425201",
			"name": "宁干乡",
			"provinceCode": "45"
		  },
		  {
			"areaCode": "451425",
			"cityCode": "4514",
			"code": "451425202",
			"name": "驮堪乡",
			"provinceCode": "45"
		  },
		  {
			"areaCode": "451425",
			"cityCode": "4514",
			"code": "451425205",
			"name": "进远乡",
			"provinceCode": "45"
		  },
		  {
			"areaCode": "451425",
			"cityCode": "4514",
			"code": "451425206",
			"name": "上映乡",
			"provinceCode": "45"
		  },
		  {
			"areaCode": "451425",
			"cityCode": "4514",
			"code": "451425207",
			"name": "把荷乡",
			"provinceCode": "45"
		  },
		  {
			"areaCode": "451425",
			"cityCode": "4514",
			"code": "451425208",
			"name": "小山乡",
			"provinceCode": "45"
		  }
		]
	  },
	  {
		"cityCode": "4514",
		"code": "451481",
		"name": "凭祥市",
		"provinceCode": "45",
		"list": [
		  {
			"areaCode": "451481",
			"cityCode": "4514",
			"code": "451481100",
			"name": "凭祥镇",
			"provinceCode": "45"
		  },
		  {
			"areaCode": "451481",
			"cityCode": "4514",
			"code": "451481101",
			"name": "友谊镇",
			"provinceCode": "45"
		  },
		  {
			"areaCode": "451481",
			"cityCode": "4514",
			"code": "451481102",
			"name": "上石镇",
			"provinceCode": "45"
		  },
		  {
			"areaCode": "451481",
			"cityCode": "4514",
			"code": "451481103",
			"name": "夏石镇",
			"provinceCode": "45"
		  },
		  {
			"areaCode": "451481",
			"cityCode": "4514",
			"code": "451481400",
			"name": "广西凭祥综合保税区",
			"provinceCode": "45"
		  }
		]
	  }
	]
  }
]
